{"type": "FeatureCollection", "features": [{"type": "Feature", "geometry": {"type": "LineString", "coordinates": [[-68.0724, -23.68048], [-68.07155, -23.68091], [-68.07015, -23.68195], [-68.06975, -23.68207], [-68.06705, -23.68243], [-68.06443, -23.6831], [-68.06349, -23.68357], [-68.06252, -23.68356], [-68.06127, -23.68386], [-68.06081, -23.68379], [-68.05863, -23.68438]]}, "properties": {"name": "Camino a Peine", "highway": "residential"}}, {"type": "Feature", "geometry": {"type": "LineString", "coordinates": [[-68.06081, -23.68379], [-68.06078, -23.68338], [-68.06174, -23.68313]]}, "properties": {"name": "", "highway": "residential"}}, {"type": "Feature", "geometry": {"type": "LineString", "coordinates": [[-68.05224, -23.6815], [-68.05355, -23.68235], [-68.05488, -23.68255], [-68.05491, -23.68322], [-68.0552, -23.68373], [-68.05578, -23.68409], [-68.05732, -23.684]]}, "properties": {"name": "", "highway": "unclassified"}}, {"type": "Feature", "geometry": {"type": "LineString", "coordinates": [[-68.05732, -23.684], [-68.05847, -23.68347]]}, "properties": {"name": "", "highway": "residential"}}, {"type": "Feature", "geometry": {"type": "LineString", "coordinates": [[-68.05944, -23.68412], [-68.05896, -23.68342], [-68.05847, -23.68347]]}, "properties": {"name": "", "highway": "residential"}}, {"type": "Feature", "geometry": {"type": "LineString", "coordinates": [[-68.05491, -23.68322], [-68.05355, -23.68235]]}, "properties": {"name": "", "highway": "track"}}, {"type": "Feature", "geometry": {"type": "LineString", "coordinates": [[-68.05296, -23.68196], [-68.04934, -23.68161], [-68.04869, -23.68144]]}, "properties": {"name": "", "highway": "track"}}, {"type": "Feature", "geometry": {"type": "LineString", "coordinates": [[-68.07151, -23.67179], [-68.06389, -23.67478], [-68.05025, -23.6817]]}, "properties": {"name": "", "highway": "track"}}, {"type": "Feature", "geometry": {"type": "LineString", "coordinates": [[-68.05853, -23.68427], [-68.05868, -23.684], [-68.0592, -23.68368]]}, "properties": {"name": "", "highway": "residential"}}, {"type": "Feature", "geometry": {"type": "LineString", "coordinates": [[-68.06127, -23.68386], [-68.059, -23.68457]]}, "properties": {"name": "Corpus Cristi", "highway": "residential"}}, {"type": "Feature", "geometry": {"type": "LineString", "coordinates": [[-68.05863, -23.68438], [-68.05967, -23.68474], [-68.06044, -23.6845], [-68.06127, -23.68448], [-68.06159, -23.6846], [-68.06396, -23.68384], [-68.06515, -23.68382]]}, "properties": {"name": "", "highway": "residential"}}, {"type": "Feature", "geometry": {"type": "LineString", "coordinates": [[-68.06752, -23.68236], [-68.06732, -23.68195], [-68.06884, -23.68103], [-68.07155, -23.68091]]}, "properties": {"name": "", "highway": "residential"}}, {"type": "Feature", "geometry": {"type": "LineString", "coordinates": [[-68.0597, -23.68406], [-68.05982, -23.68353], [-68.06078, -23.68338]]}, "properties": {"name": "", "highway": "residential"}}, {"type": "Feature", "geometry": {"type": "LineString", "coordinates": [[-68.0599, -23.68351], [-68.05932, -23.68343], [-68.05899, -23.683], [-68.05847, -23.68347]]}, "properties": {"name": "", "highway": "residential"}}, {"type": "Feature", "geometry": {"type": "LineString", "coordinates": [[-68.06174, -23.68313], [-68.06179, -23.68332], [-68.06158, -23.68351], [-68.06167, -23.68378]]}, "properties": {"name": "", "highway": "residential"}}, {"type": "Feature", "geometry": {"type": "LineString", "coordinates": [[-68.06179, -23.68332], [-68.06281, -23.68358]]}, "properties": {"name": "", "highway": "residential"}}, {"type": "Feature", "geometry": {"type": "LineString", "coordinates": [[-68.06174, -23.68313], [-68.06214, -23.68307], [-68.06313, -23.68255], [-68.06399, -23.68153], [-68.06477, -23.68173], [-68.0651, -23.68153], [-68.06711, -23.681], [-68.06793, -23.68028], [-68.06921, -23.67984], [-68.06972, -23.67937], [-68.07077, -23.67887], [-68.07075, -23.67862]]}, "properties": {"name": "", "highway": "track"}}, {"type": "Feature", "geometry": {"type": "LineString", "coordinates": [[-68.05982, -23.68434], [-68.0597, -23.68406]]}, "properties": {"name": "", "highway": "residential"}}, {"type": "Feature", "geometry": {"type": "LineString", "coordinates": [[-68.06001, -23.68429], [-68.06007, -23.68458]]}, "properties": {"name": "", "highway": "residential"}}, {"type": "Feature", "geometry": {"type": "LineString", "coordinates": [[-68.06127, -23.68448], [-68.06111, -23.68396]]}, "properties": {"name": "", "highway": "residential"}}, {"type": "Feature", "geometry": {"type": "LineString", "coordinates": [[-68.06126, -23.68446], [-68.06192, -23.68396]]}, "properties": {"name": "", "highway": "residential"}}, {"type": "Feature", "geometry": {"type": "LineString", "coordinates": [[-68.06078, -23.68338], [-68.06111, -23.68396]]}, "properties": {"name": "", "highway": "residential"}}, {"type": "Feature", "geometry": {"type": "LineString", "coordinates": [[-68.06, -23.68351], [-68.06005, -23.68371]]}, "properties": {"name": "", "highway": "track"}}, {"type": "Feature", "geometry": {"type": "LineString", "coordinates": [[-68.06237, -23.68437], [-68.06204, -23.68414], [-68.06181, -23.68373]]}, "properties": {"name": "", "highway": "residential"}}, {"type": "Feature", "geometry": {"type": "LineString", "coordinates": [[-68.05782, -23.68465], [-68.05747, -23.68702], [-68.05757, -23.68729], [-68.05729, -23.68856], [-68.0574, -23.6888], [-68.05781, -23.68932], [-68.05825, -23.68911], [-68.05885, -23.68917], [-68.05922, -23.68901], [-68.0598, -23.68947], [-68.06014, -23.68931]]}, "properties": {"name": "", "highway": "track"}}, {"type": "Feature", "geometry": {"type": "LineString", "coordinates": [[-68.05863, -23.68438], [-68.05708, -23.68491]]}, "properties": {"name": "Camino a Peine", "highway": "unclassified"}}, {"type": "Feature", "geometry": {"type": "LineString", "coordinates": [[-68.07274, -23.68033], [-68.0735, -23.68002], [-68.07367, -23.67926]]}, "properties": {"name": "Camino a Peine", "highway": "unclassified"}}, {"type": "Feature", "geometry": {"type": "LineString", "coordinates": [[-68.07014, -23.67858], [-68.0728, -23.67736]]}, "properties": {"name": "", "highway": "track"}}, {"type": "Feature", "geometry": {"type": "LineString", "coordinates": [[-68.07367, -23.67926], [-68.07307, -23.67898], [-68.07242, -23.67899], [-68.07014, -23.67858]]}, "properties": {"name": "", "highway": "track"}}, {"type": "Feature", "geometry": {"type": "LineString", "coordinates": [[-68.0574, -23.6888], [-68.05636, -23.68813], [-68.05568, -23.68804], [-68.05531, -23.68747], [-68.05509, -23.6874]]}, "properties": {"name": "", "highway": "track"}}, {"type": "Feature", "geometry": {"type": "LineString", "coordinates": [[-68.05732, -23.684], [-68.05776, -23.6842], [-68.05881, -23.68431]]}, "properties": {"name": "", "highway": "residential"}}, {"type": "Feature", "geometry": {"type": "LineString", "coordinates": [[-68.07014, -23.67858], [-68.06957, -23.67875], [-68.06741, -23.67869]]}, "properties": {"name": "", "highway": "track"}}, {"type": "Feature", "geometry": {"type": "LineString", "coordinates": [[-68.07014, -23.67858], [-68.0699, -23.67884], [-68.06913, -23.6789]]}, "properties": {"name": "", "highway": "track"}}, {"type": "Feature", "geometry": {"type": "LineString", "coordinates": [[-68.0668, -23.68308], [-68.06661, -23.68253]]}, "properties": {"name": "", "highway": "residential"}}, {"type": "Feature", "geometry": {"type": "LineString", "coordinates": [[-68.06515, -23.68382], [-68.06532, -23.68331], [-68.0652, -23.68289]]}, "properties": {"name": "", "highway": "residential"}}, {"type": "Feature", "geometry": {"type": "LineString", "coordinates": [[-68.05237, -23.67892], [-68.05406, -23.67988], [-68.0546, -23.68119], [-68.05451, -23.68252]]}, "properties": {"name": "", "highway": "track"}}, {"type": "Feature", "geometry": {"type": "LineString", "coordinates": [[-68.07274, -23.68033], [-68.0724, -23.68048]]}, "properties": {"name": "Camino a Peine", "highway": "residential"}}, {"type": "Feature", "geometry": {"type": "LineString", "coordinates": [[-68.07412, -23.68055], [-68.07367, -23.67926]]}, "properties": {"name": "Ruta B-39", "highway": "tertiary"}}, {"type": "Feature", "geometry": {"type": "LineString", "coordinates": [[-68.06515, -23.68382], [-68.07003, -23.683], [-68.07343, -23.68126]]}, "properties": {"name": "", "highway": "unclassified"}}, {"type": "Feature", "geometry": {"type": "LineString", "coordinates": [[-68.06337, -23.68358], [-68.06379, -23.68371], [-68.06385, -23.68387]]}, "properties": {"name": "", "highway": "residential"}}, {"type": "Feature", "geometry": {"type": "LineString", "coordinates": [[-68.06732, -23.68195], [-68.06647, -23.68229]]}, "properties": {"name": "", "highway": "residential"}}, {"type": "Feature", "geometry": {"type": "LineString", "coordinates": [[-68.07055, -23.68088], [-68.06937, -23.68076]]}, "properties": {"name": "", "highway": "service"}}, {"type": "Feature", "geometry": {"type": "LineString", "coordinates": [[-68.07151, -23.67179], [-68.07144, -23.67139]]}, "properties": {"name": "Ruta B-39", "highway": "tertiary"}}, {"type": "Feature", "geometry": {"type": "LineString", "coordinates": [[-68.07161, -23.67222], [-68.07151, -23.67179]]}, "properties": {"name": "Ruta B-39", "highway": "tertiary"}}, {"type": "Feature", "geometry": {"type": "LineString", "coordinates": [[-68.07367, -23.67926], [-68.07318, -23.67853], [-68.07289, -23.67776], [-68.07161, -23.67222]]}, "properties": {"name": "Ruta B-39", "highway": "tertiary"}}, {"type": "Feature", "geometry": {"type": "LineString", "coordinates": [[-68.0719, -23.67163], [-68.07151, -23.67179]]}, "properties": {"name": "Camino Mina Lomas Bayas", "highway": "unclassified"}}, {"type": "Feature", "geometry": {"type": "LineString", "coordinates": [[-68.0727, -23.67129], [-68.0719, -23.67163]]}, "properties": {"name": "Camino Mina Lomas Bayas", "highway": "unclassified"}}, {"type": "Feature", "geometry": {"type": "LineString", "coordinates": [[-68.05892, -23.68294], [-68.05837, -23.68289], [-68.05661, -23.68315], [-68.0556, -23.68367], [-68.05545, -23.6839]]}, "properties": {"name": "", "highway": "service"}}, {"type": "Feature", "geometry": {"type": "LineString", "coordinates": [[-68.05704, -23.68311], [-68.05773, -23.68265]]}, "properties": {"name": "", "highway": "service"}}, {"type": "Feature", "geometry": {"type": "LineString", "coordinates": [[-68.05775, -23.68516], [-68.05862, -23.68605]]}, "properties": {"name": "", "highway": "service"}}, {"type": "Feature", "geometry": {"type": "LineString", "coordinates": [[-68.07387, -23.6948], [-68.07274, -23.69524], [-68.07179, -23.69491], [-68.07104, -23.69486], [-68.06997, -23.6954], [-68.06895, -23.69555], [-68.06734, -23.69475], [-68.06606, -23.69438], [-68.06554, -23.69468], [-68.06524, -23.69521], [-68.06487, -23.6955], [-68.06372, -23.69565], [-68.06337, -23.6959], [-68.06304, -23.69593]]}, "properties": {"name": "", "highway": "unclassified"}}, {"type": "Feature", "geometry": {"type": "LineString", "coordinates": [[-68.00595, -23.76233], [-68.00638, -23.76157], [-68.00742, -23.75762], [-68.00824, -23.75511], [-68.00947, -23.75293], [-68.01208, -23.74892], [-68.01324, -23.74659], [-68.01556, -23.74375], [-68.01875, -23.74023], [-68.02002, -23.7392], [-68.02078, -23.73892], [-68.02137, -23.7384], [-68.02158, -23.73807], [-68.02235, -23.7355], [-68.02463, -23.7311], [-68.02633, -23.72856], [-68.02872, -23.72537], [-68.0295, -23.72374], [-68.03035, -23.72246], [-68.03098, -23.72003], [-68.03178, -23.71816], [-68.03276, -23.71639], [-68.03463, -23.71139], [-68.03511, -23.71078], [-68.03596, -23.71041], [-68.03637, -23.70995], [-68.03781, -23.70726], [-68.03752, -23.70641], [-68.03766, -23.70502], [-68.03855, -23.70289], [-68.03993, -23.70145], [-68.0398, -23.70005], [-68.0404, -23.69871], [-68.04274, -23.69577], [-68.04403, -23.69539], [-68.045, -23.69404], [-68.04592, -23.69376], [-68.04662, -23.69382], [-68.04738, -23.69355], [-68.04894, -23.69347], [-68.05029, -23.69286], [-68.05051, -23.69316], [-68.05113, -23.69321], [-68.05175, -23.69221], [-68.0529, -23.69143], [-68.05377, -23.69032], [-68.05503, -23.68795], [-68.05511, -23.68756], [-68.05499, -23.68698], [-68.05529, -23.68607], [-68.05597, -23.68531], [-68.05671, -23.68536], [-68.05708, -23.68491]]}, "properties": {"name": "", "highway": "unclassified"}}], "_meta": {"ciudad": "Peine", "fuente": "OpenStreetMap (ODbL)"}}