{"type": "FeatureCollection", "features": [{"type": "Feature", "geometry": {"type": "LineString", "coordinates": [[-69.84771, -23.33699], [-69.84829, -23.33602]]}, "properties": {"name": "Chacabuco", "highway": "residential"}}, {"type": "Feature", "geometry": {"type": "LineString", "coordinates": [[-69.83921, -23.33572], [-69.83804, -23.33799], [-69.83736, -23.33899], [-69.83621, -23.33818], [-69.83634, -23.33641], [-69.83582, -23.3355], [-69.83579, -23.33495]]}, "properties": {"name": "", "highway": "unclassified"}}, {"type": "Feature", "geometry": {"type": "LineString", "coordinates": [[-69.83627, -23.33411], [-69.83643, -23.33458], [-69.83617, -23.33557], [-69.83589, -23.3356]]}, "properties": {"name": "", "highway": "unclassified"}}, {"type": "Feature", "geometry": {"type": "LineString", "coordinates": [[-69.84093, -23.33254], [-69.84058, -23.33299]]}, "properties": {"name": "Taltal", "highway": "residential"}}, {"type": "Feature", "geometry": {"type": "LineString", "coordinates": [[-69.83925, -23.33331], [-69.83809, -23.33246], [-69.83784, -23.33244], [-69.83765, -23.33212]]}, "properties": {"name": "", "highway": "unclassified"}}, {"type": "Feature", "geometry": {"type": "LineString", "coordinates": [[-69.83611, -23.33595], [-69.83617, -23.33557]]}, "properties": {"name": "", "highway": "unclassified"}}, {"type": "Feature", "geometry": {"type": "LineString", "coordinates": [[-69.84895, -23.3391], [-69.84746, -23.33828], [-69.84636, -23.33739], [-69.84536, -23.33703], [-69.84452, -23.337], [-69.84342, -23.33642], [-69.84263, -23.33571], [-69.84002, -23.33397], [-69.83946, -23.3334], [-69.83913, -23.33336], [-69.83808, -23.33398], [-69.83728, -23.33395]]}, "properties": {"name": "", "highway": "unclassified"}}, {"type": "Feature", "geometry": {"type": "LineString", "coordinates": [[-69.83889, -23.33984], [-69.8348, -23.34121], [-69.83165, -23.34089], [-69.82975, -23.34116], [-69.82932, -23.34078]]}, "properties": {"name": "", "highway": "track"}}, {"type": "Feature", "geometry": {"type": "LineString", "coordinates": [[-69.84008, -23.33481], [-69.83951, -23.3357], [-69.83736, -23.33574], [-69.83722, -23.33651]]}, "properties": {"name": "", "highway": "unclassified"}}, {"type": "Feature", "geometry": {"type": "LineString", "coordinates": [[-69.84529, -23.33988], [-69.84386, -23.33977], [-69.84251, -23.34022], [-69.84148, -23.33988], [-69.83989, -23.34017], [-69.83784, -23.3395], [-69.83736, -23.33899]]}, "properties": {"name": "", "highway": "unclassified"}}, {"type": "Feature", "geometry": {"type": "LineString", "coordinates": [[-69.83893, -23.33349], [-69.8389, -23.33303]]}, "properties": {"name": "", "highway": "unclassified"}}, {"type": "Feature", "geometry": {"type": "LineString", "coordinates": [[-69.84113, -23.33524], [-69.84096, -23.33551], [-69.84043, -23.33579], [-69.83979, -23.33539]]}, "properties": {"name": "", "highway": "unclassified"}}, {"type": "Feature", "geometry": {"type": "LineString", "coordinates": [[-69.83572, -23.33714], [-69.83573, -23.33845], [-69.83583, -23.33909], [-69.83619, -23.3397], [-69.83603, -23.34058], [-69.83621, -23.34078]]}, "properties": {"name": "", "highway": "track"}}, {"type": "Feature", "geometry": {"type": "LineString", "coordinates": [[-69.83608, -23.33047], [-69.83564, -23.33089], [-69.83521, -23.3307]]}, "properties": {"name": "", "highway": "unclassified"}}, {"type": "Feature", "geometry": {"type": "LineString", "coordinates": [[-69.84243, -23.33942], [-69.84314, -23.33979], [-69.84332, -23.33973], [-69.84318, -23.33945], [-69.84243, -23.33942], [-69.83804, -23.33799]]}, "properties": {"name": "", "highway": "track"}}, {"type": "Feature", "geometry": {"type": "LineString", "coordinates": [[-69.83891, -23.33864], [-69.83805, -23.33852], [-69.8377, -23.33853], [-69.83755, -23.33867]]}, "properties": {"name": "", "highway": "track"}}, {"type": "Feature", "geometry": {"type": "LineString", "coordinates": [[-69.83628, -23.38198], [-69.83684, -23.38021], [-69.83788, -23.37496], [-69.83976, -23.36694], [-69.83973, -23.36577], [-69.83929, -23.363], [-69.83924, -23.36045], [-69.83867, -23.35678], [-69.83877, -23.35566], [-69.83832, -23.35305], [-69.83727, -23.34958], [-69.83671, -23.34602], [-69.83671, -23.34282], [-69.83698, -23.34054], [-69.83736, -23.33899]]}, "properties": {"name": "", "highway": "track"}}, {"type": "Feature", "geometry": {"type": "LineString", "coordinates": [[-69.83773, -23.33231], [-69.83737, -23.33386], [-69.83679, -23.33439], [-69.83662, -23.33513], [-69.83617, -23.33557]]}, "properties": {"name": "", "highway": "unclassified"}}, {"type": "Feature", "geometry": {"type": "LineString", "coordinates": [[-69.84226, -23.33336], [-69.84025, -23.33219], [-69.83925, -23.33204]]}, "properties": {"name": "Jaime Guzmán", "highway": "residential"}}, {"type": "Feature", "geometry": {"type": "LineString", "coordinates": [[-69.84326, -23.33471], [-69.84364, -23.33414]]}, "properties": {"name": "Atacama", "highway": "residential"}}, {"type": "Feature", "geometry": {"type": "LineString", "coordinates": [[-69.84454, -23.33466], [-69.84421, -23.33523]]}, "properties": {"name": "Coquimbo", "highway": "residential"}}, {"type": "Feature", "geometry": {"type": "LineString", "coordinates": [[-69.84629, -23.33623], [-69.8466, -23.33571]]}, "properties": {"name": "Aconcagua", "highway": "residential"}}, {"type": "Feature", "geometry": {"type": "LineString", "coordinates": [[-69.84519, -23.33499], [-69.84572, -23.33405]]}, "properties": {"name": "Corazón del Desierto", "highway": "residential"}}, {"type": "Feature", "geometry": {"type": "LineString", "coordinates": [[-69.84687, -23.33585], [-69.84738, -23.33499]]}, "properties": {"name": "Pasaje Pampa Unión", "highway": "residential"}}, {"type": "Feature", "geometry": {"type": "LineString", "coordinates": [[-69.84364, -23.33414], [-69.84384, -23.33381]]}, "properties": {"name": "Atacama", "highway": "residential"}}, {"type": "Feature", "geometry": {"type": "LineString", "coordinates": [[-69.84829, -23.33602], [-69.8433, -23.33354]]}, "properties": {"name": "Ramón Barros Luco", "highway": "residential"}}, {"type": "Feature", "geometry": {"type": "LineString", "coordinates": [[-69.84729, -23.33677], [-69.84722, -23.33688]]}, "properties": {"name": "", "highway": "service"}}, {"type": "Feature", "geometry": {"type": "LineString", "coordinates": [[-69.84875, -23.33763], [-69.84506, -23.33567], [-69.84511, -23.33586], [-69.8469, -23.33684], [-69.84856, -23.33769], [-69.84875, -23.33763]]}, "properties": {"name": "", "highway": "rest_area"}}, {"type": "Feature", "geometry": {"type": "LineString", "coordinates": [[-69.83806, -23.33144], [-69.83925, -23.33204]]}, "properties": {"name": "Avenida Salvador Allende", "highway": "tertiary"}}, {"type": "Feature", "geometry": {"type": "LineString", "coordinates": [[-69.83806, -23.33144], [-69.83552, -23.33021], [-69.83133, -23.33003], [-69.83037, -23.32986], [-69.82904, -23.32996], [-69.82801, -23.32978], [-69.82729, -23.32981], [-69.8271, -23.3297], [-69.82705, -23.32941]]}, "properties": {"name": "Acceso a Panamericana Norte", "highway": "tertiary"}}, {"type": "Feature", "geometry": {"type": "LineString", "coordinates": [[-69.84311, -23.33384], [-69.8433, -23.33354]]}, "properties": {"name": "Antofagasta", "highway": "residential"}}, {"type": "Feature", "geometry": {"type": "LineString", "coordinates": [[-69.83616, -23.32899], [-69.83481, -23.32908]]}, "properties": {"name": "Ruta 5 Norte", "highway": "motorway"}}, {"type": "Feature", "geometry": {"type": "LineString", "coordinates": [[-69.83666, -23.32896], [-69.83616, -23.32899]]}, "properties": {"name": "Ruta 5 Norte", "highway": "motorway"}}, {"type": "Feature", "geometry": {"type": "LineString", "coordinates": [[-69.83607, -23.32888], [-69.83655, -23.32885]]}, "properties": {"name": "Ruta 5 Norte", "highway": "motorway"}}, {"type": "Feature", "geometry": {"type": "LineString", "coordinates": [[-69.83655, -23.32885], [-69.83754, -23.32879]]}, "properties": {"name": "Ruta 5 Norte", "highway": "motorway"}}, {"type": "Feature", "geometry": {"type": "LineString", "coordinates": [[-69.85645, -23.33799], [-69.85553, -23.33615], [-69.85435, -23.33489], [-69.84646, -23.32973], [-69.8443, -23.32887]]}, "properties": {"name": "Ruta 5 Norte", "highway": "motorway"}}, {"type": "Feature", "geometry": {"type": "LineString", "coordinates": [[-69.83996, -23.32791], [-69.84058, -23.32843], [-69.84146, -23.32857]]}, "properties": {"name": "", "highway": "motorway_link"}}, {"type": "Feature", "geometry": {"type": "LineString", "coordinates": [[-69.83834, -23.32998], [-69.83846, -23.32961], [-69.83834, -23.32921], [-69.83799, -23.32895], [-69.83748, -23.3289]]}, "properties": {"name": "", "highway": "motorway_link"}}, {"type": "Feature", "geometry": {"type": "LineString", "coordinates": [[-69.83929, -23.32868], [-69.83998, -23.32844], [-69.84007, -23.32814], [-69.83996, -23.32791]]}, "properties": {"name": "", "highway": "motorway_link"}}, {"type": "Feature", "geometry": {"type": "LineString", "coordinates": [[-69.83996, -23.32791], [-69.83958, -23.32775], [-69.83929, -23.32786], [-69.83896, -23.32878]]}, "properties": {"name": "", "highway": "tertiary"}}, {"type": "Feature", "geometry": {"type": "LineString", "coordinates": [[-69.83834, -23.32998], [-69.83808, -23.33067], [-69.83826, -23.33121]]}, "properties": {"name": "Acceso a Panamericana Norte", "highway": "tertiary"}}, {"type": "Feature", "geometry": {"type": "LineString", "coordinates": [[-69.83651, -23.33066], [-69.83332, -23.32798], [-69.83221, -23.32659], [-69.83057, -23.32488], [-69.82927, -23.32403], [-69.82882, -23.3229], [-69.82847, -23.32092], [-69.827, -23.31909], [-69.8257, -23.31626], [-69.82427, -23.31473], [-69.82338, -23.31153], [-69.82248, -23.31013], [-69.82177, -23.30968], [-69.82144, -23.3092], [-69.82111, -23.3084], [-69.82083, -23.30618], [-69.82176, -23.30095], [-69.82134, -23.29877], [-69.82126, -23.29763], [-69.82149, -23.29674], [-69.82213, -23.29529], [-69.82209, -23.29385], [-69.82179, -23.29269], [-69.82067, -23.29027], [-69.81942, -23.28671], [-69.81868, -23.286], [-69.81715, -23.28498], [-69.81375, -23.28308], [-69.81166, -23.28126], [-69.81029, -23.27955], [-69.80973, -23.27831], [-69.80902, -23.27552], [-69.80893, -23.27459], [-69.80922, -23.27117], [-69.80846, -23.26847], [-69.80808, -23.26789], [-69.80762, -23.26752], [-69.80602, -23.26704], [-69.80522, -23.26604], [-69.80518, -23.26337], [-69.8054, -23.26209], [-69.80575, -23.26144], [-69.80758, -23.25941], [-69.80804, -23.25827], [-69.80806, -23.25529], [-69.8085, -23.25285], [-69.80863, -23.24971], [-69.80829, -23.24862], [-69.80716, -23.24709], [-69.80706, -23.24625], [-69.80758, -23.24548], [-69.80865, -23.24513], [-69.80899, -23.24488], [-69.80911, -23.2446], [-69.80916, -23.24315], [-69.80953, -23.24251], [-69.81008, -23.24224], [-69.81157, -23.24232], [-69.81246, -23.24214], [-69.81309, -23.24163], [-69.81342, -23.241], [-69.81358, -23.23906], [-69.81516, -23.23593], [-69.81529, -23.23477], [-69.81499, -23.23412], [-69.81328, -23.23272], [-69.81251, -23.23172], [-69.81222, -23.23097], [-69.81239, -23.22962], [-69.81282, -23.22868], [-69.81416, -23.22674], [-69.81503, -23.22366], [-69.81561, -23.2226], [-69.81715, -23.22134], [-69.81756, -23.22088], [-69.8182, -23.21972], [-69.81879, -23.21911], [-69.82523, -23.21424], [-69.82583, -23.21354], [-69.8264, -23.2117], [-69.82644, -23.21086], [-69.82625, -23.20958], [-69.82554, -23.20808], [-69.82539, -23.20728], [-69.82646, -23.20344], [-69.83081, -23.19958], [-69.83406, -23.19716], [-69.83549, -23.19638], [-69.83639, -23.19612], [-69.83735, -23.19622], [-69.8402, -23.19681], [-69.84109, -23.19749], [-69.8417, -23.1975], [-69.84306, -23.19708], [-69.84574, -23.19556], [-69.84935, -23.19447], [-69.85015, -23.194], [-69.85067, -23.19341], [-69.85194, -23.19027], [-69.85383, -23.18774], [-69.85448, -23.18662], [-69.85503, -23.18455], [-69.85498, -23.18228], [-69.85534, -23.18086], [-69.85499, -23.17953], [-69.85597, -23.17781], [-69.85638, -23.17618], [-69.85743, -23.1743], [-69.85821, -23.17326], [-69.85829, -23.1705], [-69.86027, -23.1667], [-69.86123, -23.16186], [-69.8618, -23.16009], [-69.8636, -23.15762], [-69.86387, -23.157], [-69.86453, -23.15383], [-69.86469, -23.14849], [-69.86443, -23.14559], [-69.86311, -23.14226], [-69.8633, -23.14083], [-69.86418, -23.13976], [-69.86532, -23.13934], [-69.86572, -23.13838], [-69.86607, -23.13792], [-69.86739, -23.13733], [-69.8682, -23.13658], [-69.86918, -23.13614], [-69.87215, -23.13602], [-69.8737, -23.13492]]}, "properties": {"name": "Ruta B-330", "highway": "tertiary"}}, {"type": "Feature", "geometry": {"type": "LineString", "coordinates": [[-69.83806, -23.33144], [-69.83826, -23.33121]]}, "properties": {"name": "", "highway": "tertiary_link"}}, {"type": "Feature", "geometry": {"type": "LineString", "coordinates": [[-69.83826, -23.33121], [-69.83925, -23.33204]]}, "properties": {"name": "Acceso a Panamericana Norte", "highway": "tertiary"}}, {"type": "Feature", "geometry": {"type": "LineString", "coordinates": [[-69.83884, -23.32882], [-69.83748, -23.3289]]}, "properties": {"name": "Ruta 5 Norte", "highway": "motorway"}}, {"type": "Feature", "geometry": {"type": "LineString", "coordinates": [[-69.84445, -23.32877], [-69.84568, -23.32919], [-69.84681, -23.3298], [-69.85432, -23.33472], [-69.8558, -23.33632], [-69.85658, -23.33798]]}, "properties": {"name": "Ruta 5 Norte", "highway": "motorway"}}, {"type": "Feature", "geometry": {"type": "LineString", "coordinates": [[-69.83886, -23.32871], [-69.83908, -23.3287]]}, "properties": {"name": "Ruta 5 Norte", "highway": "motorway"}}, {"type": "Feature", "geometry": {"type": "LineString", "coordinates": [[-69.83905, -23.32881], [-69.83884, -23.32882]]}, "properties": {"name": "Ruta 5 Norte", "highway": "motorway"}}, {"type": "Feature", "geometry": {"type": "LineString", "coordinates": [[-69.80552, -23.34282], [-69.83247, -23.34055], [-69.83303, -23.34028], [-69.83337, -23.33988], [-69.8338, -23.33816], [-69.83427, -23.33805], [-69.83634, -23.33837]]}, "properties": {"name": "", "highway": "track"}}, {"type": "Feature", "geometry": {"type": "LineString", "coordinates": [[-69.85344, -23.33627], [-69.85358, -23.33539], [-69.85087, -23.33501], [-69.84942, -23.33757], [-69.84961, -23.33775], [-69.84956, -23.33795]]}, "properties": {"name": "Calle 1", "highway": "unclassified"}}, {"type": "Feature", "geometry": {"type": "LineString", "coordinates": [[-69.85358, -23.33539], [-69.85379, -23.33516], [-69.85296, -23.33439], [-69.85174, -23.33391], [-69.85111, -23.33384]]}, "properties": {"name": "", "highway": "track"}}, {"type": "Feature", "geometry": {"type": "LineString", "coordinates": [[-69.85008, -23.33696], [-69.8497, -23.33756]]}, "properties": {"name": "Calle 1", "highway": "residential"}}, {"type": "Feature", "geometry": {"type": "LineString", "coordinates": [[-69.85046, -23.33716], [-69.85008, -23.33777]]}, "properties": {"name": "Pasaje 2", "highway": "residential"}}, {"type": "Feature", "geometry": {"type": "LineString", "coordinates": [[-69.84529, -23.33988], [-69.84741, -23.34005], [-69.84826, -23.33976], [-69.84882, -23.33912], [-69.84989, -23.33929], [-69.85023, -23.33877], [-69.84918, -23.3382], [-69.84927, -23.3378]]}, "properties": {"name": "", "highway": "unclassified"}}, {"type": "Feature", "geometry": {"type": "LineString", "coordinates": [[-69.85288, -23.33975], [-69.85213, -23.33964], [-69.85054, -23.33886], [-69.85025, -23.33886]]}, "properties": {"name": "", "highway": "service"}}, {"type": "Feature", "geometry": {"type": "LineString", "coordinates": [[-69.84421, -23.33523], [-69.84187, -23.33384]]}, "properties": {"name": "Avenida Salvador Allende", "highway": "tertiary"}}, {"type": "Feature", "geometry": {"type": "LineString", "coordinates": [[-69.84782, -23.33681], [-69.84962, -23.33782]]}, "properties": {"name": "Avenida Salvador Allende", "highway": "residential"}}, {"type": "Feature", "geometry": {"type": "LineString", "coordinates": [[-69.83896, -23.32878], [-69.83879, -23.32932], [-69.83834, -23.32998]]}, "properties": {"name": "", "highway": "tertiary"}}, {"type": "Feature", "geometry": {"type": "LineString", "coordinates": [[-69.85047, -23.33797], [-69.85081, -23.33736]]}, "properties": {"name": "Calle 2", "highway": "residential"}}, {"type": "Feature", "geometry": {"type": "LineString", "coordinates": [[-69.84949, -23.33745], [-69.85047, -23.33797]]}, "properties": {"name": "Pasaje 1", "highway": "residential"}}, {"type": "Feature", "geometry": {"type": "LineString", "coordinates": [[-69.85081, -23.33736], [-69.84987, -23.33686]]}, "properties": {"name": "Pasaje 3", "highway": "residential"}}, {"type": "Feature", "geometry": {"type": "LineString", "coordinates": [[-69.83929, -23.32868], [-69.84146, -23.32857]]}, "properties": {"name": "Ruta 5 Norte", "highway": "motorway"}}, {"type": "Feature", "geometry": {"type": "LineString", "coordinates": [[-69.83908, -23.3287], [-69.83929, -23.32868]]}, "properties": {"name": "Ruta 5 Norte", "highway": "motorway"}}, {"type": "Feature", "geometry": {"type": "LineString", "coordinates": [[-69.85137, -23.3326], [-69.85121, -23.33231], [-69.85041, -23.33173], [-69.8482, -23.32941], [-69.84773, -23.32908], [-69.84549, -23.32838], [-69.84355, -23.32803], [-69.84304, -23.32774], [-69.84253, -23.32667], [-69.84163, -23.32364], [-69.84187, -23.32266], [-69.85457, -23.31141], [-69.87213, -23.30325], [-69.8817, -23.29075], [-69.88133, -23.22011], [-69.8813, -23.21982], [-69.87897, -23.21636], [-69.87911, -23.21084], [-69.87904, -23.20202], [-69.87918, -23.20163], [-69.88219, -23.19707], [-69.88282, -23.19632], [-69.88487, -23.19468], [-69.88691, -23.19383], [-69.88905, -23.19315], [-69.88971, -23.19259], [-69.89003, -23.19169], [-69.89346, -23.17676], [-69.89475, -23.17376], [-69.89889, -23.16919]]}, "properties": {"name": "", "highway": "track"}}, {"type": "Feature", "geometry": {"type": "LineString", "coordinates": [[-69.85134, -23.33303], [-69.85137, -23.3326]]}, "properties": {"name": "", "highway": "track"}}, {"type": "Feature", "geometry": {"type": "LineString", "coordinates": [[-69.85087, -23.33501], [-69.85134, -23.33303]]}, "properties": {"name": "", "highway": "track"}}, {"type": "Feature", "geometry": {"type": "LineString", "coordinates": [[-69.84168, -23.33139], [-69.84126, -23.33209]]}, "properties": {"name": "", "highway": "service"}}, {"type": "Feature", "geometry": {"type": "LineString", "coordinates": [[-69.83886, -23.33125], [-69.83893, -23.33088]]}, "properties": {"name": "Ramón Barros Luco", "highway": "unclassified"}}, {"type": "Feature", "geometry": {"type": "LineString", "coordinates": [[-69.83856, -23.33152], [-69.83886, -23.33125], [-69.83938, -23.3312]]}, "properties": {"name": "Ramón Barros Luco", "highway": "unclassified"}}, {"type": "Feature", "geometry": {"type": "LineString", "coordinates": [[-69.83893, -23.33088], [-69.84138, -23.33214], [-69.8433, -23.33354]]}, "properties": {"name": "Ramón Barros Luco", "highway": "unclassified"}}, {"type": "Feature", "geometry": {"type": "LineString", "coordinates": [[-69.84226, -23.33336], [-69.84187, -23.33384]]}, "properties": {"name": "", "highway": "living_street"}}, {"type": "Feature", "geometry": {"type": "LineString", "coordinates": [[-69.84478, -23.33362], [-69.84572, -23.33405]]}, "properties": {"name": "Rafael Torres", "highway": "residential"}}, {"type": "Feature", "geometry": {"type": "LineString", "coordinates": [[-69.84458, -23.33393], [-69.84478, -23.33362]]}, "properties": {"name": "Rafael Siglic Oyanadel", "highway": "residential"}}, {"type": "Feature", "geometry": {"type": "LineString", "coordinates": [[-69.84404, -23.33366], [-69.84552, -23.33441]]}, "properties": {"name": "", "highway": "residential"}}, {"type": "Feature", "geometry": {"type": "LineString", "coordinates": [[-69.84636, -23.33484], [-69.84659, -23.33445]]}, "properties": {"name": "Nueva Esperanza", "highway": "residential"}}, {"type": "Feature", "geometry": {"type": "LineString", "coordinates": [[-69.84646, -23.33467], [-69.84562, -23.33424]]}, "properties": {"name": "Sergio Vega Fernández", "highway": "residential"}}, {"type": "Feature", "geometry": {"type": "LineString", "coordinates": [[-69.84659, -23.33445], [-69.84738, -23.33499]]}, "properties": {"name": "Rafael Torres", "highway": "residential"}}, {"type": "Feature", "geometry": {"type": "LineString", "coordinates": [[-69.84775, -23.33555], [-69.84636, -23.33484]]}, "properties": {"name": "", "highway": "residential"}}, {"type": "Feature", "geometry": {"type": "LineString", "coordinates": [[-69.84436, -23.33317], [-69.84274, -23.33255]]}, "properties": {"name": "Emiliano Figueroa", "highway": "unclassified"}}, {"type": "Feature", "geometry": {"type": "LineString", "coordinates": [[-69.84274, -23.33255], [-69.84223, -23.33274]]}, "properties": {"name": "Emiliano Figueroa", "highway": "unclassified"}}, {"type": "Feature", "geometry": {"type": "LineString", "coordinates": [[-69.84309, -23.33118], [-69.84262, -23.33255]]}, "properties": {"name": "", "highway": "service"}}, {"type": "Feature", "geometry": {"type": "LineString", "coordinates": [[-69.84448, -23.33284], [-69.84308, -23.33249], [-69.84274, -23.33255]]}, "properties": {"name": "", "highway": "unclassified"}}, {"type": "Feature", "geometry": {"type": "LineString", "coordinates": [[-69.85351, -23.33598], [-69.85038, -23.33599]]}, "properties": {"name": "", "highway": "track"}}, {"type": "Feature", "geometry": {"type": "LineString", "coordinates": [[-69.84885, -23.33575], [-69.85011, -23.33569], [-69.85054, -23.33515], [-69.85087, -23.33501]]}, "properties": {"name": "", "highway": "track"}}, {"type": "Feature", "geometry": {"type": "LineString", "coordinates": [[-69.84829, -23.33602], [-69.84915, -23.33666], [-69.84987, -23.33686]]}, "properties": {"name": "", "highway": "track"}}, {"type": "Feature", "geometry": {"type": "LineString", "coordinates": [[-69.8534, -23.33723], [-69.84924, -23.33581], [-69.84853, -23.33582], [-69.84829, -23.33602]]}, "properties": {"name": "", "highway": "track"}}, {"type": "Feature", "geometry": {"type": "LineString", "coordinates": [[-69.83809, -23.33246], [-69.83828, -23.33207], [-69.84025, -23.33346], [-69.8402, -23.33356]]}, "properties": {"name": "", "highway": "service"}}, {"type": "Feature", "geometry": {"type": "LineString", "coordinates": [[-69.83834, -23.33809], [-69.83816, -23.33776]]}, "properties": {"name": "", "highway": "track"}}, {"type": "Feature", "geometry": {"type": "LineString", "coordinates": [[-69.8386, -23.33819], [-69.83779, -23.33832]]}, "properties": {"name": "", "highway": "track"}}, {"type": "Feature", "geometry": {"type": "LineString", "coordinates": [[-69.84249, -23.33296], [-69.84226, -23.33336]]}, "properties": {"name": "", "highway": "residential"}}, {"type": "Feature", "geometry": {"type": "LineString", "coordinates": [[-69.85678, -23.34232], [-69.85548, -23.34176], [-69.852, -23.33958]]}, "properties": {"name": "", "highway": "service"}}, {"type": "Feature", "geometry": {"type": "LineString", "coordinates": [[-69.82639, -23.31786], [-69.82611, -23.3168], [-69.8262, -23.31647], [-69.82636, -23.31607], [-69.827, -23.31586], [-69.82837, -23.3157], [-69.83239, -23.31618], [-69.83301, -23.31595], [-69.83335, -23.31601], [-69.83373, -23.31671], [-69.83378, -23.31772], [-69.83425, -23.31844], [-69.83475, -23.31879], [-69.83615, -23.31927], [-69.83725, -23.32014], [-69.83764, -23.32142], [-69.8378, -23.32309], [-69.83804, -23.32355], [-69.83869, -23.32414], [-69.83984, -23.32399], [-69.84118, -23.32465], [-69.84143, -23.32492], [-69.84174, -23.32577], [-69.84253, -23.32667]]}, "properties": {"name": "", "highway": "track"}}, {"type": "Feature", "geometry": {"type": "LineString", "coordinates": [[-69.84629, -23.33623], [-69.84452, -23.33538]]}, "properties": {"name": "Avenida Salvador Allende", "highway": "tertiary"}}, {"type": "Feature", "geometry": {"type": "LineString", "coordinates": [[-69.84478, -23.33479], [-69.84226, -23.33336]]}, "properties": {"name": "Jaime Guzmán", "highway": "residential"}}, {"type": "Feature", "geometry": {"type": "LineString", "coordinates": [[-69.84803, -23.33646], [-69.84478, -23.33479]]}, "properties": {"name": "Jaime Guzmán", "highway": "residential"}}, {"type": "Feature", "geometry": {"type": "LineString", "coordinates": [[-69.84058, -23.33299], [-69.83925, -23.33204]]}, "properties": {"name": "Avenida Salvador Allende", "highway": "tertiary"}}, {"type": "Feature", "geometry": {"type": "LineString", "coordinates": [[-69.84648, -23.33611], [-69.84653, -23.33628]]}, "properties": {"name": "", "highway": "service"}}, {"type": "Feature", "geometry": {"type": "LineString", "coordinates": [[-69.84648, -23.33611], [-69.84639, -23.33606]]}, "properties": {"name": "", "highway": "service"}}, {"type": "Feature", "geometry": {"type": "LineString", "coordinates": [[-69.84653, -23.33582], [-69.84648, -23.33611]]}, "properties": {"name": "", "highway": "service"}}, {"type": "Feature", "geometry": {"type": "LineString", "coordinates": [[-69.84722, -23.33688], [-69.84586, -23.33613]]}, "properties": {"name": "", "highway": "service"}}, {"type": "Feature", "geometry": {"type": "LineString", "coordinates": [[-69.84762, -23.33625], [-69.84737, -23.33663]]}, "properties": {"name": "Pasaje Sierra Gorda", "highway": "living_street"}}, {"type": "Feature", "geometry": {"type": "LineString", "coordinates": [[-69.84632, -23.33617], [-69.84775, -23.33692]]}, "properties": {"name": "Avenida Salvador Allende", "highway": "residential"}}, {"type": "Feature", "geometry": {"type": "LineString", "coordinates": [[-69.84586, -23.33613], [-69.84582, -23.336]]}, "properties": {"name": "", "highway": "service"}}, {"type": "Feature", "geometry": {"type": "LineString", "coordinates": [[-69.84927, -23.3378], [-69.84629, -23.33623]]}, "properties": {"name": "Avenida Salvador Allende", "highway": "tertiary"}}, {"type": "Feature", "geometry": {"type": "LineString", "coordinates": [[-69.8544, -23.34056], [-69.84927, -23.3378]]}, "properties": {"name": "Avenida Salvador Allende", "highway": "tertiary"}}, {"type": "Feature", "geometry": {"type": "LineString", "coordinates": [[-69.84722, -23.33688], [-69.84856, -23.33758]]}, "properties": {"name": "", "highway": "service"}}, {"type": "Feature", "geometry": {"type": "LineString", "coordinates": [[-69.84962, -23.33782], [-69.85028, -23.3381], [-69.85079, -23.33862]]}, "properties": {"name": "", "highway": "service"}}, {"type": "Feature", "geometry": {"type": "LineString", "coordinates": [[-69.85203, -23.33929], [-69.8511, -23.33894], [-69.85042, -23.33842]]}, "properties": {"name": "", "highway": "service"}}, {"type": "Feature", "geometry": {"type": "LineString", "coordinates": [[-69.84187, -23.33384], [-69.84058, -23.33299]]}, "properties": {"name": "Avenida Salvador Allende", "highway": "tertiary"}}, {"type": "Feature", "geometry": {"type": "LineString", "coordinates": [[-69.84478, -23.33479], [-69.84456, -23.33519]]}, "properties": {"name": "", "highway": "residential"}}, {"type": "Feature", "geometry": {"type": "LineString", "coordinates": [[-69.84452, -23.33538], [-69.84421, -23.33523]]}, "properties": {"name": "Avenida Salvador Allende", "highway": "tertiary"}}, {"type": "Feature", "geometry": {"type": "LineString", "coordinates": [[-69.8443, -23.32887], [-69.84265, -23.32865], [-69.83905, -23.32881]]}, "properties": {"name": "Ruta 5 Norte", "highway": "motorway"}}, {"type": "Feature", "geometry": {"type": "LineString", "coordinates": [[-69.83631, -23.32875], [-69.83737, -23.32998], [-69.83724, -23.33024], [-69.8366, -23.33021]]}, "properties": {"name": "", "highway": "track"}}, {"type": "Feature", "geometry": {"type": "LineString", "coordinates": [[-69.8363, -23.33044], [-69.8366, -23.33021], [-69.83672, -23.32987], [-69.83622, -23.32845], [-69.83473, -23.32639], [-69.83408, -23.32472], [-69.83365, -23.32294], [-69.83254, -23.31618]]}, "properties": {"name": "", "highway": "track"}}, {"type": "Feature", "geometry": {"type": "LineString", "coordinates": [[-69.83522, -23.32894], [-69.83607, -23.32888]]}, "properties": {"name": "Ruta 5 Norte", "highway": "motorway"}}, {"type": "Feature", "geometry": {"type": "LineString", "coordinates": [[-69.83748, -23.3289], [-69.83666, -23.32896]]}, "properties": {"name": "Ruta 5 Norte", "highway": "motorway"}}, {"type": "Feature", "geometry": {"type": "LineString", "coordinates": [[-69.83754, -23.32879], [-69.83886, -23.32871]]}, "properties": {"name": "Ruta 5 Norte", "highway": "motorway"}}, {"type": "Feature", "geometry": {"type": "LineString", "coordinates": [[-69.84146, -23.32857], [-69.84292, -23.32854], [-69.84445, -23.32877]]}, "properties": {"name": "Ruta 5 Norte", "highway": "motorway"}}, {"type": "Feature", "geometry": {"type": "LineString", "coordinates": [[-69.83887, -23.32911], [-69.83893, -23.33088]]}, "properties": {"name": "", "highway": "track"}}, {"type": "Feature", "geometry": {"type": "LineString", "coordinates": [[-69.84529, -23.33988], [-69.84404, -23.34031], [-69.84317, -23.3408]]}, "properties": {"name": "", "highway": "service"}}], "_meta": {"ciudad": "Baquedano", "fuente": "OpenStreetMap (ODbL)"}}