{"type": "FeatureCollection", "features": [{"type": "Feature", "geometry": {"type": "LineString", "coordinates": [[-70.43511, -23.10349], [-70.43645, -23.10793], [-70.43699, -23.10841], [-70.43825, -23.10846]]}, "properties": {"name": "Avenida Los Fertilizantes", "highway": "secondary"}}, {"type": "Feature", "geometry": {"type": "LineString", "coordinates": [[-70.43941, -23.10129], [-70.43599, -23.10217]]}, "properties": {"name": "Avenida Andalicán", "highway": "secondary"}}, {"type": "Feature", "geometry": {"type": "LineString", "coordinates": [[-70.39907, -23.08051], [-70.40598, -23.08454], [-70.41176, -23.08734], [-70.42448, -23.09286], [-70.43594, -23.09587]]}, "properties": {"name": "Avenida Costanera Norte", "highway": "unclassified"}}, {"type": "Feature", "geometry": {"type": "LineString", "coordinates": [[-70.41831, -23.09531], [-70.42035, -23.0911]]}, "properties": {"name": "", "highway": "service"}}, {"type": "Feature", "geometry": {"type": "LineString", "coordinates": [[-70.43858, -23.10812], [-70.43869, -23.1075], [-70.44007, -23.10657], [-70.44037, -23.10598]]}, "properties": {"name": "Avenida Serrano", "highway": "tertiary"}}, {"type": "Feature", "geometry": {"type": "LineString", "coordinates": [[-70.44992, -23.10555], [-70.44873, -23.10575]]}, "properties": {"name": "Rolando Biaggini", "highway": "residential"}}, {"type": "Feature", "geometry": {"type": "LineString", "coordinates": [[-70.44763, -23.1072], [-70.44884, -23.107], [-70.44901, -23.10682]]}, "properties": {"name": "Matías Torres (Ex Pasaje 1)", "highway": "living_street"}}, {"type": "Feature", "geometry": {"type": "LineString", "coordinates": [[-70.44871, -23.10562], [-70.44767, -23.10579]]}, "properties": {"name": "Rolando Biaggini", "highway": "residential"}}, {"type": "Feature", "geometry": {"type": "LineString", "coordinates": [[-70.44964, -23.10427], [-70.44715, -23.10468]]}, "properties": {"name": "Ignacio Carrera Pinto", "highway": "residential"}}, {"type": "Feature", "geometry": {"type": "LineString", "coordinates": [[-70.441, -23.10247], [-70.44392, -23.1029]]}, "properties": {"name": "Playa Blanca", "highway": "residential"}}, {"type": "Feature", "geometry": {"type": "LineString", "coordinates": [[-70.4441, -23.10193], [-70.44392, -23.1029]]}, "properties": {"name": "Pasaje Bahia", "highway": "residential"}}, {"type": "Feature", "geometry": {"type": "LineString", "coordinates": [[-70.44095, -23.10325], [-70.44415, -23.10376]]}, "properties": {"name": "Óscar Frías Mendoza", "highway": "residential"}}, {"type": "Feature", "geometry": {"type": "LineString", "coordinates": [[-70.44908, -23.10396], [-70.44975, -23.10724]]}, "properties": {"name": "Pasaje Sargento Zenón Ortíz", "highway": "residential"}}, {"type": "Feature", "geometry": {"type": "LineString", "coordinates": [[-70.44975, -23.10724], [-70.44891, -23.10662], [-70.4484, -23.10406]]}, "properties": {"name": "Pasaje Sargento Gabriel Silva", "highway": "residential"}}, {"type": "Feature", "geometry": {"type": "LineString", "coordinates": [[-70.44232, -23.09937], [-70.44196, -23.10147]]}, "properties": {"name": "Granaderos", "highway": "residential"}}, {"type": "Feature", "geometry": {"type": "LineString", "coordinates": [[-70.44255, -23.10422], [-70.44359, -23.09837]]}, "properties": {"name": "Avenida Almirante Castillo", "highway": "residential"}}, {"type": "Feature", "geometry": {"type": "LineString", "coordinates": [[-70.44092, -23.10022], [-70.45046, -23.10162]]}, "properties": {"name": "Ongolmo", "highway": "residential"}}, {"type": "Feature", "geometry": {"type": "LineString", "coordinates": [[-70.45461, -23.10106], [-70.45495, -23.09915]]}, "properties": {"name": "Pasaje Manuel Montt", "highway": "residential"}}, {"type": "Feature", "geometry": {"type": "LineString", "coordinates": [[-70.45439, -23.09906], [-70.45807, -23.09962]]}, "properties": {"name": "Avenida Pedro Montt", "highway": "residential"}}, {"type": "Feature", "geometry": {"type": "LineString", "coordinates": [[-70.45601, -23.10024], [-70.45619, -23.09933]]}, "properties": {"name": "Pasaje Covadonga", "highway": "residential"}}, {"type": "Feature", "geometry": {"type": "LineString", "coordinates": [[-70.45708, -23.1004], [-70.45724, -23.09948]]}, "properties": {"name": "Pasaje Matías Cousiño", "highway": "residential"}}, {"type": "Feature", "geometry": {"type": "LineString", "coordinates": [[-70.44541, -23.09865], [-70.45587, -23.10022]]}, "properties": {"name": "San Martín", "highway": "tertiary"}}, {"type": "Feature", "geometry": {"type": "LineString", "coordinates": [[-70.4473, -23.10544], [-70.44668, -23.10231], [-70.4472, -23.0989]]}, "properties": {"name": "Avenida Bernardo O'Higgins", "highway": "tertiary"}}, {"type": "Feature", "geometry": {"type": "LineString", "coordinates": [[-70.44915, -23.10199], [-70.44974, -23.09846]]}, "properties": {"name": "Las Heras", "highway": "residential"}}, {"type": "Feature", "geometry": {"type": "LineString", "coordinates": [[-70.45126, -23.09951], [-70.45094, -23.10156]]}, "properties": {"name": "Avenida Manuel Rodríguez", "highway": "tertiary"}}, {"type": "Feature", "geometry": {"type": "LineString", "coordinates": [[-70.44431, -23.1077], [-70.44515, -23.10476], [-70.44514, -23.10359], [-70.44486, -23.10192]]}, "properties": {"name": "Ignacio Riquelme", "highway": "secondary"}}, {"type": "Feature", "geometry": {"type": "LineString", "coordinates": [[-70.45368, -23.09947], [-70.45377, -23.09935], [-70.45433, -23.09941]]}, "properties": {"name": "", "highway": "residential"}}, {"type": "Feature", "geometry": {"type": "LineString", "coordinates": [[-70.44689, -23.10342], [-70.44515, -23.10371]]}, "properties": {"name": "Pasaje Ferrocarril", "highway": "residential"}}, {"type": "Feature", "geometry": {"type": "LineString", "coordinates": [[-70.45671, -23.0994], [-70.45656, -23.10032]]}, "properties": {"name": "Pasaje Lord Cochrane", "highway": "residential"}}, {"type": "Feature", "geometry": {"type": "LineString", "coordinates": [[-70.45382, -23.10105], [-70.45381, -23.1012]]}, "properties": {"name": "Avenida Almirante Latorre", "highway": "residential"}}, {"type": "Feature", "geometry": {"type": "LineString", "coordinates": [[-70.45433, -23.09941], [-70.45439, -23.09906]]}, "properties": {"name": "Iquique", "highway": "residential"}}, {"type": "Feature", "geometry": {"type": "LineString", "coordinates": [[-70.44552, -23.10297], [-70.44593, -23.10293], [-70.44611, -23.10327]]}, "properties": {"name": "Pablo Neruda (Ex Pasaje 3)", "highway": "residential"}}, {"type": "Feature", "geometry": {"type": "LineString", "coordinates": [[-70.43594, -23.09587], [-70.43652, -23.09599], [-70.43671, -23.0963], [-70.43613, -23.09838]]}, "properties": {"name": "Avenida Los Fertilizantes", "highway": "unclassified"}}, {"type": "Feature", "geometry": {"type": "LineString", "coordinates": [[-70.44253, -23.10169], [-70.44244, -23.10225]]}, "properties": {"name": "Pasaje 11 de Septiembre", "highway": "living_street"}}, {"type": "Feature", "geometry": {"type": "LineString", "coordinates": [[-70.45521, -23.10096], [-70.45533, -23.10017]]}, "properties": {"name": "Pasaje Cereceda", "highway": "residential"}}, {"type": "Feature", "geometry": {"type": "LineString", "coordinates": [[-70.44767, -23.10121], [-70.44751, -23.10228]]}, "properties": {"name": "Pasaje Julio Montt", "highway": "residential"}}, {"type": "Feature", "geometry": {"type": "LineString", "coordinates": [[-70.44511, -23.10344], [-70.44683, -23.10314]]}, "properties": {"name": "Pasaje Ferrocarril", "highway": "residential"}}, {"type": "Feature", "geometry": {"type": "LineString", "coordinates": [[-70.45339, -23.10127], [-70.45366, -23.09954]]}, "properties": {"name": "Antonio Varas", "highway": "residential"}}, {"type": "Feature", "geometry": {"type": "LineString", "coordinates": [[-70.44552, -23.10297], [-70.44537, -23.10216]]}, "properties": {"name": "Hugo Ramírez Jofré", "highway": "residential"}}, {"type": "Feature", "geometry": {"type": "LineString", "coordinates": [[-70.44212, -23.10263], [-70.44216, -23.10231]]}, "properties": {"name": "Pasaje Luis Cuadra", "highway": "living_street"}}, {"type": "Feature", "geometry": {"type": "LineString", "coordinates": [[-70.45096, -23.10159], [-70.45328, -23.10129]]}, "properties": {"name": "Avenida Andalicán", "highway": "tertiary"}}, {"type": "Feature", "geometry": {"type": "LineString", "coordinates": [[-70.4451, -23.10803], [-70.45162, -23.10703]]}, "properties": {"name": "Avenida Los Fertilizantes", "highway": "tertiary"}}, {"type": "Feature", "geometry": {"type": "LineString", "coordinates": [[-70.44116, -23.10208], [-70.44165, -23.10215]]}, "properties": {"name": "Pasaje Jorge Krstulovic", "highway": "living_street"}}, {"type": "Feature", "geometry": {"type": "LineString", "coordinates": [[-70.44046, -23.10599], [-70.44014, -23.10663], [-70.43881, -23.10752], [-70.4387, -23.10802]]}, "properties": {"name": "Avenida Serrano", "highway": "tertiary"}}, {"type": "Feature", "geometry": {"type": "LineString", "coordinates": [[-70.43101, -23.10348], [-70.4329, -23.10291]]}, "properties": {"name": "Acceso Norte a Mejillones", "highway": "secondary"}}, {"type": "Feature", "geometry": {"type": "LineString", "coordinates": [[-70.45821, -23.10036], [-70.45328, -23.10129]]}, "properties": {"name": "Avenida Andalicán", "highway": "tertiary"}}, {"type": "Feature", "geometry": {"type": "LineString", "coordinates": [[-70.43864, -23.10852], [-70.43726, -23.10857], [-70.43649, -23.10816], [-70.435, -23.10341]]}, "properties": {"name": "Avenida Los Fertilizantes", "highway": "secondary"}}, {"type": "Feature", "geometry": {"type": "LineString", "coordinates": [[-70.44291, -23.10218], [-70.44402, -23.10235]]}, "properties": {"name": "Pasaje Baltazar Zuleta", "highway": "living_street"}}, {"type": "Feature", "geometry": {"type": "LineString", "coordinates": [[-70.44434, -23.10018], [-70.44511, -23.10031]]}, "properties": {"name": "19 de Junio", "highway": "residential"}}, {"type": "Feature", "geometry": {"type": "LineString", "coordinates": [[-70.44201, -23.10227], [-70.44212, -23.10163]]}, "properties": {"name": "Pasaje Luis Cuadra", "highway": "living_street"}}, {"type": "Feature", "geometry": {"type": "LineString", "coordinates": [[-70.45577, -23.10086], [-70.45587, -23.10022]]}, "properties": {"name": "Pasaje Léniz", "highway": "residential"}}, {"type": "Feature", "geometry": {"type": "LineString", "coordinates": [[-70.44442, -23.09968], [-70.44425, -23.10071]]}, "properties": {"name": "Merino", "highway": "residential"}}, {"type": "Feature", "geometry": {"type": "LineString", "coordinates": [[-70.44711, -23.09946], [-70.44785, -23.09954]]}, "properties": {"name": "Pasaje Humeres", "highway": "residential"}}, {"type": "Feature", "geometry": {"type": "LineString", "coordinates": [[-70.45564, -23.09925], [-70.45549, -23.10013]]}, "properties": {"name": "Manuel Blanco Encalada", "highway": "residential"}}, {"type": "Feature", "geometry": {"type": "LineString", "coordinates": [[-70.45758, -23.10054], [-70.45776, -23.09955]]}, "properties": {"name": "Pasaje O'Higgins", "highway": "residential"}}, {"type": "Feature", "geometry": {"type": "LineString", "coordinates": [[-70.43941, -23.10129], [-70.44026, -23.10121], [-70.44486, -23.10192]]}, "properties": {"name": "Avenida Andalicán", "highway": "secondary"}}, {"type": "Feature", "geometry": {"type": "LineString", "coordinates": [[-70.44393, -23.09952], [-70.44411, -23.09852]]}, "properties": {"name": "Pasaje Gabriela Mistral", "highway": "residential"}}, {"type": "Feature", "geometry": {"type": "LineString", "coordinates": [[-70.45078, -23.10156], [-70.45116, -23.0995]]}, "properties": {"name": "Avenida Manuel Rodríguez", "highway": "tertiary"}}, {"type": "Feature", "geometry": {"type": "LineString", "coordinates": [[-70.44823, -23.1049], [-70.4483, -23.10526]]}, "properties": {"name": "Pasaje Clodomiro Rozas", "highway": "living_street"}}, {"type": "Feature", "geometry": {"type": "LineString", "coordinates": [[-70.44201, -23.10342], [-70.44193, -23.10373], [-70.44161, -23.1037], [-70.44163, -23.10336]]}, "properties": {"name": "Pasaje Luis Cuadra", "highway": "residential"}}, {"type": "Feature", "geometry": {"type": "LineString", "coordinates": [[-70.44818, -23.10709], [-70.44804, -23.10652], [-70.44828, -23.10625]]}, "properties": {"name": "Juan López", "highway": "living_street"}}, {"type": "Feature", "geometry": {"type": "LineString", "coordinates": [[-70.44384, -23.10329], [-70.44274, -23.10312]]}, "properties": {"name": "Dos Quebradas", "highway": "residential"}}, {"type": "Feature", "geometry": {"type": "LineString", "coordinates": [[-70.44221, -23.10345], [-70.44235, -23.10267]]}, "properties": {"name": "Pasaje 11 de Septiembre", "highway": "residential"}}, {"type": "Feature", "geometry": {"type": "LineString", "coordinates": [[-70.44143, -23.10332], [-70.44157, -23.10255]]}, "properties": {"name": "Pasaje Jorge Krstulovic", "highway": "residential"}}, {"type": "Feature", "geometry": {"type": "LineString", "coordinates": [[-70.45134, -23.10645], [-70.45014, -23.10664]]}, "properties": {"name": "Pasaje Evaristo Aguirre", "highway": "living_street"}}, {"type": "Feature", "geometry": {"type": "LineString", "coordinates": [[-70.44082, -23.10396], [-70.44255, -23.10422]]}, "properties": {"name": "Emilio de Vidts", "highway": "residential"}}, {"type": "Feature", "geometry": {"type": "LineString", "coordinates": [[-70.44884, -23.10622], [-70.45002, -23.10603]]}, "properties": {"name": "Pasaje Jesús Tejeda (El Morro)", "highway": "residential"}}, {"type": "Feature", "geometry": {"type": "LineString", "coordinates": [[-70.44949, -23.10719], [-70.44934, -23.10734], [-70.44803, -23.10758]]}, "properties": {"name": "Andrés Bresson (Ex Pasaje 4)", "highway": "residential"}}, {"type": "Feature", "geometry": {"type": "LineString", "coordinates": [[-70.44864, -23.10532], [-70.44983, -23.1051]]}, "properties": {"name": "Arturo Pérez Canto", "highway": "residential"}}, {"type": "Feature", "geometry": {"type": "LineString", "coordinates": [[-70.44747, -23.10632], [-70.44792, -23.10625], [-70.44806, -23.10608]]}, "properties": {"name": "Juan Garday", "highway": "living_street"}}, {"type": "Feature", "geometry": {"type": "LineString", "coordinates": [[-70.44848, -23.10357], [-70.44857, -23.10403]]}, "properties": {"name": "José Herrera", "highway": "residential"}}, {"type": "Feature", "geometry": {"type": "LineString", "coordinates": [[-70.45116, -23.10554], [-70.44997, -23.10579]]}, "properties": {"name": "Pasaje Roy Corthon", "highway": "living_street"}}, {"type": "Feature", "geometry": {"type": "LineString", "coordinates": [[-70.44195, -23.10261], [-70.44181, -23.10338]]}, "properties": {"name": "Pasaje Luis Cuadra", "highway": "residential"}}, {"type": "Feature", "geometry": {"type": "LineString", "coordinates": [[-70.44762, -23.1049], [-70.44785, -23.10497]]}, "properties": {"name": "Luis Cruz Martínez", "highway": "residential"}}, {"type": "Feature", "geometry": {"type": "LineString", "coordinates": [[-70.45125, -23.106], [-70.45005, -23.1062]]}, "properties": {"name": "Pasaje Miguelina Peña", "highway": "living_street"}}, {"type": "Feature", "geometry": {"type": "LineString", "coordinates": [[-70.45056, -23.09844], [-70.45038, -23.09938]]}, "properties": {"name": "Almirante Goñi", "highway": "residential"}}, {"type": "Feature", "geometry": {"type": "LineString", "coordinates": [[-70.4501, -23.10644], [-70.44894, -23.10665]]}, "properties": {"name": "Pasaje Armando Herrera Soto (El Faro)", "highway": "residential"}}, {"type": "Feature", "geometry": {"type": "LineString", "coordinates": [[-70.45099, -23.10463], [-70.44979, -23.10491]]}, "properties": {"name": "Ramón Vergara", "highway": "living_street"}}, {"type": "Feature", "geometry": {"type": "LineString", "coordinates": [[-70.44163, -23.10142], [-70.44201, -23.09932]]}, "properties": {"name": "Pasaje Nuevo", "highway": "residential"}}, {"type": "Feature", "geometry": {"type": "LineString", "coordinates": [[-70.44424, -23.10372], [-70.44436, -23.10296]]}, "properties": {"name": "Lorenzo Aguirre Godoy", "highway": "living_street"}}, {"type": "Feature", "geometry": {"type": "LineString", "coordinates": [[-70.45106, -23.10504], [-70.44988, -23.10534]]}, "properties": {"name": "Pasaje Neftalí Agrella", "highway": "living_street"}}, {"type": "Feature", "geometry": {"type": "LineString", "coordinates": [[-70.44088, -23.10366], [-70.44129, -23.10372], [-70.44127, -23.10402]]}, "properties": {"name": "Pasaje Jorge Krstulovic", "highway": "residential"}}, {"type": "Feature", "geometry": {"type": "LineString", "coordinates": [[-70.44792, -23.10533], [-70.44785, -23.10497]]}, "properties": {"name": "Manuel Silva", "highway": "living_street"}}, {"type": "Feature", "geometry": {"type": "LineString", "coordinates": [[-70.45027, -23.10726], [-70.44964, -23.10427]]}, "properties": {"name": "Pasaje Casimiro Olivos", "highway": "residential"}}, {"type": "Feature", "geometry": {"type": "LineString", "coordinates": [[-70.40339, -23.09934], [-70.41335, -23.10184], [-70.42629, -23.10439], [-70.4275, -23.10436], [-70.43101, -23.10348]]}, "properties": {"name": "Acceso Norte a Mejillones", "highway": "secondary"}}, {"type": "Feature", "geometry": {"type": "LineString", "coordinates": [[-70.43212, -23.09668], [-70.4291, -23.09591]]}, "properties": {"name": "", "highway": "service"}}, {"type": "Feature", "geometry": {"type": "LineString", "coordinates": [[-70.43164, -23.10045], [-70.43084, -23.10292]]}, "properties": {"name": "", "highway": "service"}}, {"type": "Feature", "geometry": {"type": "LineString", "coordinates": [[-70.43137, -23.09735], [-70.43091, -23.09894]]}, "properties": {"name": "", "highway": "service"}}, {"type": "Feature", "geometry": {"type": "LineString", "coordinates": [[-70.43352, -23.09746], [-70.43266, -23.09726], [-70.43219, -23.09855], [-70.43144, -23.09841], [-70.43091, -23.09894], [-70.42876, -23.0993]]}, "properties": {"name": "", "highway": "service"}}, {"type": "Feature", "geometry": {"type": "LineString", "coordinates": [[-70.43219, -23.09756], [-70.42958, -23.09693]]}, "properties": {"name": "", "highway": "service"}}, {"type": "Feature", "geometry": {"type": "LineString", "coordinates": [[-70.42107, -23.10943], [-70.42113, -23.10894], [-70.42498, -23.10471], [-70.42572, -23.10428]]}, "properties": {"name": "", "highway": "service"}}, {"type": "Feature", "geometry": {"type": "LineString", "coordinates": [[-70.43245, -23.09549], [-70.43107, -23.09515]]}, "properties": {"name": "", "highway": "service"}}, {"type": "Feature", "geometry": {"type": "LineString", "coordinates": [[-70.43382, -23.09539], [-70.43323, -23.09739], [-70.43219, -23.09855], [-70.4319, -23.09946], [-70.43275, -23.10005], [-70.43266, -23.10066], [-70.43244, -23.10084], [-70.43154, -23.10088], [-70.43027, -23.10063], [-70.42994, -23.10097], [-70.43005, -23.10123], [-70.42966, -23.10243], [-70.43009, -23.10288], [-70.43074, -23.10295]]}, "properties": {"name": "", "highway": "service"}}, {"type": "Feature", "geometry": {"type": "LineString", "coordinates": [[-70.42985, -23.0961], [-70.42876, -23.0993], [-70.428, -23.10212], [-70.42823, -23.10254], [-70.42873, -23.10285], [-70.42984, -23.10313], [-70.43195, -23.10262], [-70.43283, -23.10258]]}, "properties": {"name": "", "highway": "service"}}, {"type": "Feature", "geometry": {"type": "LineString", "coordinates": [[-70.42658, -23.09347], [-70.42606, -23.09531], [-70.42745, -23.09543], [-70.42774, -23.09483], [-70.42744, -23.09456], [-70.42674, -23.09431]]}, "properties": {"name": "", "highway": "service"}}, {"type": "Feature", "geometry": {"type": "LineString", "coordinates": [[-70.4258, -23.09401], [-70.42674, -23.09431]]}, "properties": {"name": "", "highway": "service"}}, {"type": "Feature", "geometry": {"type": "LineString", "coordinates": [[-70.43058, -23.09628], [-70.43087, -23.09531], [-70.43107, -23.09515], [-70.43067, -23.09506]]}, "properties": {"name": "", "highway": "service"}}, {"type": "Feature", "geometry": {"type": "LineString", "coordinates": [[-70.4664, -23.10156], [-70.46392, -23.102], [-70.4638, -23.10142]]}, "properties": {"name": "", "highway": "service"}}, {"type": "Feature", "geometry": {"type": "LineString", "coordinates": [[-70.46432, -23.10133], [-70.46443, -23.10191]]}, "properties": {"name": "", "highway": "service"}}, {"type": "Feature", "geometry": {"type": "LineString", "coordinates": [[-70.45987, -23.10024], [-70.45821, -23.10036]]}, "properties": {"name": "", "highway": "service"}}, {"type": "Feature", "geometry": {"type": "LineString", "coordinates": [[-70.46627, -23.10073], [-70.46547, -23.10088]]}, "properties": {"name": "", "highway": "service"}}, {"type": "Feature", "geometry": {"type": "LineString", "coordinates": [[-70.46518, -23.10116], [-70.4653, -23.10175]]}, "properties": {"name": "", "highway": "service"}}, {"type": "Feature", "geometry": {"type": "LineString", "coordinates": [[-70.46392, -23.102], [-70.46208, -23.10236], [-70.46192, -23.10303], [-70.46057, -23.10485], [-70.46055, -23.10548]]}, "properties": {"name": "", "highway": "service"}}, {"type": "Feature", "geometry": {"type": "LineString", "coordinates": [[-70.46643, -23.10351], [-70.46659, -23.1027], [-70.46642, -23.10029]]}, "properties": {"name": "", "highway": "track"}}, {"type": "Feature", "geometry": {"type": "LineString", "coordinates": [[-70.46572, -23.10083], [-70.46567, -23.10107], [-70.4638, -23.10142], [-70.46199, -23.10168], [-70.46002, -23.10171], [-70.45894, -23.10166], [-70.45834, -23.10133], [-70.45758, -23.10054]]}, "properties": {"name": "", "highway": "service"}}, {"type": "Feature", "geometry": {"type": "LineString", "coordinates": [[-70.47658, -23.10002], [-70.47485, -23.10066]]}, "properties": {"name": "", "highway": "track"}}, {"type": "Feature", "geometry": {"type": "LineString", "coordinates": [[-70.47016, -23.10089], [-70.46974, -23.10091]]}, "properties": {"name": "", "highway": "track"}}, {"type": "Feature", "geometry": {"type": "LineString", "coordinates": [[-70.46762, -23.10084], [-70.46785, -23.10089], [-70.46917, -23.10195], [-70.46931, -23.10253]]}, "properties": {"name": "", "highway": "service"}}, {"type": "Feature", "geometry": {"type": "LineString", "coordinates": [[-70.46927, -23.10082], [-70.46872, -23.10123], [-70.4686, -23.10156]]}, "properties": {"name": "", "highway": "service"}}, {"type": "Feature", "geometry": {"type": "LineString", "coordinates": [[-70.4686, -23.10039], [-70.46872, -23.10123]]}, "properties": {"name": "", "highway": "service"}}, {"type": "Feature", "geometry": {"type": "LineString", "coordinates": [[-70.47018, -23.10104], [-70.46982, -23.10125]]}, "properties": {"name": "", "highway": "track"}}, {"type": "Feature", "geometry": {"type": "LineString", "coordinates": [[-70.47779, -23.10254], [-70.47774, -23.1028], [-70.47804, -23.10401], [-70.48015, -23.10091], [-70.47958, -23.10043], [-70.47915, -23.10026], [-70.47667, -23.1005], [-70.47623, -23.10065], [-70.47559, -23.10093], [-70.47524, -23.10129], [-70.47478, -23.10215], [-70.47323, -23.10242]]}, "properties": {"name": "", "highway": "track"}}, {"type": "Feature", "geometry": {"type": "LineString", "coordinates": [[-70.46696, -23.10042], [-70.46697, -23.10069]]}, "properties": {"name": "", "highway": "service"}}, {"type": "Feature", "geometry": {"type": "LineString", "coordinates": [[-70.47747, -23.1053], [-70.47714, -23.10469], [-70.47675, -23.10432], [-70.47682, -23.10415], [-70.4772, -23.10403], [-70.47716, -23.10368], [-70.4764, -23.10273], [-70.47599, -23.10184], [-70.47546, -23.10158], [-70.47506, -23.10105], [-70.47448, -23.10078]]}, "properties": {"name": "", "highway": "track"}}, {"type": "Feature", "geometry": {"type": "LineString", "coordinates": [[-70.46733, -23.10167], [-70.46746, -23.10194], [-70.4679, -23.10193], [-70.46843, -23.10228]]}, "properties": {"name": "", "highway": "service"}}, {"type": "Feature", "geometry": {"type": "LineString", "coordinates": [[-70.46804, -23.10231], [-70.46845, -23.10282]]}, "properties": {"name": "", "highway": "service"}}, {"type": "Feature", "geometry": {"type": "LineString", "coordinates": [[-70.46672, -23.10136], [-70.4666, -23.1006], [-70.46691, -23.10063], [-70.46713, -23.10092], [-70.4673, -23.10321]]}, "properties": {"name": "", "highway": "service"}}, {"type": "Feature", "geometry": {"type": "LineString", "coordinates": [[-70.46737, -23.10219], [-70.46759, -23.10231], [-70.46917, -23.10224]]}, "properties": {"name": "", "highway": "service"}}, {"type": "Feature", "geometry": {"type": "LineString", "coordinates": [[-70.46815, -23.1012], [-70.46879, -23.10087], [-70.46974, -23.10091], [-70.46984, -23.10123], [-70.46917, -23.10195]]}, "properties": {"name": "", "highway": "service"}}, {"type": "Feature", "geometry": {"type": "LineString", "coordinates": [[-70.47043, -23.10127], [-70.47042, -23.10215]]}, "properties": {"name": "", "highway": "service"}}, {"type": "Feature", "geometry": {"type": "LineString", "coordinates": [[-70.43291, -23.1027], [-70.43312, -23.10285]]}, "properties": {"name": "", "highway": "service"}}, {"type": "Feature", "geometry": {"type": "LineString", "coordinates": [[-70.43263, -23.10299], [-70.43283, -23.10273]]}, "properties": {"name": "", "highway": "service"}}, {"type": "Feature", "geometry": {"type": "LineString", "coordinates": [[-70.43296, -23.103], [-70.43283, -23.10258]]}, "properties": {"name": "", "highway": "service"}}, {"type": "Feature", "geometry": {"type": "LineString", "coordinates": [[-70.45587, -23.10022], [-70.4454, -23.09872]]}, "properties": {"name": "San Martín", "highway": "tertiary"}}, {"type": "Feature", "geometry": {"type": "LineString", "coordinates": [[-70.44167, -23.10609], [-70.44438, -23.10746]]}, "properties": {"name": "Chacón Villarroel", "highway": "residential"}}, {"type": "Feature", "geometry": {"type": "LineString", "coordinates": [[-70.44444, -23.10467], [-70.44384, -23.10436]]}, "properties": {"name": "Shank Arqueros", "highway": "living_street"}}, {"type": "Feature", "geometry": {"type": "LineString", "coordinates": [[-70.44266, -23.10611], [-70.44239, -23.10656]]}, "properties": {"name": "Rolando Cortez", "highway": "living_street"}}, {"type": "Feature", "geometry": {"type": "LineString", "coordinates": [[-70.44298, -23.10489], [-70.44362, -23.1052]]}, "properties": {"name": "Rogelio Urrutia Monardes", "highway": "living_street"}}, {"type": "Feature", "geometry": {"type": "LineString", "coordinates": [[-70.44365, -23.10617], [-70.44227, -23.10544]]}, "properties": {"name": "Domingo Barraza", "highway": "living_street"}}, {"type": "Feature", "geometry": {"type": "LineString", "coordinates": [[-70.4426, -23.10515], [-70.44388, -23.1058]]}, "properties": {"name": "Zenobia Jiménez", "highway": "living_street"}}, {"type": "Feature", "geometry": {"type": "LineString", "coordinates": [[-70.44431, -23.10507], [-70.44341, -23.1046]]}, "properties": {"name": "Escudero Torres", "highway": "living_street"}}, {"type": "Feature", "geometry": {"type": "LineString", "coordinates": [[-70.44197, -23.10575], [-70.44336, -23.10647]]}, "properties": {"name": "Jaime Guerra Pavez", "highway": "living_street"}}, {"type": "Feature", "geometry": {"type": "LineString", "coordinates": [[-70.44757, -23.10571], [-70.44977, -23.10735]]}, "properties": {"name": "Guido Fleming Pérez ( Ex Diagonal O'Higgins)", "highway": "residential"}}, {"type": "Feature", "geometry": {"type": "LineString", "coordinates": [[-70.44384, -23.10482], [-70.44299, -23.10628]]}, "properties": {"name": "Esterlinda Pizarro", "highway": "living_street"}}, {"type": "Feature", "geometry": {"type": "LineString", "coordinates": [[-70.44516, -23.10458], [-70.44429, -23.10412]]}, "properties": {"name": "Luba Palacios", "highway": "residential"}}, {"type": "Feature", "geometry": {"type": "LineString", "coordinates": [[-70.46547, -23.10088], [-70.46482, -23.10068], [-70.45863, -23.10099], [-70.45784, -23.1009]]}, "properties": {"name": "", "highway": "service"}}, {"type": "Feature", "geometry": {"type": "LineString", "coordinates": [[-70.44845, -23.09909], [-70.44825, -23.10024]]}, "properties": {"name": "Borgoño", "highway": "residential"}}, {"type": "Feature", "geometry": {"type": "LineString", "coordinates": [[-70.45092, -23.09935], [-70.45097, -23.09946]]}, "properties": {"name": "", "highway": "service"}}, {"type": "Feature", "geometry": {"type": "LineString", "coordinates": [[-70.42966, -23.10243], [-70.42943, -23.10303]]}, "properties": {"name": "", "highway": "service"}}, {"type": "Feature", "geometry": {"type": "LineString", "coordinates": [[-70.4507, -23.09942], [-70.45123, -23.09939]]}, "properties": {"name": "", "highway": "service"}}, {"type": "Feature", "geometry": {"type": "LineString", "coordinates": [[-70.45146, -23.10706], [-70.45043, -23.10178]]}, "properties": {"name": "", "highway": "residential"}}, {"type": "Feature", "geometry": {"type": "LineString", "coordinates": [[-70.43283, -23.10258], [-70.43296, -23.103]]}, "properties": {"name": "", "highway": "service"}}, {"type": "Feature", "geometry": {"type": "LineString", "coordinates": [[-70.43003, -23.1039], [-70.43455, -23.10278], [-70.43491, -23.10342], [-70.43627, -23.10813], [-70.43159, -23.1093], [-70.42997, -23.10374]]}, "properties": {"name": "", "highway": "unclassified"}}, {"type": "Feature", "geometry": {"type": "LineString", "coordinates": [[-70.43125, -23.10806], [-70.4359, -23.10691]]}, "properties": {"name": "", "highway": "unclassified"}}, {"type": "Feature", "geometry": {"type": "LineString", "coordinates": [[-70.43095, -23.10704], [-70.43575, -23.10573]]}, "properties": {"name": "", "highway": "unclassified"}}, {"type": "Feature", "geometry": {"type": "LineString", "coordinates": [[-70.43064, -23.10595], [-70.43529, -23.10478]]}, "properties": {"name": "", "highway": "unclassified"}}, {"type": "Feature", "geometry": {"type": "LineString", "coordinates": [[-70.43499, -23.10374], [-70.42881, -23.10528]]}, "properties": {"name": "", "highway": "unclassified"}}, {"type": "Feature", "geometry": {"type": "LineString", "coordinates": [[-70.43101, -23.10348], [-70.43262, -23.10905]]}, "properties": {"name": "", "highway": "unclassified"}}, {"type": "Feature", "geometry": {"type": "LineString", "coordinates": [[-70.43508, -23.10843], [-70.43345, -23.10288]]}, "properties": {"name": "", "highway": "unclassified"}}, {"type": "Feature", "geometry": {"type": "LineString", "coordinates": [[-70.43388, -23.10873], [-70.43222, -23.10319]]}, "properties": {"name": "", "highway": "unclassified"}}, {"type": "Feature", "geometry": {"type": "LineString", "coordinates": [[-70.44494, -23.10124], [-70.44521, -23.1013]]}, "properties": {"name": "", "highway": "service"}}, {"type": "Feature", "geometry": {"type": "LineString", "coordinates": [[-70.44251, -23.09828], [-70.44252, -23.09822]]}, "properties": {"name": "Granaderos", "highway": "residential"}}, {"type": "Feature", "geometry": {"type": "LineString", "coordinates": [[-70.44284, -23.09936], [-70.44303, -23.09829]]}, "properties": {"name": "11 de Septiembre", "highway": "residential"}}, {"type": "Feature", "geometry": {"type": "LineString", "coordinates": [[-70.44564, -23.10207], [-70.44584, -23.10094]]}, "properties": {"name": "Pasaje Subteniente Jorge Montt", "highway": "residential"}}, {"type": "Feature", "geometry": {"type": "LineString", "coordinates": [[-70.44057, -23.10601], [-70.44037, -23.10598]]}, "properties": {"name": "", "highway": "service"}}, {"type": "Feature", "geometry": {"type": "LineString", "coordinates": [[-70.44048, -23.10539], [-70.44063, -23.10565], [-70.44057, -23.10601], [-70.44044, -23.10643], [-70.44029, -23.10644]]}, "properties": {"name": "", "highway": "service"}}, {"type": "Feature", "geometry": {"type": "LineString", "coordinates": [[-70.4481, -23.10663], [-70.44851, -23.10696], [-70.44861, -23.10746]]}, "properties": {"name": "Domingo Latrille", "highway": "living_street"}}, {"type": "Feature", "geometry": {"type": "LineString", "coordinates": [[-70.4473, -23.10544], [-70.44763, -23.1072]]}, "properties": {"name": "Avenida Bernardo O'Higgins", "highway": "tertiary"}}, {"type": "Feature", "geometry": {"type": "LineString", "coordinates": [[-70.4473, -23.10544], [-70.44862, -23.10521]]}, "properties": {"name": "Arturo Pérez Canto", "highway": "residential"}}, {"type": "Feature", "geometry": {"type": "LineString", "coordinates": [[-70.44707, -23.10429], [-70.44908, -23.10396]]}, "properties": {"name": "Crnl Emilio Sotomayor", "highway": "residential"}}, {"type": "Feature", "geometry": {"type": "LineString", "coordinates": [[-70.44516, -23.10382], [-70.44429, -23.10412], [-70.4426, -23.10515], [-70.44114, -23.10683]]}, "properties": {"name": "Doctor Aliaga Palma", "highway": "residential"}}, {"type": "Feature", "geometry": {"type": "LineString", "coordinates": [[-70.44346, -23.10402], [-70.4451, -23.10337]]}, "properties": {"name": "Emilio de Vidts", "highway": "residential"}}, {"type": "Feature", "geometry": {"type": "LineString", "coordinates": [[-70.44369, -23.1012], [-70.44491, -23.10137]]}, "properties": {"name": "Pasaje Angamos", "highway": "residential"}}, {"type": "Feature", "geometry": {"type": "LineString", "coordinates": [[-70.44866, -23.10135], [-70.44885, -23.10028]]}, "properties": {"name": "Almirante Goñi", "highway": "pedestrian"}}, {"type": "Feature", "geometry": {"type": "LineString", "coordinates": [[-70.45246, -23.09967], [-70.45214, -23.10148]]}, "properties": {"name": "Francisco Antonio Pinto", "highway": "residential"}}, {"type": "Feature", "geometry": {"type": "LineString", "coordinates": [[-70.45807, -23.09962], [-70.45821, -23.10036]]}, "properties": {"name": "Pasaje Loa", "highway": "residential"}}, {"type": "Feature", "geometry": {"type": "LineString", "coordinates": [[-70.45078, -23.10156], [-70.45094, -23.10156]]}, "properties": {"name": "", "highway": "tertiary"}}, {"type": "Feature", "geometry": {"type": "LineString", "coordinates": [[-70.45328, -23.10129], [-70.45091, -23.1017]]}, "properties": {"name": "Avenida Andalicán", "highway": "tertiary"}}, {"type": "Feature", "geometry": {"type": "LineString", "coordinates": [[-70.45077, -23.10166], [-70.45046, -23.10162]]}, "properties": {"name": "Ongolmo", "highway": "residential"}}, {"type": "Feature", "geometry": {"type": "LineString", "coordinates": [[-70.45091, -23.1017], [-70.45079, -23.10168]]}, "properties": {"name": "", "highway": "tertiary"}}, {"type": "Feature", "geometry": {"type": "LineString", "coordinates": [[-70.44486, -23.10192], [-70.44637, -23.10224]]}, "properties": {"name": "Avenida Andalicán", "highway": "tertiary"}}, {"type": "Feature", "geometry": {"type": "LineString", "coordinates": [[-70.44488, -23.10207], [-70.43941, -23.10129]]}, "properties": {"name": "Avenida Andalicán", "highway": "secondary"}}, {"type": "Feature", "geometry": {"type": "LineString", "coordinates": [[-70.44669, -23.1024], [-70.44488, -23.10207]]}, "properties": {"name": "Avenida Andalicán", "highway": "tertiary"}}, {"type": "Feature", "geometry": {"type": "LineString", "coordinates": [[-70.44361, -23.10251], [-70.44355, -23.10285]]}, "properties": {"name": "Pasaje Itata", "highway": "living_street"}}, {"type": "Feature", "geometry": {"type": "LineString", "coordinates": [[-70.43422, -23.10265], [-70.43222, -23.10319]]}, "properties": {"name": "Acceso Norte a Mejillones", "highway": "secondary"}}, {"type": "Feature", "geometry": {"type": "LineString", "coordinates": [[-70.43604, -23.09836], [-70.43662, -23.09621], [-70.43594, -23.09587]]}, "properties": {"name": "Avenida Los Fertilizantes", "highway": "unclassified"}}, {"type": "Feature", "geometry": {"type": "LineString", "coordinates": [[-70.45112, -23.13558], [-70.45091, -23.13462], [-70.45083, -23.13318], [-70.45125, -23.12676], [-70.4513, -23.12178], [-70.45114, -23.12036], [-70.45118, -23.11729], [-70.45131, -23.11669], [-70.45113, -23.11587], [-70.45097, -23.11143]]}, "properties": {"name": "", "highway": "track"}}, {"type": "Feature", "geometry": {"type": "LineString", "coordinates": [[-70.45424, -23.10113], [-70.44942, -23.10041]]}, "properties": {"name": "Avenida Almirante Latorre", "highway": "residential"}}, {"type": "Feature", "geometry": {"type": "LineString", "coordinates": [[-70.43604, -23.09836], [-70.44702, -23.09998]]}, "properties": {"name": "Avenida Almirante Latorre", "highway": "tertiary"}}, {"type": "Feature", "geometry": {"type": "LineString", "coordinates": [[-70.4436, -23.10171], [-70.44369, -23.1012]]}, "properties": {"name": "Pasaje Sargento Aldea", "highway": "residential"}}, {"type": "Feature", "geometry": {"type": "LineString", "coordinates": [[-70.4426, -23.10392], [-70.44219, -23.10388], [-70.44211, -23.10415]]}, "properties": {"name": "Pasaje Addison Armstrong", "highway": "residential"}}, {"type": "Feature", "geometry": {"type": "LineString", "coordinates": [[-70.44343, -23.10401], [-70.44346, -23.10389]]}, "properties": {"name": "Pasaje Itata", "highway": "living_street"}}, {"type": "Feature", "geometry": {"type": "LineString", "coordinates": [[-70.44309, -23.10396], [-70.44313, -23.1038]]}, "properties": {"name": "Pasaje Chacaya", "highway": "living_street"}}, {"type": "Feature", "geometry": {"type": "LineString", "coordinates": [[-70.4485, -23.10368], [-70.44908, -23.10396]]}, "properties": {"name": "Emilio Sotomayor", "highway": "living_street"}}, {"type": "Feature", "geometry": {"type": "LineString", "coordinates": [[-70.4446, -23.0986], [-70.44444, -23.0996]]}, "properties": {"name": "Merino", "highway": "residential"}}, {"type": "Feature", "geometry": {"type": "LineString", "coordinates": [[-70.45294, -23.09981], [-70.45273, -23.10082]]}, "properties": {"name": "8 de Octubre", "highway": "residential"}}, {"type": "Feature", "geometry": {"type": "LineString", "coordinates": [[-70.45018, -23.10052], [-70.45019, -23.10046]]}, "properties": {"name": "Avenida Almirante Latorre", "highway": "residential"}}, {"type": "Feature", "geometry": {"type": "LineString", "coordinates": [[-70.44771, -23.10009], [-70.4477, -23.10016]]}, "properties": {"name": "Avenida Almirante Latorre", "highway": "residential"}}, {"type": "Feature", "geometry": {"type": "LineString", "coordinates": [[-70.44392, -23.1029], [-70.44373, -23.10391]]}, "properties": {"name": "Pasaje Neguayan", "highway": "residential"}}, {"type": "Feature", "geometry": {"type": "LineString", "coordinates": [[-70.4449, -23.10304], [-70.44484, -23.10347]]}, "properties": {"name": "Juan Rojas", "highway": "living_street"}}, {"type": "Feature", "geometry": {"type": "LineString", "coordinates": [[-70.44427, -23.10351], [-70.44457, -23.10359]]}, "properties": {"name": "Pedro Herrera Rojas", "highway": "living_street"}}, {"type": "Feature", "geometry": {"type": "LineString", "coordinates": [[-70.44244, -23.10225], [-70.44289, -23.10233]]}, "properties": {"name": "Pasaje Jorge Salas", "highway": "living_street"}}, {"type": "Feature", "geometry": {"type": "LineString", "coordinates": [[-70.44216, -23.10231], [-70.44186, -23.10226]]}, "properties": {"name": "Pasaje Jorge Salas", "highway": "living_street"}}, {"type": "Feature", "geometry": {"type": "LineString", "coordinates": [[-70.44186, -23.10226], [-70.44179, -23.10258]]}, "properties": {"name": "Pasaje Luis Cuadra", "highway": "living_street"}}, {"type": "Feature", "geometry": {"type": "LineString", "coordinates": [[-70.44165, -23.10215], [-70.44175, -23.10158]]}, "properties": {"name": "Pasaje Jorge Krstulovic", "highway": "living_street"}}, {"type": "Feature", "geometry": {"type": "LineString", "coordinates": [[-70.44324, -23.1028], [-70.4433, -23.10249]]}, "properties": {"name": "Pasaje Chacaya", "highway": "living_street"}}, {"type": "Feature", "geometry": {"type": "LineString", "coordinates": [[-70.4431, -23.10692], [-70.44467, -23.10426], [-70.44476, -23.10423], [-70.44473, -23.10435]]}, "properties": {"name": "Ernesto Salinas Manríquez", "highway": "residential"}}, {"type": "Feature", "geometry": {"type": "LineString", "coordinates": [[-70.42611, -23.10436], [-70.42628, -23.1064]]}, "properties": {"name": "", "highway": "service"}}, {"type": "Feature", "geometry": {"type": "LineString", "coordinates": [[-70.42669, -23.10616], [-70.42511, -23.10627], [-70.42489, -23.10512], [-70.42498, -23.10471]]}, "properties": {"name": "", "highway": "service"}}, {"type": "Feature", "geometry": {"type": "LineString", "coordinates": [[-70.42651, -23.10618], [-70.42636, -23.10514]]}, "properties": {"name": "", "highway": "service"}}, {"type": "Feature", "geometry": {"type": "LineString", "coordinates": [[-70.42603, -23.10642], [-70.42583, -23.10478]]}, "properties": {"name": "", "highway": "service"}}, {"type": "Feature", "geometry": {"type": "LineString", "coordinates": [[-70.44435, -23.10756], [-70.44162, -23.10616]]}, "properties": {"name": "Chacón Villarroel", "highway": "residential"}}, {"type": "Feature", "geometry": {"type": "LineString", "coordinates": [[-70.44473, -23.10435], [-70.44319, -23.10697]]}, "properties": {"name": "Ernesto Salinas Manríquez", "highway": "residential"}}, {"type": "Feature", "geometry": {"type": "LineString", "coordinates": [[-70.44234, -23.10829], [-70.44171, -23.11]]}, "properties": {"name": "", "highway": "unclassified"}}, {"type": "Feature", "geometry": {"type": "LineString", "coordinates": [[-70.44131, -23.11071], [-70.44135, -23.11005], [-70.44152, -23.10991], [-70.44171, -23.11], [-70.44169, -23.11068]]}, "properties": {"name": "", "highway": "unclassified"}}, {"type": "Feature", "geometry": {"type": "LineString", "coordinates": [[-70.44152, -23.10991], [-70.44219, -23.1083]]}, "properties": {"name": "", "highway": "unclassified"}}, {"type": "Feature", "geometry": {"type": "LineString", "coordinates": [[-70.43972, -23.11083], [-70.4399, -23.10918], [-70.44011, -23.10861], [-70.44228, -23.10843]]}, "properties": {"name": "", "highway": "unclassified"}}, {"type": "Feature", "geometry": {"type": "LineString", "coordinates": [[-70.44319, -23.10697], [-70.4426, -23.10799]]}, "properties": {"name": "Ernesto Salinas Manríquez", "highway": "residential"}}, {"type": "Feature", "geometry": {"type": "LineString", "coordinates": [[-70.44236, -23.1082], [-70.4431, -23.10692]]}, "properties": {"name": "Ernesto Salinas Manríquez", "highway": "residential"}}, {"type": "Feature", "geometry": {"type": "LineString", "coordinates": [[-70.44271, -23.10798], [-70.44243, -23.108]]}, "properties": {"name": "", "highway": "residential"}}, {"type": "Feature", "geometry": {"type": "LineString", "coordinates": [[-70.47132, -23.10271], [-70.46961, -23.10306], [-70.46711, -23.10393], [-70.46474, -23.10455]]}, "properties": {"name": "", "highway": "track"}}, {"type": "Feature", "geometry": {"type": "LineString", "coordinates": [[-70.44814, -23.10772], [-70.44819, -23.10881]]}, "properties": {"name": "Pasaje 4", "highway": "living_street"}}, {"type": "Feature", "geometry": {"type": "LineString", "coordinates": [[-70.44933, -23.10864], [-70.44926, -23.10752]]}, "properties": {"name": "Pasaje 1", "highway": "living_street"}}, {"type": "Feature", "geometry": {"type": "LineString", "coordinates": [[-70.44888, -23.10759], [-70.44895, -23.1087]]}, "properties": {"name": "Pasaje 2", "highway": "living_street"}}, {"type": "Feature", "geometry": {"type": "LineString", "coordinates": [[-70.44858, -23.10875], [-70.44851, -23.10765]]}, "properties": {"name": "Pasaje 3", "highway": "living_street"}}, {"type": "Feature", "geometry": {"type": "LineString", "coordinates": [[-70.4387, -23.10433], [-70.43822, -23.10317]]}, "properties": {"name": "", "highway": "residential"}}, {"type": "Feature", "geometry": {"type": "LineString", "coordinates": [[-70.44062, -23.10459], [-70.4395, -23.10476], [-70.43945, -23.10422], [-70.43854, -23.1039]]}, "properties": {"name": "", "highway": "residential"}}, {"type": "Feature", "geometry": {"type": "LineString", "coordinates": [[-70.43968, -23.10389], [-70.43968, -23.1026], [-70.43933, -23.10254], [-70.439, -23.1036]]}, "properties": {"name": "", "highway": "living_street"}}, {"type": "Feature", "geometry": {"type": "LineString", "coordinates": [[-70.43852, -23.09958], [-70.43785, -23.10169]]}, "properties": {"name": "Calle 1", "highway": "unclassified"}}, {"type": "Feature", "geometry": {"type": "LineString", "coordinates": [[-70.43746, -23.10518], [-70.43575, -23.10573]]}, "properties": {"name": "", "highway": "unclassified"}}, {"type": "Feature", "geometry": {"type": "LineString", "coordinates": [[-70.43925, -23.10293], [-70.43801, -23.10269]]}, "properties": {"name": "", "highway": "living_street"}}, {"type": "Feature", "geometry": {"type": "LineString", "coordinates": [[-70.43677, -23.10019], [-70.43827, -23.10056]]}, "properties": {"name": "", "highway": "unclassified"}}, {"type": "Feature", "geometry": {"type": "LineString", "coordinates": [[-70.43765, -23.10406], [-70.43544, -23.10465]]}, "properties": {"name": "", "highway": "unclassified"}}, {"type": "Feature", "geometry": {"type": "LineString", "coordinates": [[-70.43812, -23.102], [-70.441, -23.10247]]}, "properties": {"name": "Playa Blanca", "highway": "residential"}}, {"type": "Feature", "geometry": {"type": "LineString", "coordinates": [[-70.43812, -23.102], [-70.4376, -23.10452], [-70.43769, -23.10487], [-70.43812, -23.10523]]}, "properties": {"name": "", "highway": "unclassified"}}, {"type": "Feature", "geometry": {"type": "LineString", "coordinates": [[-70.44825, -23.10024], [-70.44813, -23.10096]]}, "properties": {"name": "Borgoño", "highway": "pedestrian"}}, {"type": "Feature", "geometry": {"type": "LineString", "coordinates": [[-70.44813, -23.10096], [-70.44793, -23.1022]]}, "properties": {"name": "Borgoño", "highway": "residential"}}, {"type": "Feature", "geometry": {"type": "LineString", "coordinates": [[-70.44942, -23.10037], [-70.44826, -23.1002]]}, "properties": {"name": "Avenida Almirante Latorre", "highway": "pedestrian"}}, {"type": "Feature", "geometry": {"type": "LineString", "coordinates": [[-70.44824, -23.10071], [-70.44863, -23.10082], [-70.44854, -23.10134], [-70.44871, -23.10136], [-70.4489, -23.10034], [-70.44943, -23.10034], [-70.44826, -23.10017], [-70.44824, -23.10071]]}, "properties": {"name": "Plaza Mejillones", "highway": "pedestrian"}}, {"type": "Feature", "geometry": {"type": "LineString", "coordinates": [[-70.44943, -23.10034], [-70.45461, -23.10106]]}, "properties": {"name": "Avenida Almirante Latorre", "highway": "residential"}}, {"type": "Feature", "geometry": {"type": "LineString", "coordinates": [[-70.44701, -23.10006], [-70.43603, -23.09843]]}, "properties": {"name": "Avenida Almirante Latorre", "highway": "tertiary"}}, {"type": "Feature", "geometry": {"type": "LineString", "coordinates": [[-70.45228, -23.10692], [-70.46107, -23.10537], [-70.47485, -23.10066], [-70.47768, -23.10027], [-70.48004, -23.10013], [-70.48034, -23.10024], [-70.48062, -23.10044], [-70.48368, -23.1044], [-70.48416, -23.10644], [-70.48588, -23.10873], [-70.48901, -23.11539], [-70.48936, -23.11784], [-70.48964, -23.11863], [-70.49257, -23.12349], [-70.49635, -23.12934]]}, "properties": {"name": "Avenida Los Fertilizantes", "highway": "tertiary"}}, {"type": "Feature", "geometry": {"type": "LineString", "coordinates": [[-70.44092, -23.10022], [-70.44058, -23.10036], [-70.44015, -23.10099], [-70.43942, -23.10087]]}, "properties": {"name": "", "highway": "service"}}, {"type": "Feature", "geometry": {"type": "LineString", "coordinates": [[-70.42774, -23.09483], [-70.42784, -23.09403], [-70.42715, -23.09386], [-70.42695, -23.09436]]}, "properties": {"name": "", "highway": "service"}}, {"type": "Feature", "geometry": {"type": "LineString", "coordinates": [[-70.42782, -23.09448], [-70.42744, -23.09456]]}, "properties": {"name": "", "highway": "service"}}, {"type": "Feature", "geometry": {"type": "LineString", "coordinates": [[-70.42177, -23.10346], [-70.42166, -23.1039]]}, "properties": {"name": "", "highway": "service"}}, {"type": "Feature", "geometry": {"type": "LineString", "coordinates": [[-70.44245, -23.10154], [-70.44283, -23.09944]]}, "properties": {"name": "11 de Septiembre", "highway": "residential"}}, {"type": "Feature", "geometry": {"type": "LineString", "coordinates": [[-70.45079, -23.10168], [-70.45043, -23.10178]]}, "properties": {"name": "Avenida Andalicán", "highway": "tertiary"}}, {"type": "Feature", "geometry": {"type": "LineString", "coordinates": [[-70.45043, -23.10178], [-70.44669, -23.1024]]}, "properties": {"name": "Avenida Andalicán", "highway": "tertiary"}}, {"type": "Feature", "geometry": {"type": "LineString", "coordinates": [[-70.45046, -23.10162], [-70.45077, -23.10158]]}, "properties": {"name": "Ongolmo", "highway": "residential"}}, {"type": "Feature", "geometry": {"type": "LineString", "coordinates": [[-70.44785, -23.10497], [-70.44974, -23.10465]]}, "properties": {"name": "Luis Cruz Martínez", "highway": "residential"}}, {"type": "Feature", "geometry": {"type": "LineString", "coordinates": [[-70.44251, -23.09828], [-70.44233, -23.09929]]}, "properties": {"name": "Granaderos", "highway": "residential"}}, {"type": "Feature", "geometry": {"type": "LineString", "coordinates": [[-70.45433, -23.09941], [-70.45407, -23.10101]]}, "properties": {"name": "Iquique", "highway": "residential"}}, {"type": "Feature", "geometry": {"type": "LineString", "coordinates": [[-70.42905, -23.09413], [-70.42779, -23.09841]]}, "properties": {"name": "", "highway": "unclassified"}}, {"type": "Feature", "geometry": {"type": "LineString", "coordinates": [[-70.43972, -23.11083], [-70.43824, -23.11057]]}, "properties": {"name": "", "highway": "unclassified"}}, {"type": "Feature", "geometry": {"type": "LineString", "coordinates": [[-70.44186, -23.10946], [-70.44175, -23.10942]]}, "properties": {"name": "", "highway": "unclassified"}}, {"type": "Feature", "geometry": {"type": "LineString", "coordinates": [[-70.43569, -23.10226], [-70.43567, -23.10186]]}, "properties": {"name": "", "highway": "service"}}, {"type": "Feature", "geometry": {"type": "LineString", "coordinates": [[-70.43567, -23.10186], [-70.43599, -23.10217]]}, "properties": {"name": "", "highway": "service"}}, {"type": "Feature", "geometry": {"type": "LineString", "coordinates": [[-70.4395, -23.10476], [-70.43916, -23.10593]]}, "properties": {"name": "", "highway": "unclassified"}}, {"type": "Feature", "geometry": {"type": "LineString", "coordinates": [[-70.43762, -23.10425], [-70.43901, -23.10502], [-70.43934, -23.10505]]}, "properties": {"name": "", "highway": "residential"}}, {"type": "Feature", "geometry": {"type": "LineString", "coordinates": [[-70.43869, -23.1075], [-70.43798, -23.10642], [-70.43769, -23.10517]]}, "properties": {"name": "", "highway": "unclassified"}}, {"type": "Feature", "geometry": {"type": "LineString", "coordinates": [[-70.44046, -23.10546], [-70.43926, -23.10533]]}, "properties": {"name": "", "highway": "unclassified"}}, {"type": "Feature", "geometry": {"type": "LineString", "coordinates": [[-70.43947, -23.10635], [-70.43972, -23.10598], [-70.43985, -23.10538]]}, "properties": {"name": "", "highway": "unclassified"}}, {"type": "Feature", "geometry": {"type": "LineString", "coordinates": [[-70.43977, -23.10679], [-70.43907, -23.10586], [-70.43812, -23.10523], [-70.43746, -23.10518]]}, "properties": {"name": "", "highway": "unclassified"}}, {"type": "Feature", "geometry": {"type": "LineString", "coordinates": [[-70.44453, -23.09907], [-70.44711, -23.09946]]}, "properties": {"name": "Pasaje Humeres", "highway": "living_street"}}, {"type": "Feature", "geometry": {"type": "LineString", "coordinates": [[-70.44369, -23.1012], [-70.44372, -23.10098]]}, "properties": {"name": "Pasaje Sargento Aldea", "highway": "residential"}}, {"type": "Feature", "geometry": {"type": "LineString", "coordinates": [[-70.43919, -23.10214], [-70.43916, -23.10231]]}, "properties": {"name": "", "highway": "living_street"}}, {"type": "Feature", "geometry": {"type": "LineString", "coordinates": [[-70.43857, -23.10279], [-70.43862, -23.10205]]}, "properties": {"name": "", "highway": "living_street"}}, {"type": "Feature", "geometry": {"type": "LineString", "coordinates": [[-70.43816, -23.10393], [-70.43829, -23.10425], [-70.4382, -23.10449]]}, "properties": {"name": "", "highway": "living_street"}}, {"type": "Feature", "geometry": {"type": "LineString", "coordinates": [[-70.43881, -23.10283], [-70.4389, -23.1025]]}, "properties": {"name": "", "highway": "living_street"}}, {"type": "Feature", "geometry": {"type": "LineString", "coordinates": [[-70.43892, -23.10354], [-70.4388, -23.10398]]}, "properties": {"name": "", "highway": "residential"}}, {"type": "Feature", "geometry": {"type": "LineString", "coordinates": [[-70.43951, -23.10439], [-70.43992, -23.10435]]}, "properties": {"name": "", "highway": "living_street"}}, {"type": "Feature", "geometry": {"type": "LineString", "coordinates": [[-70.43922, -23.10413], [-70.43871, -23.10531]]}, "properties": {"name": "", "highway": "residential"}}, {"type": "Feature", "geometry": {"type": "LineString", "coordinates": [[-70.4387, -23.10433], [-70.43851, -23.10469]]}, "properties": {"name": "", "highway": "living_street"}}, {"type": "Feature", "geometry": {"type": "LineString", "coordinates": [[-70.4385, -23.10383], [-70.43772, -23.10396]]}, "properties": {"name": "", "highway": "residential"}}, {"type": "Feature", "geometry": {"type": "LineString", "coordinates": [[-70.4379, -23.10289], [-70.43514, -23.1036]]}, "properties": {"name": "", "highway": "unclassified"}}, {"type": "Feature", "geometry": {"type": "LineString", "coordinates": [[-70.44346, -23.10402], [-70.44261, -23.10388]]}, "properties": {"name": "Pasaje Addison Armstrong", "highway": "living_street"}}, {"type": "Feature", "geometry": {"type": "LineString", "coordinates": [[-70.44255, -23.10422], [-70.44285, -23.10426]]}, "properties": {"name": "Emilio de Vidts", "highway": "residential"}}, {"type": "Feature", "geometry": {"type": "LineString", "coordinates": [[-70.45071, -23.10711], [-70.44975, -23.10724]]}, "properties": {"name": "Pasaje Sargento Zenón Ortíz", "highway": "residential"}}, {"type": "Feature", "geometry": {"type": "LineString", "coordinates": [[-70.44274, -23.10705], [-70.44239, -23.10686]]}, "properties": {"name": "", "highway": "service"}}, {"type": "Feature", "geometry": {"type": "LineString", "coordinates": [[-70.44189, -23.10658], [-70.44163, -23.10691], [-70.44124, -23.10669]]}, "properties": {"name": "", "highway": "service"}}, {"type": "Feature", "geometry": {"type": "LineString", "coordinates": [[-70.44114, -23.10683], [-70.4427, -23.10761]]}, "properties": {"name": "", "highway": "residential"}}, {"type": "Feature", "geometry": {"type": "LineString", "coordinates": [[-70.44247, -23.10749], [-70.44289, -23.10681]]}, "properties": {"name": "", "highway": "service"}}, {"type": "Feature", "geometry": {"type": "LineString", "coordinates": [[-70.44147, -23.10682], [-70.44175, -23.10651], [-70.44189, -23.10658]]}, "properties": {"name": "", "highway": "service"}}, {"type": "Feature", "geometry": {"type": "LineString", "coordinates": [[-70.43864, -23.10852], [-70.43767, -23.11385]]}, "properties": {"name": "", "highway": "unclassified"}}, {"type": "Feature", "geometry": {"type": "LineString", "coordinates": [[-70.4376, -23.10175], [-70.43772, -23.10192], [-70.43812, -23.102]]}, "properties": {"name": "Playa Blanca", "highway": "unclassified"}}, {"type": "Feature", "geometry": {"type": "LineString", "coordinates": [[-70.43812, -23.10523], [-70.43926, -23.10533]]}, "properties": {"name": "", "highway": "unclassified"}}, {"type": "Feature", "geometry": {"type": "LineString", "coordinates": [[-70.43605, -23.10672], [-70.43727, -23.10619], [-70.43746, -23.10518]]}, "properties": {"name": "", "highway": "unclassified"}}, {"type": "Feature", "geometry": {"type": "LineString", "coordinates": [[-70.45123, -23.09939], [-70.45137, -23.09879]]}, "properties": {"name": "Avenida Manuel Rodríguez", "highway": "residential"}}, {"type": "Feature", "geometry": {"type": "LineString", "coordinates": [[-70.45123, -23.09939], [-70.45126, -23.09951]]}, "properties": {"name": "Avenida Manuel Rodríguez", "highway": "residential"}}, {"type": "Feature", "geometry": {"type": "LineString", "coordinates": [[-70.45116, -23.0995], [-70.45123, -23.09939]]}, "properties": {"name": "Avenida Manuel Rodríguez", "highway": "residential"}}, {"type": "Feature", "geometry": {"type": "LineString", "coordinates": [[-70.45228, -23.10692], [-70.4516, -23.10711]]}, "properties": {"name": "Avenida Los Fertilizantes", "highway": "tertiary"}}, {"type": "Feature", "geometry": {"type": "LineString", "coordinates": [[-70.44769, -23.10779], [-70.44777, -23.10887]]}, "properties": {"name": "Avenida Bernardo O'Higgins", "highway": "residential"}}, {"type": "Feature", "geometry": {"type": "LineString", "coordinates": [[-70.44771, -23.10888], [-70.44763, -23.10781]]}, "properties": {"name": "Avenida Bernardo O'Higgins", "highway": "residential"}}, {"type": "Feature", "geometry": {"type": "LineString", "coordinates": [[-70.45162, -23.10703], [-70.45228, -23.10692]]}, "properties": {"name": "Avenida Los Fertilizantes", "highway": "tertiary"}}, {"type": "Feature", "geometry": {"type": "LineString", "coordinates": [[-70.4516, -23.10711], [-70.44678, -23.10795], [-70.44509, -23.10811]]}, "properties": {"name": "Avenida Los Fertilizantes", "highway": "tertiary"}}, {"type": "Feature", "geometry": {"type": "LineString", "coordinates": [[-70.44686, -23.10901], [-70.44678, -23.10795]]}, "properties": {"name": "Pasaje 6", "highway": "living_street"}}, {"type": "Feature", "geometry": {"type": "LineString", "coordinates": [[-70.44716, -23.10789], [-70.44723, -23.10895]]}, "properties": {"name": "Pasaje 5", "highway": "living_street"}}, {"type": "Feature", "geometry": {"type": "LineString", "coordinates": [[-70.44763, -23.10781], [-70.44764, -23.10756]]}, "properties": {"name": "Avenida Bernardo O'Higgins", "highway": "tertiary"}}, {"type": "Feature", "geometry": {"type": "LineString", "coordinates": [[-70.44764, -23.10756], [-70.44769, -23.10779]]}, "properties": {"name": "Avenida Bernardo O'Higgins", "highway": "tertiary"}}, {"type": "Feature", "geometry": {"type": "LineString", "coordinates": [[-70.45098, -23.10714], [-70.45136, -23.10752], [-70.45116, -23.10838], [-70.4448, -23.10929]]}, "properties": {"name": "Calle 1", "highway": "residential"}}, {"type": "Feature", "geometry": {"type": "LineString", "coordinates": [[-70.43786, -23.12436], [-70.43709, -23.12436], [-70.43567, -23.12498], [-70.41991, -23.12787], [-70.41937, -23.12829], [-70.41884, -23.12994], [-70.41859, -23.13021], [-70.41642, -23.13068]]}, "properties": {"name": "", "highway": "unclassified"}}, {"type": "Feature", "geometry": {"type": "LineString", "coordinates": [[-70.4473, -23.10544], [-70.44757, -23.10571]]}, "properties": {"name": "Guido Fleming Pérez ( Ex Diagonal O'Higgins)", "highway": "residential"}}, {"type": "Feature", "geometry": {"type": "LineString", "coordinates": [[-70.44504, -23.10305], [-70.44552, -23.10297]]}, "properties": {"name": "Pablo Neruda (Ex Pasaje 3)", "highway": "residential"}}, {"type": "Feature", "geometry": {"type": "LineString", "coordinates": [[-70.4404, -23.10292], [-70.4409, -23.10299]]}, "properties": {"name": "", "highway": "residential"}}, {"type": "Feature", "geometry": {"type": "LineString", "coordinates": [[-70.44257, -23.10696], [-70.44242, -23.10723], [-70.44258, -23.10731]]}, "properties": {"name": "", "highway": "service"}}, {"type": "Feature", "geometry": {"type": "LineString", "coordinates": [[-70.45049, -23.10835], [-70.45046, -23.10813]]}, "properties": {"name": "", "highway": "service"}}, {"type": "Feature", "geometry": {"type": "LineString", "coordinates": [[-70.45045, -23.10777], [-70.45053, -23.10812]]}, "properties": {"name": "", "highway": "service"}}, {"type": "Feature", "geometry": {"type": "LineString", "coordinates": [[-70.45065, -23.1081], [-70.45059, -23.10775], [-70.4503, -23.10779], [-70.45037, -23.10814]]}, "properties": {"name": "", "highway": "service"}}, {"type": "Feature", "geometry": {"type": "LineString", "coordinates": [[-70.44983, -23.10823], [-70.45129, -23.108]]}, "properties": {"name": "", "highway": "service"}}, {"type": "Feature", "geometry": {"type": "LineString", "coordinates": [[-70.44459, -23.10487], [-70.44486, -23.10442]]}, "properties": {"name": "", "highway": "service"}}, {"type": "Feature", "geometry": {"type": "LineString", "coordinates": [[-70.44458, -23.10533], [-70.44425, -23.10516]]}, "properties": {"name": "", "highway": "service"}}, {"type": "Feature", "geometry": {"type": "LineString", "coordinates": [[-70.44442, -23.10575], [-70.44488, -23.10597]]}, "properties": {"name": "", "highway": "service"}}, {"type": "Feature", "geometry": {"type": "LineString", "coordinates": [[-70.44393, -23.10637], [-70.44405, -23.10616], [-70.44375, -23.10601]]}, "properties": {"name": "", "highway": "service"}}, {"type": "Feature", "geometry": {"type": "LineString", "coordinates": [[-70.44431, -23.10628], [-70.44472, -23.10647]]}, "properties": {"name": "", "highway": "service"}}, {"type": "Feature", "geometry": {"type": "LineString", "coordinates": [[-70.44389, -23.10683], [-70.4434, -23.1066]]}, "properties": {"name": "", "highway": "service"}}, {"type": "Feature", "geometry": {"type": "LineString", "coordinates": [[-70.44396, -23.10652], [-70.44459, -23.10684]]}, "properties": {"name": "", "highway": "service"}}, {"type": "Feature", "geometry": {"type": "LineString", "coordinates": [[-70.4388, -23.09877], [-70.43933, -23.09681]]}, "properties": {"name": "Calle 1", "highway": "unclassified"}}, {"type": "Feature", "geometry": {"type": "LineString", "coordinates": [[-70.43996, -23.09982], [-70.44011, -23.09904]]}, "properties": {"name": "", "highway": "service"}}, {"type": "Feature", "geometry": {"type": "LineString", "coordinates": [[-70.43805, -23.10005], [-70.4367, -23.09983], [-70.43582, -23.09947]]}, "properties": {"name": "", "highway": "service"}}, {"type": "Feature", "geometry": {"type": "LineString", "coordinates": [[-70.44285, -23.10426], [-70.44346, -23.10402]]}, "properties": {"name": "Emilio de Vidts", "highway": "residential"}}, {"type": "Feature", "geometry": {"type": "LineString", "coordinates": [[-70.45253, -23.09932], [-70.45246, -23.09967]]}, "properties": {"name": "Francisco Antonio Pinto", "highway": "residential"}}, {"type": "Feature", "geometry": {"type": "LineString", "coordinates": [[-70.45258, -23.09903], [-70.45253, -23.09932]]}, "properties": {"name": "Francisco Antonio Pinto", "highway": "residential"}}, {"type": "Feature", "geometry": {"type": "LineString", "coordinates": [[-70.44486, -23.10192], [-70.44541, -23.09865]]}, "properties": {"name": "Ignacio Riquelme", "highway": "tertiary"}}, {"type": "Feature", "geometry": {"type": "LineString", "coordinates": [[-70.45366, -23.09954], [-70.45368, -23.09947]]}, "properties": {"name": "Pasaje Arturo Prat", "highway": "residential"}}, {"type": "Feature", "geometry": {"type": "LineString", "coordinates": [[-70.45368, -23.09947], [-70.45431, -23.09956]]}, "properties": {"name": "", "highway": "service"}}, {"type": "Feature", "geometry": {"type": "LineString", "coordinates": [[-70.45253, -23.09932], [-70.45366, -23.09954]]}, "properties": {"name": "Pasaje Arturo Prat", "highway": "residential"}}, {"type": "Feature", "geometry": {"type": "LineString", "coordinates": [[-70.47218, -23.10224], [-70.47209, -23.10195]]}, "properties": {"name": "", "highway": "service"}}, {"type": "Feature", "geometry": {"type": "LineString", "coordinates": [[-70.47169, -23.10205], [-70.4716, -23.10175]]}, "properties": {"name": "", "highway": "service"}}, {"type": "Feature", "geometry": {"type": "LineString", "coordinates": [[-70.4726, -23.10183], [-70.47169, -23.10205]]}, "properties": {"name": "", "highway": "service"}}, {"type": "Feature", "geometry": {"type": "LineString", "coordinates": [[-70.47285, -23.10208], [-70.47156, -23.10239]]}, "properties": {"name": "", "highway": "service"}}, {"type": "Feature", "geometry": {"type": "LineString", "coordinates": [[-70.47174, -23.1017], [-70.47183, -23.10202]]}, "properties": {"name": "", "highway": "service"}}, {"type": "Feature", "geometry": {"type": "LineString", "coordinates": [[-70.44268, -23.09736], [-70.44252, -23.09822]]}, "properties": {"name": "", "highway": "service"}}, {"type": "Feature", "geometry": {"type": "LineString", "coordinates": [[-70.43378, -23.12521], [-70.43276, -23.12065]]}, "properties": {"name": "", "highway": "unclassified"}}, {"type": "Feature", "geometry": {"type": "LineString", "coordinates": [[-70.43479, -23.11979], [-70.43581, -23.12448], [-70.43549, -23.12489], [-70.4175, -23.12814]]}, "properties": {"name": "", "highway": "unclassified"}}, {"type": "Feature", "geometry": {"type": "LineString", "coordinates": [[-70.43973, -23.12142], [-70.4392, -23.12133], [-70.42889, -23.12317]]}, "properties": {"name": "", "highway": "unclassified"}}, {"type": "Feature", "geometry": {"type": "LineString", "coordinates": [[-70.44489, -23.10828], [-70.44498, -23.10926]]}, "properties": {"name": "", "highway": "living_street"}}, {"type": "Feature", "geometry": {"type": "LineString", "coordinates": [[-70.44533, -23.10921], [-70.44526, -23.10822]]}, "properties": {"name": "", "highway": "living_street"}}, {"type": "Feature", "geometry": {"type": "LineString", "coordinates": [[-70.44565, -23.10816], [-70.44573, -23.10915]]}, "properties": {"name": "Pedro Guerra San Cristobal", "highway": "living_street"}}, {"type": "Feature", "geometry": {"type": "LineString", "coordinates": [[-70.44611, -23.1091], [-70.44604, -23.1081]]}, "properties": {"name": "Juan Vega Garbizo", "highway": "living_street"}}, {"type": "Feature", "geometry": {"type": "LineString", "coordinates": [[-70.44613, -23.10804], [-70.44476, -23.1083]]}, "properties": {"name": "", "highway": "residential"}}, {"type": "Feature", "geometry": {"type": "LineString", "coordinates": [[-70.44641, -23.108], [-70.4465, -23.10905]]}, "properties": {"name": "", "highway": "living_street"}}, {"type": "Feature", "geometry": {"type": "LineString", "coordinates": [[-70.44414, -23.10817], [-70.44418, -23.10808]]}, "properties": {"name": "Acceso Sur a Mejillones", "highway": "secondary"}}, {"type": "Feature", "geometry": {"type": "LineString", "coordinates": [[-70.44428, -23.10776], [-70.44431, -23.1077]]}, "properties": {"name": "Ignacio Riquelme", "highway": "secondary"}}, {"type": "Feature", "geometry": {"type": "LineString", "coordinates": [[-70.44418, -23.10808], [-70.44428, -23.10776]]}, "properties": {"name": "Ignacio Riquelme", "highway": "secondary"}}, {"type": "Feature", "geometry": {"type": "LineString", "coordinates": [[-70.44455, -23.10815], [-70.44414, -23.10817]]}, "properties": {"name": "Avenida Los Fertilizantes", "highway": "tertiary"}}, {"type": "Feature", "geometry": {"type": "LineString", "coordinates": [[-70.44414, -23.10817], [-70.44353, -23.10821]]}, "properties": {"name": "Avenida Los Fertilizantes", "highway": "secondary"}}, {"type": "Feature", "geometry": {"type": "LineString", "coordinates": [[-70.44378, -23.10811], [-70.44418, -23.10808]]}, "properties": {"name": "Avenida Los Fertilizantes", "highway": "secondary"}}, {"type": "Feature", "geometry": {"type": "LineString", "coordinates": [[-70.44418, -23.10808], [-70.44465, -23.10806]]}, "properties": {"name": "Avenida Los Fertilizantes", "highway": "tertiary"}}, {"type": "Feature", "geometry": {"type": "LineString", "coordinates": [[-70.43935, -23.11395], [-70.43625, -23.11362]]}, "properties": {"name": "", "highway": "unclassified"}}, {"type": "Feature", "geometry": {"type": "LineString", "coordinates": [[-70.4393, -23.11297], [-70.43656, -23.11267]]}, "properties": {"name": "", "highway": "unclassified"}}, {"type": "Feature", "geometry": {"type": "LineString", "coordinates": [[-70.44333, -23.11058], [-70.43972, -23.11083]]}, "properties": {"name": "", "highway": "unclassified"}}, {"type": "Feature", "geometry": {"type": "LineString", "coordinates": [[-70.43824, -23.11057], [-70.43651, -23.11028]]}, "properties": {"name": "", "highway": "unclassified"}}, {"type": "Feature", "geometry": {"type": "LineString", "coordinates": [[-70.43656, -23.11267], [-70.43719, -23.1093]]}, "properties": {"name": "", "highway": "unclassified"}}, {"type": "Feature", "geometry": {"type": "LineString", "coordinates": [[-70.43916, -23.11185], [-70.43679, -23.11154], [-70.43536, -23.11117]]}, "properties": {"name": "", "highway": "unclassified"}}, {"type": "Feature", "geometry": {"type": "LineString", "coordinates": [[-70.44371, -23.10944], [-70.44377, -23.10924]]}, "properties": {"name": "Acceso Sur a Mejillones", "highway": "secondary"}}, {"type": "Feature", "geometry": {"type": "LineString", "coordinates": [[-70.44377, -23.10924], [-70.44396, -23.10868]]}, "properties": {"name": "Acceso Sur a Mejillones", "highway": "secondary"}}, {"type": "Feature", "geometry": {"type": "LineString", "coordinates": [[-70.44396, -23.10868], [-70.44403, -23.10847]]}, "properties": {"name": "Acceso Sur a Mejillones", "highway": "secondary"}}, {"type": "Feature", "geometry": {"type": "LineString", "coordinates": [[-70.44403, -23.10847], [-70.44414, -23.10817]]}, "properties": {"name": "Acceso Sur a Mejillones", "highway": "secondary"}}, {"type": "Feature", "geometry": {"type": "LineString", "coordinates": [[-70.44041, -23.11939], [-70.44371, -23.10944]]}, "properties": {"name": "Acceso Sur a Mejillones", "highway": "secondary"}}, {"type": "Feature", "geometry": {"type": "LineString", "coordinates": [[-70.435, -23.10243], [-70.43488, -23.10246]]}, "properties": {"name": "Avenida Andalicán", "highway": "secondary"}}, {"type": "Feature", "geometry": {"type": "LineString", "coordinates": [[-70.45149, -23.10714], [-70.45204, -23.1108], [-70.45207, -23.11121], [-70.45193, -23.11138], [-70.44861, -23.11154], [-70.44846, -23.11129], [-70.44814, -23.10947], [-70.44781, -23.10887]]}, "properties": {"name": "", "highway": "track"}}, {"type": "Feature", "geometry": {"type": "LineString", "coordinates": [[-70.43499, -23.13566], [-70.43858, -23.12492]]}, "properties": {"name": "Acceso Sur a Mejillones", "highway": "secondary"}}, {"type": "Feature", "geometry": {"type": "LineString", "coordinates": [[-70.43523, -23.10161], [-70.43567, -23.10186]]}, "properties": {"name": "", "highway": "service"}}, {"type": "Feature", "geometry": {"type": "LineString", "coordinates": [[-70.43947, -23.10847], [-70.43864, -23.10852]]}, "properties": {"name": "Avenida Los Fertilizantes", "highway": "secondary"}}, {"type": "Feature", "geometry": {"type": "LineString", "coordinates": [[-70.43859, -23.10844], [-70.43858, -23.10812]]}, "properties": {"name": "Avenida Serrano", "highway": "tertiary"}}, {"type": "Feature", "geometry": {"type": "LineString", "coordinates": [[-70.4387, -23.10802], [-70.4387, -23.10843]]}, "properties": {"name": "Avenida Serrano", "highway": "tertiary"}}, {"type": "Feature", "geometry": {"type": "LineString", "coordinates": [[-70.44304, -23.10824], [-70.43947, -23.10847]]}, "properties": {"name": "Avenida Los Fertilizantes", "highway": "secondary"}}, {"type": "Feature", "geometry": {"type": "LineString", "coordinates": [[-70.44465, -23.10806], [-70.4451, -23.10803]]}, "properties": {"name": "Avenida Los Fertilizantes", "highway": "tertiary"}}, {"type": "Feature", "geometry": {"type": "LineString", "coordinates": [[-70.44509, -23.10811], [-70.44455, -23.10815]]}, "properties": {"name": "Avenida Los Fertilizantes", "highway": "tertiary"}}, {"type": "Feature", "geometry": {"type": "LineString", "coordinates": [[-70.44353, -23.10821], [-70.44304, -23.10824]]}, "properties": {"name": "Avenida Los Fertilizantes", "highway": "secondary"}}, {"type": "Feature", "geometry": {"type": "LineString", "coordinates": [[-70.43825, -23.10846], [-70.43859, -23.10844]]}, "properties": {"name": "Avenida Los Fertilizantes", "highway": "secondary"}}, {"type": "Feature", "geometry": {"type": "LineString", "coordinates": [[-70.4387, -23.10843], [-70.43909, -23.10841]]}, "properties": {"name": "Avenida Los Fertilizantes", "highway": "secondary"}}, {"type": "Feature", "geometry": {"type": "LineString", "coordinates": [[-70.43859, -23.10844], [-70.4387, -23.10843]]}, "properties": {"name": "Avenida Los Fertilizantes", "highway": "secondary"}}, {"type": "Feature", "geometry": {"type": "LineString", "coordinates": [[-70.43497, -23.10217], [-70.43511, -23.10166]]}, "properties": {"name": "Avenida Los Fertilizantes", "highway": "tertiary"}}, {"type": "Feature", "geometry": {"type": "LineString", "coordinates": [[-70.43599, -23.10217], [-70.43569, -23.10226]]}, "properties": {"name": "Avenida Andalicán", "highway": "secondary"}}, {"type": "Feature", "geometry": {"type": "LineString", "coordinates": [[-70.43569, -23.10226], [-70.43526, -23.10236]]}, "properties": {"name": "Avenida Andalicán", "highway": "secondary"}}, {"type": "Feature", "geometry": {"type": "LineString", "coordinates": [[-70.43526, -23.10236], [-70.435, -23.10243]]}, "properties": {"name": "Avenida Andalicán", "highway": "secondary"}}, {"type": "Feature", "geometry": {"type": "LineString", "coordinates": [[-70.43517, -23.10181], [-70.435, -23.10243]]}, "properties": {"name": "Avenida Los Fertilizantes", "highway": "tertiary"}}, {"type": "Feature", "geometry": {"type": "LineString", "coordinates": [[-70.43488, -23.10246], [-70.43497, -23.10217]]}, "properties": {"name": "Avenida Los Fertilizantes", "highway": "tertiary"}}, {"type": "Feature", "geometry": {"type": "LineString", "coordinates": [[-70.4329, -23.10291], [-70.43458, -23.10253]]}, "properties": {"name": "Acceso Norte a Mejillones", "highway": "secondary"}}, {"type": "Feature", "geometry": {"type": "LineString", "coordinates": [[-70.43458, -23.10253], [-70.43422, -23.10265]]}, "properties": {"name": "Acceso Norte a Mejillones", "highway": "secondary"}}, {"type": "Feature", "geometry": {"type": "LineString", "coordinates": [[-70.43488, -23.10246], [-70.43458, -23.10253]]}, "properties": {"name": "Acceso Norte a Mejillones", "highway": "secondary"}}, {"type": "Feature", "geometry": {"type": "LineString", "coordinates": [[-70.435, -23.10341], [-70.4349, -23.10307]]}, "properties": {"name": "Avenida Los Fertilizantes", "highway": "secondary"}}, {"type": "Feature", "geometry": {"type": "LineString", "coordinates": [[-70.435, -23.10243], [-70.43495, -23.10267]]}, "properties": {"name": "Avenida Los Fertilizantes", "highway": "secondary"}}, {"type": "Feature", "geometry": {"type": "LineString", "coordinates": [[-70.43495, -23.10267], [-70.43511, -23.10349]]}, "properties": {"name": "Avenida Los Fertilizantes", "highway": "secondary"}}, {"type": "Feature", "geometry": {"type": "LineString", "coordinates": [[-70.43909, -23.10841], [-70.44378, -23.10811]]}, "properties": {"name": "Avenida Los Fertilizantes", "highway": "secondary"}}, {"type": "Feature", "geometry": {"type": "LineString", "coordinates": [[-70.4349, -23.10307], [-70.43488, -23.10246]]}, "properties": {"name": "Avenida Los Fertilizantes", "highway": "secondary"}}, {"type": "Feature", "geometry": {"type": "LineString", "coordinates": [[-70.44763, -23.1072], [-70.44764, -23.10756]]}, "properties": {"name": "Avenida Bernardo O'Higgins", "highway": "tertiary"}}, {"type": "Feature", "geometry": {"type": "LineString", "coordinates": [[-70.45094, -23.10156], [-70.45091, -23.1017]]}, "properties": {"name": "", "highway": "tertiary"}}, {"type": "Feature", "geometry": {"type": "LineString", "coordinates": [[-70.45079, -23.10168], [-70.45078, -23.10156]]}, "properties": {"name": "", "highway": "tertiary"}}, {"type": "Feature", "geometry": {"type": "LineString", "coordinates": [[-70.43923, -23.12296], [-70.43962, -23.12178]]}, "properties": {"name": "Acceso Sur a Mejillones", "highway": "secondary"}}, {"type": "Feature", "geometry": {"type": "LineString", "coordinates": [[-70.43895, -23.12381], [-70.43923, -23.12296]]}, "properties": {"name": "Acceso Sur a Mejillones", "highway": "secondary"}}, {"type": "Feature", "geometry": {"type": "LineString", "coordinates": [[-70.43878, -23.1243], [-70.43895, -23.12381]]}, "properties": {"name": "Acceso Sur a Mejillones", "highway": "secondary"}}, {"type": "Feature", "geometry": {"type": "LineString", "coordinates": [[-70.43962, -23.12178], [-70.44041, -23.11939]]}, "properties": {"name": "Acceso Sur a Mejillones", "highway": "secondary"}}, {"type": "Feature", "geometry": {"type": "LineString", "coordinates": [[-70.43868, -23.12459], [-70.43878, -23.1243]]}, "properties": {"name": "Acceso Sur a Mejillones", "highway": "secondary"}}, {"type": "Feature", "geometry": {"type": "LineString", "coordinates": [[-70.43858, -23.12492], [-70.43868, -23.12459]]}, "properties": {"name": "Acceso Sur a Mejillones", "highway": "secondary"}}, {"type": "Feature", "geometry": {"type": "LineString", "coordinates": [[-70.43843, -23.12451], [-70.43786, -23.12436]]}, "properties": {"name": "", "highway": "unclassified"}}, {"type": "Feature", "geometry": {"type": "LineString", "coordinates": [[-70.43868, -23.12459], [-70.43843, -23.12451]]}, "properties": {"name": "", "highway": "unclassified"}}, {"type": "Feature", "geometry": {"type": "LineString", "coordinates": [[-70.43786, -23.12436], [-70.43697, -23.11953]]}, "properties": {"name": "", "highway": "unclassified"}}, {"type": "Feature", "geometry": {"type": "LineString", "coordinates": [[-70.43164, -23.1257], [-70.43051, -23.12065]]}, "properties": {"name": "", "highway": "unclassified"}}, {"type": "Feature", "geometry": {"type": "LineString", "coordinates": [[-70.45894, -23.10166], [-70.46044, -23.10214], [-70.4619, -23.10222], [-70.46206, -23.1024]]}, "properties": {"name": "", "highway": "service"}}, {"type": "Feature", "geometry": {"type": "LineString", "coordinates": [[-70.45074, -23.10727], [-70.45036, -23.10527]]}, "properties": {"name": "", "highway": "living_street"}}, {"type": "Feature", "geometry": {"type": "LineString", "coordinates": [[-70.43862, -23.1022], [-70.43889, -23.10223]]}, "properties": {"name": "", "highway": "living_street"}}, {"type": "Feature", "geometry": {"type": "LineString", "coordinates": [[-70.43613, -23.09838], [-70.43517, -23.10181]]}, "properties": {"name": "Avenida Los Fertilizantes", "highway": "tertiary"}}, {"type": "Feature", "geometry": {"type": "LineString", "coordinates": [[-70.43511, -23.10166], [-70.43604, -23.09836]]}, "properties": {"name": "Avenida Los Fertilizantes", "highway": "tertiary"}}, {"type": "Feature", "geometry": {"type": "LineString", "coordinates": [[-70.44252, -23.09822], [-70.44541, -23.09865]]}, "properties": {"name": "San Martín", "highway": "residential"}}, {"type": "Feature", "geometry": {"type": "LineString", "coordinates": [[-70.4454, -23.09872], [-70.44251, -23.09828]]}, "properties": {"name": "San Martín", "highway": "residential"}}, {"type": "Feature", "geometry": {"type": "LineString", "coordinates": [[-70.44702, -23.09998], [-70.44826, -23.10017]]}, "properties": {"name": "Avenida Almirante Latorre", "highway": "residential"}}, {"type": "Feature", "geometry": {"type": "LineString", "coordinates": [[-70.44825, -23.10024], [-70.44701, -23.10006]]}, "properties": {"name": "Avenida Almirante Latorre", "highway": "residential"}}, {"type": "Feature", "geometry": {"type": "LineString", "coordinates": [[-70.44785, -23.09954], [-70.44793, -23.09908]]}, "properties": {"name": "Pasaje Humeres", "highway": "living_street"}}, {"type": "Feature", "geometry": {"type": "LineString", "coordinates": [[-70.4472, -23.0989], [-70.44732, -23.09822]]}, "properties": {"name": "Avenida Bernardo O'Higgins", "highway": "residential"}}, {"type": "Feature", "geometry": {"type": "LineString", "coordinates": [[-70.45821, -23.10036], [-70.45733, -23.10042], [-70.45587, -23.10022]]}, "properties": {"name": "San Martín", "highway": "tertiary"}}, {"type": "Feature", "geometry": {"type": "LineString", "coordinates": [[-70.44392, -23.1029], [-70.44504, -23.10305]]}, "properties": {"name": "Playa Blanca", "highway": "residential"}}, {"type": "Feature", "geometry": {"type": "LineString", "coordinates": [[-70.44037, -23.10598], [-70.44158, -23.09919]]}, "properties": {"name": "Avenida Serrano", "highway": "tertiary"}}, {"type": "Feature", "geometry": {"type": "LineString", "coordinates": [[-70.44167, -23.0992], [-70.44046, -23.10599]]}, "properties": {"name": "Avenida Serrano", "highway": "tertiary"}}, {"type": "Feature", "geometry": {"type": "LineString", "coordinates": [[-70.43968, -23.10389], [-70.4379, -23.10289]]}, "properties": {"name": "", "highway": "residential"}}, {"type": "Feature", "geometry": {"type": "LineString", "coordinates": [[-70.43222, -23.10319], [-70.43101, -23.10348]]}, "properties": {"name": "Acceso Norte a Mejillones", "highway": "secondary"}}, {"type": "Feature", "geometry": {"type": "LineString", "coordinates": [[-70.44637, -23.10224], [-70.44669, -23.1024]]}, "properties": {"name": "Avenida Andalicán", "highway": "tertiary"}}], "_meta": {"ciudad": "Mejillones", "fuente": "OpenStreetMap (ODbL)"}}