{"type": "FeatureCollection", "features": [{"type": "Feature", "properties": {"comuna": "María Elena", "provincia": "Tocopilla", "cod_comuna": 2302}, "geometry": {"type": "MultiPolygon", "coordinates": [[[[-69.41993, -21.50245], [-69.31307, -21.39817], [-68.85968, -21.28498], [-68.93625, -21.43487], [-68.99264, -21.63608], [-68.93244, -21.82869], [-69.17671, -22.22804], [-69.17177, -22.32711], [-69.15582, -22.35652], [-69.147, -22.45506], [-69.19076, -22.57634], [-69.53614, -22.88021], [-69.76979, -22.86943], [-69.96947, -22.87089], [-69.96229, -22.84883], [-69.94583, -22.83708], [-69.9544, -22.8106], [-69.95162, -22.79933], [-69.93379, -22.77209], [-69.93486, -22.74251], [-69.92104, -22.68309], [-69.89958, -22.65363], [-69.89373, -22.63514], [-69.90854, -22.56377], [-69.92222, -22.54049], [-69.91608, -22.53852], [-69.91823, -22.47495], [-69.95759, -22.458], [-69.96598, -22.44691], [-69.96461, -22.42593], [-69.98281, -22.34624], [-69.96385, -22.31927], [-69.96212, -22.30204], [-69.97371, -22.28623], [-69.97183, -22.27578], [-69.94917, -22.25589], [-69.9196, -22.24583], [-69.86478, -22.2441], [-69.84403, -22.22727], [-69.81764, -22.22683], [-69.80923, -22.21081], [-69.81175, -22.20064], [-69.75758, -22.19394], [-69.74475, -22.15545], [-69.74224, -22.12479], [-69.7603, -22.11311], [-69.76492, -22.09211], [-69.75443, -22.0825], [-69.74249, -22.02657], [-69.78104, -21.9638], [-69.79823, -21.9121], [-69.81065, -21.8999], [-69.84291, -21.88814], [-69.85326, -21.87234], [-69.90409, -21.8708], [-69.83348, -21.74956], [-69.84013, -21.7064], [-69.83206, -21.44235], [-69.81783, -21.43665], [-69.78113, -21.4417], [-69.78169, -21.43227], [-69.76563, -21.41958], [-69.73423, -21.44768], [-69.70197, -21.45608], [-69.69504, -21.45054], [-69.68792, -21.45969], [-69.66679, -21.46297], [-69.66258, -21.48132], [-69.63949, -21.49993], [-69.62571, -21.52889], [-69.63157, -21.53275], [-69.62568, -21.54601], [-69.59823, -21.56141], [-69.57726, -21.5977], [-69.57841, -21.60609], [-69.55129, -21.6302], [-69.41993, -21.50245]]]]}}, {"type": "Feature", "properties": {"comuna": "Calama", "provincia": "El Loa", "cod_comuna": 2201}, "geometry": {"type": "MultiPolygon", "coordinates": [[[[-68.01052, -22.03313], [-68.00738, -22.03957], [-67.96461, -22.05391], [-67.96379, -22.0797], [-67.94857, -22.08776], [-67.93923, -22.10743], [-67.94122, -22.13029], [-67.94907, -22.14787], [-67.9575, -22.15181], [-67.95764, -22.16604], [-67.95562, -22.17697], [-67.94967, -22.17632], [-67.93197, -22.20269], [-67.93533, -22.2144], [-67.92141, -22.24146], [-67.92452, -22.26166], [-67.91543, -22.2724], [-67.93727, -22.27323], [-67.93283, -22.28864], [-67.9387, -22.29367], [-67.93223, -22.30473], [-67.94024, -22.31131], [-67.94311, -22.32808], [-67.94185, -22.33639], [-67.93099, -22.34296], [-67.94086, -22.35864], [-67.93256, -22.36501], [-67.93306, -22.3751], [-67.96824, -22.39599], [-67.97047, -22.41055], [-67.99805, -22.41702], [-68.01331, -22.43253], [-68.02772, -22.41829], [-68.06554, -22.42028], [-68.07642, -22.4326], [-68.12364, -22.40248], [-68.15262, -22.40248], [-68.15403, -22.43765], [-68.19784, -22.45685], [-68.22929, -22.50416], [-68.24357, -22.50795], [-68.24408, -22.51896], [-68.25621, -22.53279], [-68.25196, -22.53917], [-68.26062, -22.5456], [-68.26389, -22.59995], [-68.28014, -22.60185], [-68.291, -22.61578], [-68.30532, -22.61987], [-68.30955, -22.63241], [-68.33403, -22.65352], [-68.36011, -22.6646], [-68.38718, -22.72536], [-68.40573, -22.74086], [-68.40511, -22.74853], [-68.43204, -22.74931], [-68.44982, -22.76916], [-68.45986, -22.7895], [-68.46662, -22.85564], [-68.48403, -22.8491], [-68.50675, -22.87132], [-68.52057, -22.89985], [-68.52449, -22.94578], [-68.53456, -22.97567], [-68.53722, -23.00924], [-68.52633, -23.02255], [-68.53239, -23.05243], [-68.54467, -23.06431], [-68.54081, -23.08346], [-68.59472, -23.08839], [-68.6169, -23.0804], [-68.63841, -23.08386], [-68.65464, -23.10435], [-68.68616, -23.1006], [-68.70828, -23.11051], [-68.73777, -23.11379], [-68.74404, -23.12603], [-68.75485, -23.12485], [-68.76285, -23.13979], [-68.77005, -23.14123], [-68.82505, -23.12084], [-68.8465, -23.10077], [-68.82667, -23.06202], [-68.82526, -23.04566], [-68.83267, -23.03821], [-68.81533, -23.00829], [-68.8018, -22.99919], [-68.81482, -22.96785], [-68.86495, -22.92723], [-68.86847, -22.90515], [-68.98644, -22.74506], [-69.15089, -22.66307], [-69.18037, -22.62919], [-69.19401, -22.59667], [-69.147, -22.45506], [-69.15582, -22.35652], [-69.17177, -22.32711], [-69.17671, -22.22804], [-68.93244, -21.82869], [-68.99264, -21.63608], [-68.93625, -21.43487], [-68.85968, -21.28498], [-68.53266, -21.06616], [-68.4679, -21.22074], [-68.5146, -21.27826], [-68.50291, -21.39165], [-68.52191, -21.54637], [-68.39535, -21.65314], [-68.31163, -21.6926], [-68.31959, -21.7803], [-68.34025, -21.88926], [-68.19283, -21.90586], [-68.07111, -21.98212], [-68.01561, -22.02315], [-68.01052, -22.03313]]]]}}, {"type": "Feature", "properties": {"comuna": "Tocopilla", "provincia": "Tocopilla", "cod_comuna": 2301}, "geometry": {"type": "MultiPolygon", "coordinates": [[[[-70.28983, -22.57093], [-70.28947, -22.57122], [-70.28906, -22.57137], [-70.2889, -22.57094], [-70.28864, -22.57061], [-70.28839, -22.57095], [-70.28845, -22.57138], [-70.2885, -22.57181], [-70.28866, -22.57219], [-70.28892, -22.57257], [-70.28928, -22.57304], [-70.2897, -22.5729], [-70.29005, -22.57265], [-70.29052, -22.57275], [-70.29067, -22.57236], [-70.29036, -22.57203], [-70.29082, -22.57203], [-70.29128, -22.57207], [-70.29195, -22.57154], [-70.29194, -22.57106], [-70.29158, -22.57083], [-70.29112, -22.57097], [-70.29066, -22.57102], [-70.2904, -22.57069], [-70.29029, -22.57026], [-70.28993, -22.5705], [-70.28983, -22.57093]]], [[[-70.21966, -22.09637], [-70.21967, -22.09637], [-70.21971, -22.09638], [-70.21971, -22.09638], [-70.21975, -22.09639], [-70.21976, -22.09639], [-70.21997, -22.09643], [-70.22045, -22.09649], [-70.22088, -22.09659], [-70.22136, -22.09653], [-70.22164, -22.09638], [-70.22153, -22.09621], [-70.22149, -22.09611], [-70.22146, -22.09607], [-70.22142, -22.09602], [-70.22114, -22.09574], [-70.22109, -22.09571], [-70.22108, -22.09569], [-70.22106, -22.09569], [-70.22105, -22.09568], [-70.22102, -22.09565], [-70.221, -22.09564], [-70.22098, -22.09564], [-70.22097, -22.09562], [-70.22095, -22.09562], [-70.22094, -22.09561], [-70.22094, -22.09559], [-70.22092, -22.09559], [-70.22091, -22.09558], [-70.22091, -22.09556], [-70.22089, -22.09555], [-70.22088, -22.09553], [-70.22084, -22.09552], [-70.22083, -22.09551], [-70.22083, -22.09549], [-70.22077, -22.09546], [-70.22075, -22.09546], [-70.22073, -22.0953], [-70.2207, -22.0953], [-70.22069, -22.0953], [-70.22055, -22.09531], [-70.21996, -22.09505], [-70.22024, -22.09483], [-70.21995, -22.09442], [-70.21995, -22.0944], [-70.21995, -22.09437], [-70.21993, -22.09432], [-70.21991, -22.09431], [-70.21991, -22.09427], [-70.21984, -22.09415], [-70.21984, -22.09412], [-70.2198, -22.09411], [-70.2198, -22.09409], [-70.21979, -22.09408], [-70.21976, -22.09408], [-70.21974, -22.09406], [-70.21973, -22.09405], [-70.21969, -22.09405], [-70.21968, -22.09405], [-70.21968, -22.09404], [-70.21966, -22.09404], [-70.21965, -22.09404], [-70.21962, -22.09404], [-70.21962, -22.09402], [-70.2196, -22.09402], [-70.2196, -22.09401], [-70.21957, -22.09401], [-70.21955, -22.09399], [-70.21954, -22.09399], [-70.21952, -22.09399], [-70.21951, -22.09398], [-70.21949, -22.09398], [-70.21946, -22.09396], [-70.21944, -22.09396], [-70.21944, -22.09395], [-70.21943, -22.09395], [-70.21941, -22.09394], [-70.2194, -22.09394], [-70.21938, -22.09392], [-70.21937, -22.09391], [-70.21934, -22.09391], [-70.21934, -22.09389], [-70.21932, -22.09389], [-70.2193, -22.09389], [-70.21929, -22.09389], [-70.21927, -22.09389], [-70.21927, -22.09388], [-70.21926, -22.09388], [-70.21923, -22.09386], [-70.21921, -22.09386], [-70.2192, -22.09386], [-70.21918, -22.09385], [-70.21915, -22.09385], [-70.21913, -22.09385], [-70.2191, -22.09385], [-70.21907, -22.09385], [-70.21905, -22.09385], [-70.21904, -22.09385], [-70.21902, -22.09385], [-70.21901, -22.09385], [-70.21898, -22.09387], [-70.21896, -22.09387], [-70.21893, -22.09387], [-70.2189, -22.09388], [-70.21884, -22.0939], [-70.21879, -22.0939], [-70.21878, -22.0939], [-70.21873, -22.09393], [-70.21871, -22.09393], [-70.2187, -22.09394], [-70.2187, -22.09396], [-70.21868, -22.09396], [-70.21867, -22.09397], [-70.21865, -22.09398], [-70.21865, -22.094], [-70.21865, -22.09401], [-70.21864, -22.09403], [-70.21864, -22.09404], [-70.21864, -22.09406], [-70.21862, -22.09407], [-70.21861, -22.09409], [-70.21861, -22.0941], [-70.21861, -22.09412], [-70.21861, -22.09413], [-70.21857, -22.09416], [-70.21858, -22.09419], [-70.21858, -22.0942], [-70.21858, -22.09422], [-70.21858, -22.09423], [-70.21858, -22.09425], [-70.21858, -22.09426], [-70.21858, -22.09428], [-70.21856, -22.09429], [-70.21856, -22.0943], [-70.21855, -22.09433], [-70.21855, -22.09435], [-70.21855, -22.09438], [-70.21853, -22.09439], [-70.21851, -22.09441], [-70.21851, -22.09442], [-70.21852, -22.09444], [-70.21852, -22.09445], [-70.21852, -22.09446], [-70.2185, -22.09448], [-70.21848, -22.09449], [-70.21833, -22.09474], [-70.21846, -22.09484], [-70.21847, -22.09486], [-70.21849, -22.09487], [-70.2185, -22.09491], [-70.21852, -22.09494], [-70.21853, -22.09494], [-70.21855, -22.09497], [-70.21855, -22.09499], [-70.21857, -22.095], [-70.21861, -22.09503], [-70.21863, -22.09504], [-70.21864, -22.09504], [-70.21866, -22.09507], [-70.21868, -22.09507], [-70.21871, -22.0951], [-70.21874, -22.09512], [-70.21875, -22.09512], [-70.21877, -22.09513], [-70.21877, -22.09514], [-70.2188, -22.09516], [-70.21882, -22.09517], [-70.21885, -22.09519], [-70.21886, -22.0952], [-70.21888, -22.0952], [-70.2189, -22.09523], [-70.21891, -22.09526], [-70.21894, -22.09529], [-70.21896, -22.09529], [-70.21896, -22.09532], [-70.21899, -22.09533], [-70.21899, -22.09535], [-70.21901, -22.09535], [-70.21904, -22.09536], [-70.21907, -22.0954], [-70.2191, -22.09543], [-70.21913, -22.09545], [-70.21915, -22.09548], [-70.21916, -22.09549], [-70.21921, -22.09553], [-70.21923, -22.09555], [-70.21924, -22.09556], [-70.21929, -22.09559], [-70.21932, -22.09562], [-70.21932, -22.09563], [-70.21934, -22.09566], [-70.21934, -22.09568], [-70.21938, -22.09571], [-70.2194, -22.09575], [-70.21941, -22.09575], [-70.21943, -22.09578], [-70.21943, -22.09579], [-70.21945, -22.09581], [-70.21946, -22.09582], [-70.21948, -22.09585], [-70.21948, -22.09586], [-70.21949, -22.09589], [-70.21949, -22.09591], [-70.21951, -22.09592], [-70.21951, -22.09594], [-70.21951, -22.09598], [-70.21954, -22.09601], [-70.21954, -22.09602], [-70.21957, -22.09607], [-70.21957, -22.09608], [-70.2196, -22.09611], [-70.21964, -22.09617], [-70.21964, -22.09618], [-70.21964, -22.0962], [-70.21962, -22.09636], [-70.21966, -22.09637]]], [[[-70.25014, -22.47828], [-70.26855, -22.4606], [-70.25717, -22.4393], [-70.26174, -22.41305], [-70.24501, -22.38134], [-70.25782, -22.35617], [-70.24987, -22.34378], [-70.25062, -22.32436], [-70.23716, -22.30958], [-70.24764, -22.2844], [-70.23319, -22.26873], [-70.24079, -22.24885], [-70.2289, -22.23156], [-70.23229, -22.22527], [-70.22494, -22.20991], [-70.23023, -22.20168], [-70.22405, -22.18069], [-70.23201, -22.17036], [-70.22519, -22.16723], [-70.21447, -22.13359], [-70.21663, -22.09402], [-70.19841, -22.08842], [-70.18884, -22.05879], [-70.1979, -22.01358], [-70.18346, -21.99749], [-70.18202, -21.97823], [-70.18778, -21.97225], [-70.17491, -21.96438], [-70.16921, -21.93194], [-70.19022, -21.90162], [-70.15713, -21.88529], [-70.14306, -21.84873], [-70.14625, -21.81689], [-70.1406, -21.80646], [-70.15964, -21.7613], [-70.15526, -21.74764], [-70.14936, -21.74653], [-70.14438, -21.71775], [-70.1539, -21.68907], [-70.14586, -21.63682], [-70.12467, -21.63025], [-70.09427, -21.59298], [-70.09292, -21.55252], [-70.07103, -21.52857], [-70.08302, -21.48903], [-70.0615, -21.45477], [-70.05491, -21.42794], [-70.0393, -21.42456], [-70.00487, -21.43852], [-69.93914, -21.42314], [-69.91206, -21.42996], [-69.90402, -21.42544], [-69.88114, -21.43735], [-69.84086, -21.43714], [-69.83206, -21.44235], [-69.84013, -21.7064], [-69.83348, -21.74956], [-69.90409, -21.8708], [-69.85326, -21.87234], [-69.82987, -21.8967], [-69.80508, -21.90394], [-69.78104, -21.9638], [-69.74249, -22.02657], [-69.75443, -22.0825], [-69.76492, -22.09211], [-69.7603, -22.11311], [-69.74224, -22.12479], [-69.75221, -22.1847], [-69.75758, -22.19394], [-69.81175, -22.20064], [-69.81123, -22.2195], [-69.81877, -22.2274], [-69.84403, -22.22727], [-69.86478, -22.2441], [-69.9196, -22.24583], [-69.94917, -22.25589], [-69.9615, -22.27104], [-69.96882, -22.27171], [-69.97378, -22.28601], [-69.96212, -22.30204], [-69.96385, -22.31927], [-69.98281, -22.34624], [-69.96519, -22.42512], [-70.26239, -22.63131], [-70.26798, -22.60966], [-70.27831, -22.60236], [-70.28438, -22.5715], [-70.27122, -22.56133], [-70.2684, -22.5517], [-70.27541, -22.54959], [-70.25994, -22.54803], [-70.25257, -22.53913], [-70.24628, -22.51505], [-70.24961, -22.50775], [-70.23803, -22.49696], [-70.25014, -22.47828]]]]}}, {"type": "Feature", "properties": {"comuna": "Antofagasta", "provincia": "Antofagasta", "cod_comuna": 2101}, "geometry": {"type": "MultiPolygon", "coordinates": [[[[-70.56425, -24.47278], [-70.56424, -24.47277], [-70.56389, -24.4725], [-70.56364, -24.47289], [-70.56371, -24.4733], [-70.56376, -24.47371], [-70.56369, -24.47412], [-70.56379, -24.47452], [-70.56394, -24.47461], [-70.56414, -24.47439], [-70.56415, -24.47415], [-70.56406, -24.47387], [-70.5641, -24.47359], [-70.56438, -24.47358], [-70.56443, -24.47345], [-70.5645, -24.47329], [-70.5643, -24.47318], [-70.56402, -24.47319], [-70.56395, -24.47304], [-70.56425, -24.47278]]], [[[-70.52431, -24.20958], [-70.52457, -24.20966], [-70.52499, -24.20964], [-70.52527, -24.2096], [-70.52525, -24.20929], [-70.52515, -24.20903], [-70.52487, -24.20884], [-70.52457, -24.20879], [-70.52448, -24.20856], [-70.52463, -24.20835], [-70.52471, -24.20805], [-70.52456, -24.20776], [-70.52418, -24.20745], [-70.52374, -24.20719], [-70.52349, -24.20733], [-70.52334, -24.20744], [-70.52331, -24.20762], [-70.52338, -24.20787], [-70.5234, -24.20825], [-70.52343, -24.2086], [-70.52348, -24.20887], [-70.52366, -24.20915], [-70.52387, -24.20921], [-70.52407, -24.20933], [-70.52431, -24.20958]]], [[[-70.51817, -23.92796], [-70.51842, -23.92805], [-70.51881, -23.92794], [-70.51913, -23.92779], [-70.51946, -23.92774], [-70.51967, -23.92754], [-70.51986, -23.92728], [-70.52002, -23.92697], [-70.52021, -23.9267], [-70.5205, -23.92663], [-70.52054, -23.92632], [-70.52034, -23.92609], [-70.52018, -23.92584], [-70.51987, -23.92581], [-70.51954, -23.92601], [-70.51922, -23.92612], [-70.51872, -23.92625], [-70.51839, -23.92656], [-70.51806, -23.92687], [-70.51755, -23.92736], [-70.51783, -23.92761], [-70.51799, -23.92773], [-70.51817, -23.92796]]], [[[-70.60711, -23.43041], [-70.60174, -23.43854], [-70.61015, -23.44777], [-70.61697, -23.43658], [-70.60711, -23.43041]]], [[[-70.58016, -23.52171], [-70.59911, -23.50628], [-70.61573, -23.5081], [-70.61868, -23.52119], [-70.62895, -23.51566], [-70.62858, -23.5048], [-70.62043, -23.49821], [-70.62364, -23.47656], [-70.61572, -23.46234], [-70.61022, -23.47491], [-70.60523, -23.47299], [-70.60288, -23.45237], [-70.58953, -23.42782], [-70.59109, -23.41515], [-70.60704, -23.40445], [-70.59853, -23.37313], [-70.60639, -23.3593], [-70.55141, -23.36237], [-70.39926, -23.29683], [-70.18528, -23.34442], [-70.18086, -23.31645], [-70.17027, -23.31053], [-70.12858, -23.23453], [-70.13512, -23.22613], [-70.12914, -23.21567], [-70.13199, -23.20311], [-70.12009, -23.20753], [-70.10324, -23.18268], [-70.09321, -23.18951], [-70.07786, -23.17316], [-70.07113, -23.15418], [-70.05941, -23.14387], [-70.0513, -23.1148], [-70.03253, -23.09106], [-70.03159, -23.06684], [-70.01376, -23.05793], [-69.9697, -23.32938], [-70.04771, -23.6234], [-69.60047, -23.62608], [-69.43811, -23.60416], [-69.34561, -23.66053], [-69.14522, -23.6665], [-69.08095, -23.68921], [-68.87401, -23.8751], [-68.51362, -23.96664], [-68.46183, -23.98453], [-68.34559, -23.99786], [-68.11781, -24.23812], [-68.06504, -24.32642], [-68.26045, -24.40301], [-68.26782, -24.43537], [-68.29632, -24.454], [-68.31059, -24.49061], [-68.37543, -24.49248], [-68.38724, -24.48576], [-68.43278, -24.58276], [-68.43325, -24.60574], [-68.45056, -24.60253], [-68.45615, -24.61869], [-68.46775, -24.62283], [-68.47492, -24.62108], [-68.48733, -24.60009], [-68.49512, -24.59997], [-68.5017, -24.61666], [-68.49491, -24.63464], [-68.4866, -24.63904], [-68.4918, -24.66433], [-68.51546, -24.703], [-68.53324, -24.71169], [-68.54285, -24.72511], [-68.54555, -24.75417], [-68.5615, -24.76301], [-68.56809, -24.79555], [-68.53929, -24.81651], [-68.53324, -24.85584], [-68.51963, -24.87334], [-68.49262, -24.87522], [-68.4837, -24.89705], [-68.43141, -24.90603], [-68.43066, -24.91364], [-68.43902, -24.91834], [-68.42998, -24.9306], [-68.42677, -24.96135], [-68.40809, -24.97188], [-68.41606, -24.99353], [-68.41272, -25.01954], [-68.38802, -25.03788], [-68.37435, -25.03583], [-68.36435, -25.04923], [-68.37147, -25.06422], [-68.36614, -25.0808], [-68.35825, -25.08417], [-68.35463, -25.10286], [-68.34327, -25.11064], [-68.40855, -25.14451], [-68.42353, -25.13111], [-68.43331, -25.13119], [-68.43674, -25.12247], [-68.44402, -25.13368], [-68.4571, -25.12557], [-68.46496, -25.13079], [-68.47221, -25.15106], [-68.48273, -25.15394], [-68.48693, -25.16274], [-68.49875, -25.16129], [-68.50731, -25.16808], [-68.50345, -25.22098], [-68.50898, -25.23255], [-68.52718, -25.2313], [-68.54378, -25.25135], [-68.54291, -25.2607], [-68.54989, -25.26096], [-68.53009, -25.29131], [-68.55731, -25.30166], [-68.57959, -25.28599], [-68.58751, -25.29008], [-68.58924, -25.30066], [-68.59536, -25.30293], [-68.6006, -25.29331], [-68.63689, -25.31339], [-68.65741, -25.30352], [-68.67178, -25.32617], [-68.672, -25.36062], [-68.68082, -25.36148], [-68.68297, -25.36964], [-68.69902, -25.36546], [-68.72491, -25.39034], [-68.74808, -25.38082], [-68.76497, -25.39664], [-68.78276, -25.40296], [-68.79396, -25.38669], [-68.81847, -25.37931], [-68.8193, -25.37144], [-68.82571, -25.36969], [-68.847, -25.38148], [-68.91078, -25.37552], [-68.96117, -25.3904], [-68.97211, -25.37735], [-69.00621, -25.37607], [-69.03182, -25.34762], [-69.04504, -25.34118], [-69.09462, -25.34287], [-69.12245, -25.30495], [-69.17691, -25.28488], [-69.19599, -25.23786], [-69.20832, -25.22831], [-69.22302, -25.23514], [-69.21915, -25.20006], [-69.24609, -25.17469], [-69.24593, -25.16096], [-69.23061, -25.13219], [-69.20826, -25.10938], [-69.20748, -25.08383], [-69.16917, -25.0126], [-69.15717, -24.95277], [-69.1472, -24.94219], [-69.12809, -24.93617], [-69.11947, -24.92062], [-69.12549, -24.90576], [-69.11416, -24.88353], [-69.11577, -24.87345], [-69.13286, -24.84326], [-69.14139, -24.77936], [-69.14822, -24.77573], [-69.15541, -24.73019], [-69.16931, -24.71183], [-69.17368, -24.68396], [-70.40677, -24.62749], [-70.58001, -24.54876], [-70.57498, -24.52848], [-70.56476, -24.51755], [-70.57288, -24.50908], [-70.55454, -24.49541], [-70.56352, -24.47281], [-70.55428, -24.46304], [-70.55494, -24.4514], [-70.54225, -24.42539], [-70.54645, -24.3876], [-70.55705, -24.37242], [-70.5495, -24.373], [-70.54082, -24.36097], [-70.54983, -24.33374], [-70.53354, -24.31045], [-70.53457, -24.29209], [-70.52766, -24.27914], [-70.53448, -24.26984], [-70.52896, -24.25893], [-70.53505, -24.248], [-70.52108, -24.24279], [-70.52134, -24.20989], [-70.51066, -24.19922], [-70.52208, -24.18933], [-70.52046, -24.18424], [-70.50294, -24.1782], [-70.50282, -24.16363], [-70.51495, -24.15254], [-70.52151, -24.12302], [-70.50422, -24.11889], [-70.49818, -24.08041], [-70.51093, -24.06478], [-70.50869, -24.03128], [-70.51985, -24.02083], [-70.50767, -23.98515], [-70.51556, -23.97038], [-70.5076, -23.94319], [-70.51668, -23.9261], [-70.50005, -23.92048], [-70.49503, -23.90531], [-70.50486, -23.88459], [-70.51406, -23.88048], [-70.51667, -23.86604], [-70.52638, -23.86207], [-70.50392, -23.84954], [-70.50019, -23.83039], [-70.50639, -23.79809], [-70.49236, -23.79012], [-70.48534, -23.77585], [-70.47433, -23.77353], [-70.47574, -23.76554], [-70.468, -23.75778], [-70.45877, -23.75901], [-70.44647, -23.74849], [-70.43321, -23.71125], [-70.40407, -23.6642], [-70.40896, -23.6462], [-70.40444, -23.65429], [-70.40635, -23.64581], [-70.39718, -23.64236], [-70.39214, -23.61314], [-70.39785, -23.59307], [-70.39235, -23.57973], [-70.40916, -23.55685], [-70.39901, -23.54684], [-70.40203, -23.53544], [-70.4314, -23.49532], [-70.4715, -23.4709], [-70.4952, -23.46373], [-70.51337, -23.46759], [-70.51557, -23.4934], [-70.53289, -23.50758], [-70.52861, -23.51976], [-70.54348, -23.53629], [-70.55661, -23.53561], [-70.56842, -23.52609], [-70.57588, -23.52936], [-70.58016, -23.52171]]]]}}, {"type": "Feature", "properties": {"comuna": "Mejillones", "provincia": "Antofagasta", "cod_comuna": 2102}, "geometry": {"type": "MultiPolygon", "coordinates": [[[[-70.59191, -23.21609], [-70.57005, -23.20894], [-70.56072, -23.18972], [-70.57381, -23.15631], [-70.56418, -23.12936], [-70.58219, -23.10483], [-70.5732, -23.09487], [-70.57942, -23.08302], [-70.55909, -23.07362], [-70.55841, -23.0618], [-70.55021, -23.05371], [-70.5243, -23.04528], [-70.51714, -23.02508], [-70.50799, -23.02559], [-70.49812, -23.04392], [-70.50176, -23.07153], [-70.4855, -23.0975], [-70.46325, -23.10006], [-70.42246, -23.09148], [-70.38721, -23.0712], [-70.38775, -23.06552], [-70.38389, -23.06863], [-70.36323, -23.04834], [-70.33732, -23.01017], [-70.32363, -22.97134], [-70.31142, -22.96437], [-70.30353, -22.92185], [-70.29354, -22.91859], [-70.28878, -22.90919], [-70.29093, -22.88007], [-70.3161, -22.80463], [-70.30682, -22.7832], [-70.31274, -22.76425], [-70.29123, -22.74805], [-70.29395, -22.73816], [-70.28045, -22.71783], [-70.2793, -22.69404], [-70.28452, -22.68569], [-70.27846, -22.67967], [-70.28155, -22.66208], [-70.28948, -22.66046], [-70.28613, -22.64646], [-70.2686, -22.64168], [-70.26328, -22.63181], [-69.96519, -22.42512], [-69.96167, -22.45468], [-69.91823, -22.47495], [-69.91608, -22.53852], [-69.92222, -22.54049], [-69.90854, -22.56377], [-69.89373, -22.63514], [-69.92287, -22.68889], [-69.93486, -22.74251], [-69.93379, -22.77209], [-69.94686, -22.78583], [-69.9544, -22.8106], [-69.94506, -22.83435], [-69.96229, -22.84883], [-69.96878, -22.86768], [-69.96729, -22.91273], [-69.97728, -22.92522], [-69.97941, -22.95383], [-69.99178, -22.98136], [-69.9877, -22.99774], [-70.00888, -23.02036], [-70.01065, -23.05587], [-70.03159, -23.06684], [-70.03253, -23.09106], [-70.0513, -23.1148], [-70.05941, -23.14387], [-70.07113, -23.15418], [-70.07786, -23.17316], [-70.09321, -23.18951], [-70.10324, -23.18268], [-70.12009, -23.20753], [-70.13199, -23.20311], [-70.12914, -23.21567], [-70.13512, -23.22613], [-70.12858, -23.23453], [-70.17027, -23.31053], [-70.18086, -23.31645], [-70.18528, -23.34442], [-70.39926, -23.29683], [-70.55141, -23.36237], [-70.60639, -23.3593], [-70.59814, -23.35598], [-70.59565, -23.342], [-70.58232, -23.32627], [-70.60148, -23.30289], [-70.60382, -23.28953], [-70.60479, -23.2735], [-70.59604, -23.2605], [-70.60448, -23.25159], [-70.59191, -23.21609]]]]}}, {"type": "Feature", "properties": {"comuna": "Taltal", "provincia": "Antofagasta", "cod_comuna": 2104}, "geometry": {"type": "MultiPolygon", "coordinates": [[[[-70.70164, -25.89174], [-70.7013, -25.89196], [-70.70092, -25.8919], [-70.70039, -25.89194], [-70.69986, -25.89208], [-70.69984, -25.89228], [-70.69989, -25.89257], [-70.69991, -25.89289], [-70.69982, -25.8932], [-70.69997, -25.89342], [-70.7002, -25.89348], [-70.70039, -25.89329], [-70.70065, -25.89337], [-70.70069, -25.89361], [-70.70059, -25.89388], [-70.70084, -25.89391], [-70.70109, -25.89359], [-70.70134, -25.89339], [-70.70168, -25.89325], [-70.70167, -25.89299], [-70.70143, -25.89274], [-70.70151, -25.89261], [-70.70197, -25.89259], [-70.7022, -25.89268], [-70.70253, -25.89278], [-70.70292, -25.893], [-70.70316, -25.89317], [-70.70342, -25.89337], [-70.70361, -25.8936], [-70.70396, -25.89372], [-70.70444, -25.89379], [-70.70465, -25.89357], [-70.70462, -25.89316], [-70.70484, -25.89297], [-70.70493, -25.8928], [-70.70485, -25.89243], [-70.70461, -25.89237], [-70.70466, -25.8921], [-70.7046, -25.89176], [-70.70449, -25.89133], [-70.70427, -25.8911], [-70.70385, -25.89119], [-70.70323, -25.89138], [-70.70254, -25.89152], [-70.70211, -25.8916], [-70.70164, -25.89174]]], [[[-70.73937, -25.82706], [-70.73958, -25.82718], [-70.73992, -25.82713], [-70.73992, -25.82687], [-70.73983, -25.82656], [-70.73982, -25.82635], [-70.73973, -25.82596], [-70.73936, -25.82594], [-70.73933, -25.82614], [-70.73928, -25.82672], [-70.73943, -25.8269], [-70.73963, -25.82692], [-70.73937, -25.82706]]], [[[-70.51237, -25.09948], [-70.51284, -25.09952], [-70.5132, -25.09928], [-70.5132, -25.09885], [-70.51293, -25.09852], [-70.51256, -25.09823], [-70.51199, -25.09838], [-70.51157, -25.09853], [-70.51141, -25.09891], [-70.512, -25.09924], [-70.51237, -25.09948]]], [[[-70.51242, -25.0957], [-70.51306, -25.09603], [-70.51353, -25.09598], [-70.51384, -25.09564], [-70.51384, -25.09521], [-70.51341, -25.09507], [-70.51309, -25.09474], [-70.51267, -25.09455], [-70.5122, -25.09461], [-70.51199, -25.0948], [-70.51174, -25.09514], [-70.51205, -25.09547], [-70.51242, -25.0957]]], [[[-70.7232, -25.83141], [-70.73723, -25.82454], [-70.73792, -25.81652], [-70.73366, -25.81832], [-70.72351, -25.80366], [-70.73066, -25.77912], [-70.70506, -25.77411], [-70.69529, -25.76008], [-70.69927, -25.7516], [-70.68492, -25.74367], [-70.69512, -25.72302], [-70.69242, -25.68049], [-70.68485, -25.67905], [-70.68276, -25.66124], [-70.67554, -25.66463], [-70.65379, -25.64722], [-70.64522, -25.65357], [-70.63639, -25.64478], [-70.63392, -25.62445], [-70.64554, -25.61746], [-70.63831, -25.5499], [-70.64381, -25.53889], [-70.6514, -25.53804], [-70.64625, -25.52944], [-70.64023, -25.53329], [-70.63374, -25.52877], [-70.63043, -25.51758], [-70.6351, -25.51423], [-70.62965, -25.50703], [-70.5758, -25.50674], [-70.55752, -25.4875], [-70.53038, -25.48069], [-70.51819, -25.44224], [-70.52739, -25.43079], [-70.52062, -25.40945], [-70.51269, -25.40702], [-70.51714, -25.39592], [-70.49231, -25.40932], [-70.47838, -25.39905], [-70.47768, -25.38928], [-70.45431, -25.38248], [-70.44664, -25.36529], [-70.44603, -25.34135], [-70.45633, -25.29675], [-70.44928, -25.29073], [-70.45299, -25.28288], [-70.44129, -25.27204], [-70.44361, -25.26237], [-70.43442, -25.25659], [-70.43899, -25.22573], [-70.44383, -25.22574], [-70.43807, -25.21183], [-70.44336, -25.20623], [-70.43533, -25.19993], [-70.43808, -25.18995], [-70.45741, -25.16426], [-70.46385, -25.13597], [-70.48353, -25.11621], [-70.49458, -25.11116], [-70.50296, -25.11444], [-70.50795, -25.09667], [-70.48826, -25.07414], [-70.48436, -25.04438], [-70.4698, -25.02009], [-70.4666, -24.99482], [-70.48954, -24.95152], [-70.51625, -24.93366], [-70.52898, -24.91562], [-70.53127, -24.89923], [-70.52151, -24.86653], [-70.54452, -24.84269], [-70.54793, -24.77169], [-70.55782, -24.7628], [-70.56064, -24.74453], [-70.57771, -24.73224], [-70.58059, -24.72044], [-70.56493, -24.70173], [-70.57404, -24.65314], [-70.55932, -24.64433], [-70.56178, -24.62023], [-70.55024, -24.59536], [-70.57048, -24.55424], [-70.57942, -24.54938], [-70.40677, -24.62749], [-69.17368, -24.68396], [-69.16931, -24.71183], [-69.15541, -24.73019], [-69.14822, -24.77573], [-69.14139, -24.77936], [-69.13286, -24.84326], [-69.11577, -24.87345], [-69.11416, -24.88353], [-69.12549, -24.90576], [-69.11947, -24.92062], [-69.12809, -24.93617], [-69.1472, -24.94219], [-69.15717, -24.95277], [-69.16862, -25.01106], [-69.20748, -25.08383], [-69.20826, -25.10938], [-69.23061, -25.13219], [-69.24748, -25.16978], [-69.21915, -25.20006], [-69.22302, -25.23514], [-69.20832, -25.22831], [-69.19599, -25.23786], [-69.17827, -25.28384], [-69.12245, -25.30495], [-69.09462, -25.34287], [-69.04504, -25.34118], [-69.03182, -25.34762], [-69.00621, -25.37607], [-68.9886, -25.38001], [-68.98721, -25.38515], [-68.99349, -25.40901], [-69.03586, -25.44226], [-69.01687, -25.44799], [-69.00281, -25.46179], [-68.99583, -25.5055], [-69.02267, -25.50881], [-69.03004, -25.53091], [-69.05213, -25.54365], [-69.0573, -25.56959], [-69.08482, -25.58411], [-69.07053, -25.58581], [-69.06678, -25.60614], [-69.05067, -25.63482], [-69.07072, -25.6898], [-69.09472, -25.71996], [-69.05822, -25.72765], [-69.08013, -25.74442], [-69.07907, -25.75387], [-69.09722, -25.7847], [-69.09824, -25.80176], [-69.1476, -25.82015], [-69.17136, -25.81645], [-69.20187, -25.83355], [-69.21632, -25.83397], [-69.21598, -25.84122], [-69.22975, -25.83912], [-69.24222, -25.84821], [-69.24586, -25.85931], [-69.26663, -25.86663], [-69.27376, -25.85687], [-69.29631, -25.86913], [-69.34957, -25.86641], [-69.36776, -25.88009], [-69.38027, -25.88023], [-69.4269, -25.85642], [-69.43907, -25.85964], [-69.45176, -25.89394], [-69.46821, -25.89792], [-69.47674, -25.91197], [-69.50265, -25.91479], [-69.50299, -25.94872], [-69.51211, -25.95121], [-69.58281, -25.94232], [-69.67296, -25.94331], [-69.729, -25.91933], [-69.75655, -25.91736], [-69.79586, -25.92663], [-69.81936, -25.9239], [-69.83733, -25.94038], [-69.8543, -25.94527], [-69.86784, -25.92384], [-69.90843, -25.89448], [-69.95821, -25.90138], [-70.02297, -25.91988], [-70.07594, -25.96502], [-70.07835, -25.95263], [-70.11087, -25.94952], [-70.12788, -25.95507], [-70.13681, -25.94897], [-70.14844, -25.95215], [-70.16597, -25.9399], [-70.19965, -25.94178], [-70.22472, -25.92043], [-70.24047, -25.91607], [-70.23945, -25.92189], [-70.25279, -25.9318], [-70.26478, -25.93078], [-70.2734, -25.90854], [-70.30103, -25.89617], [-70.31508, -25.90461], [-70.313, -25.91089], [-70.32433, -25.9311], [-70.33237, -25.92308], [-70.34184, -25.93326], [-70.39319, -25.92879], [-70.39278, -25.93876], [-70.4069, -25.9394], [-70.42014, -25.95336], [-70.43575, -25.95263], [-70.47625, -25.97143], [-70.48321, -25.9679], [-70.52606, -26.00961], [-70.57592, -26.00196], [-70.59198, -26.00719], [-70.60516, -26.00413], [-70.61335, -26.02982], [-70.60747, -26.04513], [-70.61916, -26.061], [-70.65855, -26.06154], [-70.6353, -26.05111], [-70.62787, -25.99472], [-70.64001, -25.97712], [-70.64734, -25.95029], [-70.69341, -25.90407], [-70.69191, -25.88877], [-70.70401, -25.87422], [-70.70288, -25.859], [-70.71168, -25.83875], [-70.7232, -25.83141]]]]}}, {"type": "Feature", "properties": {"comuna": "Sierra Gorda", "provincia": "Antofagasta", "cod_comuna": 2103}, "geometry": {"type": "MultiPolygon", "coordinates": [[[[-69.99085, -23.00433], [-69.99178, -22.98136], [-69.97941, -22.95383], [-69.97728, -22.92522], [-69.96729, -22.91273], [-69.96947, -22.87089], [-69.76979, -22.86943], [-69.53614, -22.88021], [-69.19076, -22.57634], [-69.19401, -22.59667], [-69.18798, -22.61688], [-69.15089, -22.66307], [-68.98644, -22.74506], [-68.86847, -22.90515], [-68.86495, -22.92723], [-68.82938, -22.95166], [-68.81257, -22.97121], [-68.8018, -22.99919], [-68.81533, -23.00829], [-68.83267, -23.03821], [-68.82526, -23.04566], [-68.82644, -23.06088], [-68.83572, -23.08531], [-68.84366, -23.08734], [-68.84498, -23.10491], [-68.82394, -23.12149], [-68.77005, -23.14123], [-68.76285, -23.13979], [-68.75485, -23.12485], [-68.74404, -23.12603], [-68.73777, -23.11379], [-68.6779, -23.10034], [-68.65674, -23.11279], [-68.65687, -23.12632], [-68.61977, -23.17304], [-68.62103, -23.18399], [-68.64868, -23.21712], [-68.64674, -23.23609], [-68.67916, -23.27091], [-68.69102, -23.31237], [-68.68981, -23.33251], [-68.70028, -23.34749], [-68.70374, -23.37093], [-68.7178, -23.38703], [-68.70299, -23.41893], [-68.70655, -23.44268], [-68.69886, -23.45537], [-68.7029, -23.46962], [-68.697, -23.49182], [-68.70253, -23.50754], [-68.69382, -23.53139], [-68.70535, -23.53875], [-68.70867, -23.56731], [-68.68545, -23.59829], [-68.68694, -23.64057], [-68.6741, -23.65594], [-68.67796, -23.68179], [-68.66517, -23.69871], [-68.68984, -23.79353], [-68.69327, -23.84702], [-68.68433, -23.86187], [-68.69855, -23.92313], [-68.87401, -23.8751], [-69.08095, -23.68921], [-69.14522, -23.6665], [-69.34561, -23.66053], [-69.43811, -23.60416], [-69.60047, -23.62608], [-70.04771, -23.6234], [-69.9697, -23.32938], [-70.01376, -23.05793], [-70.00785, -23.04839], [-70.00888, -23.02036], [-69.99085, -23.00433]]]]}}, {"type": "Feature", "properties": {"comuna": "San Pedro de Atacama", "provincia": "El Loa", "cod_comuna": 2203}, "geometry": {"type": "MultiPolygon", "coordinates": [[[[-68.06504, -24.32642], [-68.11781, -24.23812], [-68.34559, -23.99786], [-68.46183, -23.98453], [-68.51362, -23.96664], [-68.69855, -23.92313], [-68.68433, -23.86187], [-68.69327, -23.84702], [-68.68984, -23.79353], [-68.66517, -23.69871], [-68.67796, -23.68179], [-68.6741, -23.65594], [-68.68694, -23.64057], [-68.68545, -23.59829], [-68.70867, -23.56731], [-68.70535, -23.53875], [-68.69382, -23.53139], [-68.70253, -23.50754], [-68.697, -23.49182], [-68.7029, -23.46962], [-68.69886, -23.45537], [-68.70655, -23.44268], [-68.70299, -23.41893], [-68.7178, -23.38703], [-68.70374, -23.37093], [-68.70028, -23.34749], [-68.68981, -23.33251], [-68.69102, -23.31237], [-68.67916, -23.27091], [-68.64674, -23.23609], [-68.64585, -23.21069], [-68.63096, -23.19811], [-68.61917, -23.1755], [-68.65687, -23.12632], [-68.66141, -23.10642], [-68.65176, -23.10309], [-68.63841, -23.08386], [-68.61771, -23.08033], [-68.58462, -23.08834], [-68.53925, -23.08134], [-68.54467, -23.06431], [-68.53239, -23.05243], [-68.52633, -23.02255], [-68.53755, -23.00694], [-68.52057, -22.89985], [-68.4981, -22.85936], [-68.48403, -22.8491], [-68.46662, -22.85564], [-68.45986, -22.7895], [-68.43805, -22.75325], [-68.40584, -22.74922], [-68.40573, -22.74086], [-68.38718, -22.72536], [-68.36011, -22.6646], [-68.33403, -22.65352], [-68.30955, -22.63241], [-68.30532, -22.61987], [-68.291, -22.61578], [-68.28014, -22.60185], [-68.26389, -22.59995], [-68.26062, -22.5456], [-68.25196, -22.53917], [-68.25621, -22.53279], [-68.24408, -22.51896], [-68.24357, -22.50795], [-68.22929, -22.50416], [-68.19784, -22.45685], [-68.15403, -22.43765], [-68.15262, -22.40248], [-68.12364, -22.40248], [-68.07642, -22.4326], [-68.06554, -22.42028], [-68.02772, -22.41829], [-68.01422, -22.43263], [-67.99805, -22.41702], [-67.97047, -22.41055], [-67.96824, -22.39599], [-67.94149, -22.38058], [-67.90005, -22.4071], [-67.90478, -22.41937], [-67.89814, -22.42042], [-67.89752, -22.43451], [-67.8839, -22.4418], [-67.89248, -22.44738], [-67.8929, -22.49911], [-67.86816, -22.5326], [-67.84096, -22.53307], [-67.85289, -22.55754], [-67.84355, -22.56136], [-67.84409, -22.57474], [-67.832, -22.58129], [-67.84356, -22.59383], [-67.86298, -22.59962], [-67.86353, -22.60801], [-67.85409, -22.61568], [-67.85716, -22.62229], [-67.88338, -22.62804], [-67.87514, -22.63943], [-67.87647, -22.66539], [-67.86801, -22.67947], [-67.87085, -22.69344], [-67.88785, -22.70549], [-67.88969, -22.71819], [-67.86758, -22.74385], [-67.87706, -22.75516], [-67.87299, -22.76841], [-67.88182, -22.83407], [-67.86392, -22.83501], [-67.84222, -22.84816], [-67.82609, -22.84528], [-67.8298, -22.85624], [-67.79906, -22.88118], [-67.56851, -22.89804], [-67.1803, -22.81417], [-66.99018, -22.99996], [-67.32262, -24.03416], [-68.06504, -24.32642]]]]}}, {"type": "Feature", "properties": {"comuna": "Ollagüe", "provincia": "El Loa", "cod_comuna": 2202}, "geometry": {"type": "MultiPolygon", "coordinates": [[[[-68.52225, -21.03535], [-68.48082, -20.94128], [-68.47453, -20.94634], [-68.42782, -20.94611], [-68.41249, -20.93454], [-68.29482, -21.09764], [-68.17911, -21.30193], [-68.18065, -21.60401], [-68.11782, -21.67829], [-68.0929, -21.73852], [-68.06057, -21.77003], [-68.07111, -21.98212], [-68.19283, -21.90586], [-68.34025, -21.88926], [-68.31959, -21.7803], [-68.31163, -21.6926], [-68.39535, -21.65314], [-68.52191, -21.54637], [-68.50291, -21.39165], [-68.5146, -21.27826], [-68.4679, -21.22074], [-68.53552, -21.06416], [-68.52225, -21.03535]]]]}}]}