{"type": "FeatureCollection", "features": [{"type": "Feature", "properties": {"clase": "costa"}, "geometry": {"type": "LineString", "coordinates": [[-70.38416, -23.06886], [-70.3875, -23.06558], [-70.38787, -23.06589], [-70.3862, -23.06762], [-70.38667, -23.0683], [-70.38703, -23.07131], [-70.39141, -23.07403], [-70.39799, -23.07856], [-70.40628, -23.08351], [-70.41167, -23.0864], [-70.41242, -23.08668], [-70.41274, -23.087], [-70.41474, -23.08788], [-70.4155, -23.08809], [-70.41601, -23.08863], [-70.41686, -23.08899], [-70.41737, -23.08888], [-70.41781, -23.08908], [-70.4182, -23.0896], [-70.41935, -23.09019], [-70.42253, -23.09147], [-70.42566, -23.09258], [-70.43814, -23.09597], [-70.44591, -23.09776], [-70.45271, -23.09859], [-70.46125, -23.09996], [-70.46377, -23.10015], [-70.46829, -23.10003], [-70.47282, -23.09974], [-70.47593, -23.09935], [-70.48421, -23.09801], [-70.48553, -23.09744], [-70.48576, -23.09713], [-70.48576, -23.09627], [-70.4859, -23.09578], [-70.48629, -23.09516], [-70.48624, -23.09355], [-70.48641, -23.09244], [-70.48631, -23.09232], [-70.48649, -23.09187], [-70.48645, -23.0913], [-70.48682, -23.09104], [-70.48702, -23.09054], [-70.48845, -23.08932], [-70.48888, -23.08826], [-70.48946, -23.08756], [-70.49091, -23.08627], [-70.49249, -23.08521], [-70.49289, -23.08478], [-70.49309, -23.08431], [-70.49458, -23.08263], [-70.49544, -23.08139], [-70.4958, -23.08043], [-70.49775, -23.07826], [-70.49847, -23.0772], [-70.49862, -23.07661], [-70.49932, -23.0759], [-70.49969, -23.07526], [-70.49963, -23.07491], [-70.50125, -23.07255], [-70.50121, -23.07224], [-70.50138, -23.07221]]}}], "_meta": {"ciudad": "Mejillones", "fuente": "OpenStreetMap (ODbL) — extracción puntual Overpass"}}