{"type": "FeatureCollection", "features": [{"type": "Feature", "properties": {"clase": "costa"}, "geometry": {"type": "LineString", "coordinates": [[-70.18967, -22.05438], [-70.18901, -22.05702], [-70.18885, -22.0584], [-70.18893, -22.05896], [-70.19, -22.0608], [-70.1905, -22.06143], [-70.19064, -22.06159], [-70.19126, -22.06175], [-70.1913, -22.06205], [-70.1916, -22.06224], [-70.19121, -22.06245], [-70.19122, -22.06258], [-70.19165, -22.0628], [-70.19153, -22.06327], [-70.19197, -22.06363], [-70.19278, -22.06377], [-70.1926, -22.06411], [-70.19351, -22.06452], [-70.19365, -22.06475], [-70.19318, -22.06467], [-70.193, -22.06482], [-70.19281, -22.06546], [-70.19325, -22.06685], [-70.19443, -22.06727], [-70.19445, -22.06762], [-70.19547, -22.06816], [-70.19474, -22.06823], [-70.19459, -22.06848], [-70.1947, -22.07017], [-70.19506, -22.07223], [-70.19555, -22.07245], [-70.19518, -22.07266], [-70.19524, -22.07292], [-70.19502, -22.07301], [-70.19474, -22.07416], [-70.19489, -22.07498], [-70.19493, -22.07754], [-70.19506, -22.07786], [-70.19511, -22.07881], [-70.19548, -22.07932], [-70.19531, -22.08019], [-70.19569, -22.08096], [-70.19584, -22.08236], [-70.19649, -22.08302], [-70.19716, -22.08305], [-70.19732, -22.08316], [-70.19701, -22.08346], [-70.19694, -22.08373], [-70.19722, -22.08413], [-70.19724, -22.08434], [-70.19709, -22.08448], [-70.19736, -22.08538], [-70.19751, -22.08547], [-70.19757, -22.08623], [-70.19799, -22.08694], [-70.19848, -22.08699], [-70.19865, -22.08716], [-70.19854, -22.08725], [-70.19808, -22.08715], [-70.19801, -22.08745], [-70.19815, -22.08783], [-70.19868, -22.08824], [-70.19933, -22.08818], [-70.19946, -22.08784], [-70.19922, -22.08732], [-70.19942, -22.08731], [-70.19964, -22.08759], [-70.19964, -22.0881], [-70.19925, -22.08899], [-70.19975, -22.08972], [-70.19998, -22.08998], [-70.20081, -22.09034], [-70.20143, -22.09029], [-70.20196, -22.09063], [-70.20185, -22.09089], [-70.20209, -22.09123], [-70.2026, -22.09163], [-70.2029, -22.09171], [-70.20344, -22.09254], [-70.20391, -22.09278], [-70.20448, -22.09239], [-70.2053, -22.09266], [-70.20583, -22.09262], [-70.20617, -22.09284], [-70.20683, -22.09365], [-70.2076, -22.09378], [-70.20891, -22.09358], [-70.20944, -22.09289], [-70.20966, -22.09282], [-70.20987, -22.09312], [-70.20954, -22.09338], [-70.20965, -22.09392], [-70.21043, -22.09457], [-70.21101, -22.09465], [-70.21121, -22.09448], [-70.21175, -22.09487], [-70.21203, -22.09477], [-70.21203, -22.09453], [-70.21235, -22.09461], [-70.21231, -22.09438], [-70.21251, -22.09426], [-70.21236, -22.094], [-70.21243, -22.0939], [-70.21267, -22.09415], [-70.21351, -22.09429], [-70.21464, -22.09379], [-70.21569, -22.0936], [-70.2166, -22.09407], [-70.2168, -22.09463], [-70.21688, -22.09591], [-70.21678, -22.09629], [-70.21564, -22.09801], [-70.21518, -22.09831], [-70.21496, -22.09834], [-70.21472, -22.09819], [-70.21447, -22.09849], [-70.21383, -22.09864], [-70.21353, -22.09905], [-70.21366, -22.09957], [-70.21456, -22.10007], [-70.21478, -22.10047], [-70.21513, -22.10072], [-70.2156, -22.10156], [-70.21561, -22.10196], [-70.21533, -22.10263], [-70.21542, -22.10298], [-70.21584, -22.10319], [-70.21589, -22.1035], [-70.21626, -22.10391], [-70.21716, -22.10433], [-70.2172, -22.10445], [-70.21704, -22.10454], [-70.21709, -22.10488], [-70.21729, -22.10487], [-70.21745, -22.1052], [-70.21701, -22.10596], [-70.21762, -22.10666], [-70.21745, -22.10676], [-70.21731, -22.1066], [-70.21683, -22.10658], [-70.21697, -22.10689], [-70.21661, -22.10722], [-70.21658, -22.10767], [-70.21625, -22.10765], [-70.21616, -22.10788], [-70.21582, -22.10796], [-70.21568, -22.10836], [-70.2149, -22.10843], [-70.21479, -22.10858], [-70.21491, -22.10884], [-70.21523, -22.10892], [-70.21539, -22.10913], [-70.21535, -22.10938], [-70.21471, -22.10954], [-70.21447, -22.10996], [-70.21402, -22.11018], [-70.214, -22.11061], [-70.21373, -22.11074], [-70.21367, -22.11105], [-70.21442, -22.11153], [-70.21431, -22.11165], [-70.21377, -22.11129], [-70.21346, -22.11172], [-70.21349, -22.1123], [-70.21366, -22.11243], [-70.2139, -22.11224], [-70.21418, -22.11228], [-70.21375, -22.11274], [-70.21383, -22.11306], [-70.21466, -22.11382], [-70.21484, -22.11501], [-70.21594, -22.11746], [-70.21574, -22.11837], [-70.2159, -22.11859], [-70.21614, -22.11966], [-70.21603, -22.11983], [-70.21609, -22.12027], [-70.21651, -22.12083], [-70.2166, -22.12154], [-70.21646, -22.12169], [-70.21662, -22.12197], [-70.21625, -22.12238], [-70.21689, -22.12272], [-70.21652, -22.12281], [-70.21671, -22.12348], [-70.21649, -22.12392], [-70.21651, -22.1243], [-70.21745, -22.12516], [-70.21744, -22.12544], [-70.21757, -22.12556], [-70.21803, -22.12542], [-70.21812, -22.12571], [-70.2179, -22.12627], [-70.21719, -22.12645], [-70.21724, -22.12684], [-70.21706, -22.12702], [-70.21704, -22.12741], [-70.21717, -22.12765], [-70.21668, -22.12757], [-70.2165, -22.12811], [-70.2162, -22.1285], [-70.21619, -22.12877], [-70.21575, -22.12897], [-70.21574, -22.12921], [-70.21612, -22.12971], [-70.21597, -22.1301], [-70.21554, -22.12985], [-70.21541, -22.12957], [-70.21525, -22.13005], [-70.21508, -22.12968], [-70.21513, -22.13017], [-70.215, -22.13019], [-70.21495, -22.12991], [-70.21458, -22.13008], [-70.21432, -22.13039], [-70.21427, -22.13067], [-70.21442, -22.13186], [-70.21463, -22.1324], [-70.21501, -22.13268], [-70.21479, -22.13347], [-70.21515, -22.1348], [-70.21567, -22.13566], [-70.21618, -22.13595], [-70.21629, -22.13641], [-70.21656, -22.13665], [-70.21644, -22.13709], [-70.21685, -22.13744]]}}, {"type": "Feature", "properties": {"clase": "costa"}, "geometry": {"type": "LineString", "coordinates": [[-70.21886, -22.09506], [-70.21871, -22.09498], [-70.21856, -22.0946], [-70.21875, -22.09452], [-70.21877, -22.09436], [-70.21961, -22.09441], [-70.21945, -22.09491], [-70.21886, -22.09506]]}}, {"type": "Feature", "properties": {"clase": "costa"}, "geometry": {"type": "LineString", "coordinates": [[-70.19645, -22.07185], [-70.19677, -22.0718], [-70.19708, -22.07198], [-70.19695, -22.07207], [-70.19573, -22.07206], [-70.19645, -22.07185]]}}, {"type": "Feature", "properties": {"clase": "costa"}, "geometry": {"type": "LineString", "coordinates": [[-70.19546, -22.06765], [-70.19579, -22.06779], [-70.19539, -22.06792], [-70.1952, -22.06766], [-70.19546, -22.06765]]}}, {"type": "Feature", "properties": {"clase": "costa"}, "geometry": {"type": "LineString", "coordinates": [[-70.19404, -22.0642], [-70.19421, -22.06447], [-70.19375, -22.06437], [-70.19383, -22.06423], [-70.19404, -22.0642]]}}, {"type": "Feature", "properties": {"clase": "costa"}, "geometry": {"type": "LineString", "coordinates": [[-70.19455, -22.0641], [-70.19474, -22.06404], [-70.19487, -22.06422], [-70.19468, -22.06437], [-70.19444, -22.0642], [-70.19455, -22.0641]]}}], "_meta": {"ciudad": "Tocopilla", "fuente": "OpenStreetMap (ODbL) — extracción puntual Overpass"}}