{"type": "FeatureCollection", "features": [{"type": "Feature", "properties": {"clase": "rio"}, "geometry": {"type": "LineString", "coordinates": [[-68.95469, -22.45556], [-68.95536, -22.45569], [-68.95596, -22.45533], [-68.95658, -22.45536], [-68.9573, -22.45516], [-68.95998, -22.45387], [-68.96216, -22.45216], [-68.96349, -22.45187], [-68.96543, -22.45113], [-68.96597, -22.45111], [-68.96635, -22.45085], [-68.96701, -22.44972], [-68.96782, -22.44937], [-68.96867, -22.44924], [-68.97032, -22.44859], [-68.97186, -22.44764], [-68.97344, -22.44608], [-68.97378, -22.44532], [-68.97405, -22.4452], [-68.97437, -22.44516], [-68.97457, -22.44528], [-68.97504, -22.44609], [-68.97592, -22.44642], [-68.97632, -22.44683], [-68.97658, -22.44743], [-68.97692, -22.44766], [-68.9776, -22.44766], [-68.97851, -22.44669]]}}, {"type": "Feature", "properties": {"clase": "rio"}, "geometry": {"type": "LineString", "coordinates": [[-68.97851, -22.44669], [-68.979, -22.44675], [-68.97915, -22.44689], [-68.9792, -22.44733], [-68.97961, -22.44763], [-68.98172, -22.44813], [-68.98296, -22.4488], [-68.9839, -22.44885], [-68.98452, -22.4491], [-68.98508, -22.44959], [-68.98523, -22.4506], [-68.98675, -22.45173], [-68.98674, -22.45202], [-68.98649, -22.45204], [-68.98643, -22.45226], [-68.98676, -22.45262], [-68.98732, -22.45275], [-68.98758, -22.45258], [-68.98914, -22.45299], [-68.99045, -22.45364], [-68.99102, -22.45426], [-68.99174, -22.45597], [-68.99232, -22.45647], [-68.9946, -22.4577], [-68.99593, -22.45862], [-68.9967, -22.45952], [-68.99771, -22.45998], [-68.99896, -22.46101], [-68.99992, -22.4614], [-69.00123, -22.46253], [-69.0018, -22.46265], [-69.00245, -22.46257], [-69.00299, -22.46277], [-69.00405, -22.46283], [-69.00505, -22.46305], [-69.0056, -22.46357], [-69.00646, -22.46503], [-69.00684, -22.46522], [-69.00768, -22.46515], [-69.00957, -22.46588], [-69.01218, -22.46658], [-69.01313, -22.46712], [-69.01373, -22.46818], [-69.01795, -22.47059], [-69.0184, -22.47078], [-69.02049, -22.47091], [-69.02112, -22.47119], [-69.02167, -22.47215], [-69.02214, -22.47232], [-69.02308, -22.47234], [-69.02437, -22.47311], [-69.02502, -22.47406], [-69.02536, -22.47415], [-69.02613, -22.47407], [-69.02633, -22.47421], [-69.02689, -22.4749], [-69.02674, -22.47558], [-69.02719, -22.47682], [-69.02693, -22.47758], [-69.02653, -22.47808], [-69.02655, -22.4783], [-69.02703, -22.47883], [-69.02713, -22.4793], [-69.02782, -22.48034], [-69.02797, -22.48103], [-69.02837, -22.4817], [-69.02835, -22.48233], [-69.0285, -22.48258], [-69.02891, -22.4828], [-69.02925, -22.48276], [-69.02992, -22.48389], [-69.0304, -22.48429], [-69.03187, -22.48499], [-69.03239, -22.48495], [-69.03306, -22.48513], [-69.03355, -22.48544], [-69.03381, -22.48547], [-69.03454, -22.48619], [-69.03506, -22.48626], [-69.03525, -22.48649], [-69.03546, -22.48727], [-69.0364, -22.48785], [-69.0369, -22.48867], [-69.03719, -22.48955], [-69.03879, -22.49022], [-69.03951, -22.4913], [-69.04005, -22.49159], [-69.04037, -22.49161], [-69.04125, -22.49124], [-69.04234, -22.4916], [-69.04422, -22.49115], [-69.04504, -22.49013], [-69.0455, -22.48995], [-69.0485, -22.48971], [-69.04954, -22.48932], [-69.05211, -22.48931], [-69.05397, -22.48909], [-69.05492, -22.48842], [-69.05715, -22.48822], [-69.06064, -22.48741], [-69.06144, -22.4863], [-69.06166, -22.48551], [-69.06254, -22.48477], [-69.06303, -22.48375], [-69.06353, -22.48317], [-69.06495, -22.48203], [-69.06606, -22.48146], [-69.06813, -22.48069], [-69.06904, -22.48018], [-69.07051, -22.47965], [-69.07106, -22.47962], [-69.07158, -22.47943], [-69.07201, -22.47854], [-69.07231, -22.47747], [-69.07282, -22.47681], [-69.0744, -22.47703], [-69.07491, -22.4766], [-69.07581, -22.47624], [-69.07674, -22.47517], [-69.07852, -22.47389], [-69.07874, -22.47359], [-69.07883, -22.47305], [-69.07871, -22.47166], [-69.08107, -22.47132], [-69.08124, -22.47096], [-69.082, -22.47057], [-69.0829, -22.47065], [-69.08498, -22.47177], [-69.0861, -22.47168], [-69.08697, -22.47137], [-69.08709, -22.47086], [-69.08812, -22.46976], [-69.08892, -22.46916], [-69.09015, -22.46875], [-69.09125, -22.46858], [-69.09218, -22.46878], [-69.0927, -22.46961], [-69.09305, -22.47051], [-69.09295, -22.47128], [-69.09315, -22.47171], [-69.09405, -22.47148], [-69.09514, -22.47159], [-69.09572, -22.47198], [-69.09626, -22.472], [-69.097, -22.47151], [-69.098, -22.47164], [-69.09904, -22.47142], [-69.10005, -22.47068], [-69.10139, -22.47025], [-69.10514, -22.47077], [-69.10608, -22.47014], [-69.10687, -22.46941], [-69.10847, -22.46864], [-69.11099, -22.4678], [-69.11174, -22.46816], [-69.11629, -22.46889], [-69.11823, -22.46883], [-69.11991, -22.46849], [-69.12089, -22.46808], [-69.1218, -22.4681], [-69.12285, -22.46846], [-69.12375, -22.46962], [-69.12465, -22.46997], [-69.12619, -22.46987], [-69.12812, -22.46902], [-69.1293, -22.4688], [-69.13067, -22.46951], [-69.13259, -22.47099], [-69.13371, -22.47118], [-69.13448, -22.47106], [-69.13521, -22.47058], [-69.13613, -22.47024], [-69.13674, -22.47067], [-69.13831, -22.47285], [-69.13887, -22.47275], [-69.13963, -22.47237], [-69.14072, -22.47263], [-69.14188, -22.47415], [-69.14253, -22.47418], [-69.14453, -22.47387], [-69.1453, -22.47423], [-69.14602, -22.47504], [-69.14696, -22.4758], [-69.14978, -22.47509], [-69.15242, -22.47506], [-69.15424, -22.47639], [-69.15518, -22.47503], [-69.15615, -22.4748], [-69.15825, -22.47528], [-69.16054, -22.47387], [-69.16345, -22.47447], [-69.16435, -22.47379], [-69.16543, -22.47252], [-69.16811, -22.47158], [-69.16864, -22.47032], [-69.16932, -22.46769], [-69.17073, -22.46604], [-69.1715, -22.46639], [-69.1736, -22.46811], [-69.17493, -22.46873], [-69.17544, -22.46621], [-69.1767, -22.46623], [-69.17845, -22.467], [-69.17932, -22.46701], [-69.18112, -22.46543], [-69.18251, -22.46636], [-69.18279, -22.46668], [-69.18357, -22.46664], [-69.18445, -22.46569], [-69.18516, -22.46553], [-69.18569, -22.46653], [-69.18596, -22.46766], [-69.187, -22.46757], [-69.18804, -22.46701], [-69.18899, -22.46568], [-69.19038, -22.46612], [-69.19077, -22.46702], [-69.19026, -22.468], [-69.19092, -22.46849], [-69.19177, -22.46818], [-69.19228, -22.46736], [-69.19351, -22.46748], [-69.19431, -22.46849], [-69.19539, -22.47083], [-69.1972, -22.4725], [-69.19692, -22.47461], [-69.19864, -22.47585], [-69.19939, -22.47665], [-69.19988, -22.47653], [-69.20069, -22.47493], [-69.20246, -22.47414], [-69.20314, -22.47364], [-69.20412, -22.47355], [-69.20513, -22.47303], [-69.20616, -22.47276], [-69.20692, -22.47292], [-69.20753, -22.47287], [-69.20802, -22.47246], [-69.2084, -22.47157], [-69.20948, -22.47015], [-69.2121, -22.46857], [-69.21237, -22.46814], [-69.21285, -22.46777], [-69.21365, -22.46748], [-69.21439, -22.46749], [-69.21703, -22.46686], [-69.2176, -22.46645], [-69.21777, -22.46561], [-69.21808, -22.46516], [-69.21879, -22.46489], [-69.21948, -22.46429], [-69.22009, -22.46399], [-69.22095, -22.46383], [-69.22214, -22.46396], [-69.22344, -22.46391], [-69.22467, -22.46371], [-69.22549, -22.46342], [-69.22612, -22.46357], [-69.22691, -22.46506], [-69.22729, -22.46528], [-69.22886, -22.46492], [-69.22943, -22.4653], [-69.23058, -22.46567], [-69.23109, -22.4664], [-69.23153, -22.46803], [-69.23253, -22.46913], [-69.23402, -22.46948], [-69.23737, -22.46926], [-69.23903, -22.46984], [-69.24104, -22.47161], [-69.24253, -22.47198], [-69.24322, -22.47174], [-69.2438, -22.47064], [-69.24457, -22.4699], [-69.24628, -22.46999], [-69.24801, -22.46981], [-69.24928, -22.46937], [-69.25019, -22.46936], [-69.25243, -22.47103], [-69.25343, -22.47123], [-69.25474, -22.47083], [-69.25604, -22.47078], [-69.25727, -22.47105], [-69.25825, -22.4711], [-69.25875, -22.47045], [-69.25996, -22.4702], [-69.26198, -22.47038], [-69.26306, -22.47005], [-69.26399, -22.46945], [-69.26453, -22.46887], [-69.26527, -22.4686], [-69.26655, -22.46946], [-69.26781, -22.46933], [-69.26984, -22.46872], [-69.27152, -22.46879], [-69.27249, -22.46821], [-69.27339, -22.46733], [-69.27494, -22.46674], [-69.27614, -22.46678], [-69.27715, -22.46649], [-69.27848, -22.46551], [-69.27989, -22.465], [-69.28193, -22.46465], [-69.28446, -22.46228], [-69.28636, -22.46148], [-69.2894, -22.46119], [-69.29143, -22.4603], [-69.29409, -22.45758], [-69.2961, -22.45637], [-69.30223, -22.45389], [-69.30309, -22.45339], [-69.3039, -22.45316], [-69.30459, -22.45322], [-69.30637, -22.45281], [-69.30666, -22.4524], [-69.30755, -22.4523], [-69.30848, -22.452], [-69.30911, -22.45217], [-69.31009, -22.45361], [-69.31078, -22.45384], [-69.31146, -22.45368], [-69.31228, -22.45303], [-69.31314, -22.45283], [-69.31445, -22.45425], [-69.315, -22.45468], [-69.31552, -22.4546], [-69.31646, -22.45414], [-69.31716, -22.45408], [-69.32037, -22.45507], [-69.32133, -22.45484], [-69.32212, -22.45433], [-69.32268, -22.45438], [-69.32333, -22.45596], [-69.32519, -22.4566], [-69.32582, -22.45652], [-69.32618, -22.45588], [-69.32662, -22.45569], [-69.32711, -22.45715], [-69.32777, -22.45774], [-69.32996, -22.45778], [-69.33075, -22.45759], [-69.33149, -22.45787], [-69.33202, -22.45864], [-69.3325, -22.45882], [-69.3339, -22.45747], [-69.33501, -22.45737], [-69.33558, -22.45777], [-69.33653, -22.45794], [-69.33779, -22.45778], [-69.33855, -22.45803], [-69.3395, -22.4587], [-69.34014, -22.45868], [-69.34051, -22.45834], [-69.3408, -22.45767], [-69.34103, -22.45678], [-69.34093, -22.456], [-69.34118, -22.45555], [-69.34201, -22.45534], [-69.34411, -22.45395], [-69.34518, -22.45352], [-69.34772, -22.45353], [-69.34961, -22.45286], [-69.35025, -22.45226], [-69.35087, -22.45206], [-69.35183, -22.45226], [-69.35257, -22.45187], [-69.35317, -22.45057], [-69.35358, -22.45036], [-69.35476, -22.45097], [-69.35779, -22.45123], [-69.35874, -22.45095], [-69.36062, -22.44964], [-69.36176, -22.44932], [-69.36442, -22.44796], [-69.36513, -22.4472], [-69.36627, -22.44529], [-69.36659, -22.44412], [-69.36981, -22.44142], [-69.37092, -22.44085], [-69.37372, -22.44098], [-69.37474, -22.44066], [-69.37719, -22.43762], [-69.37915, -22.43662], [-69.38032, -22.43473], [-69.38102, -22.43439], [-69.38217, -22.43458], [-69.38281, -22.43426], [-69.38362, -22.43144], [-69.38442, -22.43109], [-69.38683, -22.43114], [-69.38862, -22.43207], [-69.39, -22.43218], [-69.3906, -22.43091], [-69.39121, -22.4306], [-69.39269, -22.43116], [-69.39523, -22.43043], [-69.39657, -22.42913], [-69.39769, -22.42686], [-69.39926, -22.42563], [-69.40145, -22.42456], [-69.40254, -22.42368], [-69.40308, -22.42342], [-69.40707, -22.42382], [-69.40771, -22.42345], [-69.40835, -22.42003], [-69.40999, -22.41933], [-69.41349, -22.419], [-69.41586, -22.41847], [-69.41854, -22.41697], [-69.41965, -22.41556], [-69.42079, -22.41503], [-69.42405, -22.41445], [-69.42817, -22.41157], [-69.43165, -22.41229], [-69.43288, -22.41137], [-69.43311, -22.41081], [-69.43292, -22.41018], [-69.43318, -22.40966], [-69.43382, -22.40946], [-69.43546, -22.4103], [-69.43591, -22.41036], [-69.4376, -22.40909], [-69.43888, -22.40754], [-69.44117, -22.40872], [-69.44472, -22.40839], [-69.44491, -22.40809], [-69.44546, -22.40806], [-69.4464, -22.40868], [-69.44692, -22.40872], [-69.44794, -22.40802], [-69.44812, -22.40763], [-69.44782, -22.40706], [-69.44777, -22.40646], [-69.44798, -22.40573], [-69.4486, -22.40543], [-69.45056, -22.40539], [-69.45197, -22.40607], [-69.45308, -22.40615], [-69.45338, -22.4058], [-69.45475, -22.40562], [-69.45556, -22.40608], [-69.4567, -22.40559], [-69.45803, -22.40452], [-69.45866, -22.40445], [-69.45915, -22.40377], [-69.45964, -22.40342], [-69.46099, -22.40361], [-69.46156, -22.4041], [-69.4624, -22.40427], [-69.46358, -22.40398], [-69.46604, -22.40367], [-69.46675, -22.40437], [-69.46682, -22.40482], [-69.46731, -22.40559], [-69.46828, -22.40585], [-69.46935, -22.40557], [-69.47015, -22.40493], [-69.47131, -22.40363], [-69.47235, -22.40335], [-69.47338, -22.40366], [-69.47415, -22.40336], [-69.47476, -22.40271], [-69.47554, -22.4025], [-69.4766, -22.40184], [-69.47831, -22.40169], [-69.47983, -22.40196], [-69.48079, -22.40186], [-69.48178, -22.40157], [-69.48198, -22.40198], [-69.48311, -22.40286], [-69.48497, -22.4034], [-69.48572, -22.40304], [-69.4861, -22.4023], [-69.48709, -22.40156], [-69.48809, -22.40136], [-69.48953, -22.40179], [-69.49163, -22.40166], [-69.49246, -22.40208], [-69.49415, -22.40576], [-69.49578, -22.40612], [-69.49825, -22.40802], [-69.49904, -22.40778], [-69.50012, -22.40798], [-69.50064, -22.40943], [-69.50126, -22.40925], [-69.50218, -22.40791], [-69.50381, -22.40692], [-69.50546, -22.40689], [-69.50645, -22.40633], [-69.50905, -22.40571], [-69.5107, -22.40494], [-69.51099, -22.40473], [-69.51099, -22.40318], [-69.51309, -22.40046], [-69.51356, -22.40023], [-69.51431, -22.40013], [-69.51514, -22.4002], [-69.51597, -22.40068], [-69.51639, -22.40144], [-69.5171, -22.4016], [-69.51814, -22.40085], [-69.51939, -22.40047], [-69.52086, -22.40053], [-69.52165, -22.40036], [-69.52195, -22.40016], [-69.52273, -22.39896], [-69.52513, -22.39745], [-69.52584, -22.39692], [-69.52639, -22.3963], [-69.52699, -22.39626], [-69.52839, -22.39658]]}}, {"type": "Feature", "properties": {"clase": "rio"}, "geometry": {"type": "LineString", "coordinates": [[-68.84704, -22.45664], [-68.84907, -22.45898], [-68.84959, -22.45941], [-68.85098, -22.45998], [-68.85461, -22.46086], [-68.86065, -22.46038], [-68.86315, -22.45928], [-68.86318, -22.45895], [-68.86347, -22.45872], [-68.8652, -22.45778], [-68.86577, -22.45768], [-68.86729, -22.45789], [-68.86867, -22.45889], [-68.8691, -22.45898], [-68.86982, -22.4589], [-68.87041, -22.45852], [-68.87129, -22.45695], [-68.8719, -22.45651], [-68.87312, -22.45619], [-68.87404, -22.45631], [-68.87464, -22.45603], [-68.87581, -22.45419], [-68.87723, -22.45274], [-68.87831, -22.45141], [-68.87926, -22.45079], [-68.8807, -22.44916], [-68.88197, -22.44844], [-68.88571, -22.44654], [-68.88699, -22.44608], [-68.88799, -22.44554], [-68.88959, -22.44525], [-68.89143, -22.44564], [-68.89221, -22.44616], [-68.89373, -22.44666], [-68.89577, -22.44636], [-68.8962, -22.44619], [-68.89648, -22.44584], [-68.89669, -22.444], [-68.89758, -22.44381], [-68.89885, -22.44329], [-68.89929, -22.4433], [-68.90086, -22.44448], [-68.90126, -22.44498], [-68.90166, -22.44615], [-68.90229, -22.44683], [-68.90327, -22.44844], [-68.90352, -22.44923], [-68.90369, -22.45049], [-68.90317, -22.45152], [-68.90245, -22.45217], [-68.90202, -22.45335], [-68.90064, -22.45455], [-68.89993, -22.45564], [-68.89996, -22.45694], [-68.90028, -22.45734], [-68.90028, -22.45791], [-68.90052, -22.45889], [-68.90092, -22.45922], [-68.90103, -22.45963], [-68.90096, -22.45998], [-68.90201, -22.46189], [-68.90255, -22.46219], [-68.90315, -22.46229], [-68.90343, -22.46255], [-68.90349, -22.46375], [-68.90415, -22.46409], [-68.90517, -22.46497], [-68.90579, -22.46587], [-68.90633, -22.46607], [-68.90667, -22.46638], [-68.90685, -22.46701], [-68.90741, -22.46799], [-68.90866, -22.46928], [-68.90883, -22.47003], [-68.90885, -22.47121], [-68.90907, -22.47188], [-68.9104, -22.47387], [-68.91051, -22.47424], [-68.91255, -22.47619], [-68.91312, -22.47656], [-68.9138, -22.47671], [-68.91413, -22.47664], [-68.91436, -22.47634], [-68.91465, -22.47627], [-68.9158, -22.47703], [-68.91792, -22.47729], [-68.92112, -22.47858], [-68.9227, -22.47969], [-68.92494, -22.47991], [-68.92664, -22.47988], [-68.92798, -22.48016], [-68.92878, -22.48065], [-68.92908, -22.48106], [-68.92915, -22.48208], [-68.92883, -22.48298], [-68.92901, -22.48342], [-68.92988, -22.48384], [-68.93212, -22.48535], [-68.93316, -22.4854], [-68.93478, -22.48587], [-68.93552, -22.48692], [-68.93672, -22.48719], [-68.93678, -22.48758], [-68.93603, -22.48797], [-68.93577, -22.48849], [-68.93631, -22.48929], [-68.93676, -22.48956], [-68.93717, -22.48974], [-68.93781, -22.48972], [-68.93802, -22.48987], [-68.93872, -22.48977], [-68.94277, -22.49147], [-68.94347, -22.49147], [-68.94407, -22.49168], [-68.94532, -22.4918], [-68.94664, -22.49225], [-68.94724, -22.49261], [-68.95069, -22.49338], [-68.95136, -22.49377], [-68.95254, -22.49417], [-68.95402, -22.49557], [-68.95535, -22.49639], [-68.9562, -22.49862], [-68.95702, -22.49986], [-68.95803, -22.50051], [-68.95835, -22.50096], [-68.95922, -22.50173], [-68.95968, -22.50164], [-68.96049, -22.50229], [-68.96104, -22.50244], [-68.96114, -22.50298], [-68.96178, -22.50403], [-68.96185, -22.5051], [-68.96232, -22.50546], [-68.96325, -22.50574], [-68.96368, -22.5061], [-68.96457, -22.50643], [-68.96564, -22.50746], [-68.96596, -22.50753], [-68.9687, -22.50691], [-68.97068, -22.50725], [-68.97126, -22.50679], [-68.97317, -22.50588], [-68.9749, -22.5055], [-68.97625, -22.50568], [-68.97714, -22.50608], [-68.97808, -22.50628], [-68.97826, -22.50619], [-68.97932, -22.50479], [-68.98093, -22.50405], [-68.98136, -22.50367], [-68.98236, -22.50447], [-68.9832, -22.50445], [-68.98371, -22.50421], [-68.98403, -22.50422], [-68.98455, -22.50451], [-68.98534, -22.50608], [-68.98616, -22.5069], [-68.98638, -22.50748], [-68.98683, -22.50801], [-68.98801, -22.50817], [-68.99024, -22.50937], [-68.99086, -22.50953], [-68.99164, -22.51006], [-68.99302, -22.51037], [-68.99464, -22.51054], [-68.99643, -22.50999], [-68.99757, -22.50982], [-68.99786, -22.51019], [-68.99853, -22.51166], [-68.99914, -22.51206], [-68.99983, -22.51205], [-69.00067, -22.51282], [-69.00088, -22.51286], [-69.00132, -22.51279], [-69.002, -22.51244], [-69.0036, -22.51239], [-69.00423, -22.51256], [-69.00469, -22.51286], [-69.0058, -22.51424], [-69.00667, -22.51466], [-69.00717, -22.51519], [-69.0077, -22.51553], [-69.00877, -22.51567], [-69.01006, -22.51542], [-69.01076, -22.51566], [-69.01127, -22.5161], [-69.01357, -22.51676], [-69.01397, -22.51675], [-69.01441, -22.51653], [-69.01538, -22.51663], [-69.01579, -22.51691], [-69.0159, -22.51752], [-69.01533, -22.51796], [-69.01471, -22.51886], [-69.01469, -22.51905], [-69.01506, -22.51935], [-69.0163, -22.5194], [-69.01677, -22.5192], [-69.01773, -22.51812], [-69.01796, -22.51807], [-69.01931, -22.51888], [-69.02022, -22.51912], [-69.02111, -22.5188], [-69.0213, -22.51822], [-69.02164, -22.51776], [-69.02196, -22.51763], [-69.02285, -22.51855], [-69.02327, -22.51881], [-69.02393, -22.51895], [-69.02431, -22.51862], [-69.02436, -22.51723], [-69.02523, -22.51693], [-69.02746, -22.5178], [-69.02776, -22.51781], [-69.02832, -22.51746], [-69.02893, -22.51666], [-69.03012, -22.51594], [-69.03055, -22.51528], [-69.03096, -22.51509], [-69.03286, -22.51511], [-69.03324, -22.51484], [-69.03353, -22.51437], [-69.03465, -22.51387], [-69.03601, -22.51413], [-69.03656, -22.51409], [-69.037, -22.51431], [-69.0374, -22.51426], [-69.03837, -22.51447], [-69.03897, -22.51424], [-69.04126, -22.51419], [-69.0418, -22.51436], [-69.04242, -22.51475], [-69.04344, -22.51486], [-69.04568, -22.5143], [-69.04706, -22.51435], [-69.04771, -22.51385], [-69.04853, -22.51356], [-69.05049, -22.51428], [-69.05182, -22.51448], [-69.05258, -22.51486], [-69.05297, -22.51468], [-69.05414, -22.51456], [-69.05512, -22.51496], [-69.05547, -22.51496], [-69.05578, -22.51475], [-69.05599, -22.5142], [-69.05649, -22.51408], [-69.05746, -22.51433], [-69.05802, -22.51475], [-69.05886, -22.51572], [-69.05957, -22.51576], [-69.06018, -22.51616], [-69.06046, -22.51621], [-69.0615, -22.51613], [-69.06253, -22.51635], [-69.06459, -22.51591], [-69.06546, -22.51496], [-69.06628, -22.51444], [-69.06684, -22.51472], [-69.06724, -22.51543], [-69.06757, -22.51566], [-69.06805, -22.51555], [-69.06871, -22.51499], [-69.06928, -22.51498], [-69.07047, -22.51583], [-69.07091, -22.51643], [-69.07121, -22.51711], [-69.07169, -22.51719], [-69.07345, -22.51693], [-69.07388, -22.51706], [-69.07463, -22.5177], [-69.07528, -22.5187], [-69.07601, -22.51905], [-69.07735, -22.51923], [-69.07812, -22.51916], [-69.07865, -22.51892], [-69.07939, -22.5192], [-69.0814, -22.51861], [-69.08233, -22.51854], [-69.08315, -22.51894], [-69.08436, -22.52041], [-69.08458, -22.52058], [-69.08506, -22.52067], [-69.08573, -22.52039], [-69.0867, -22.51925], [-69.0872, -22.51922], [-69.08772, -22.51953], [-69.08841, -22.51959], [-69.08905, -22.5192], [-69.08988, -22.51829], [-69.09194, -22.5174], [-69.09288, -22.5173], [-69.09424, -22.51791], [-69.09484, -22.51795], [-69.09624, -22.51724], [-69.09815, -22.51715], [-69.09934, -22.5162], [-69.09978, -22.51608], [-69.10208, -22.51606], [-69.10382, -22.51565], [-69.10501, -22.51564], [-69.10562, -22.51586], [-69.10656, -22.51681], [-69.10758, -22.51909], [-69.10815, -22.51966], [-69.10864, -22.51987], [-69.10964, -22.51973], [-69.11084, -22.51929], [-69.11276, -22.51916], [-69.114, -22.51888], [-69.11523, -22.51838], [-69.11615, -22.51766], [-69.11711, -22.51738], [-69.11761, -22.51744], [-69.12257, -22.5197], [-69.12334, -22.51953], [-69.12373, -22.51962], [-69.12618, -22.5209], [-69.12714, -22.52099], [-69.12856, -22.52085], [-69.13057, -22.52112], [-69.13138, -22.52135], [-69.1332, -22.52225], [-69.13402, -22.52251], [-69.13502, -22.52243], [-69.13721, -22.52186], [-69.1382, -22.52194], [-69.13925, -22.52227], [-69.14192, -22.52367], [-69.1429, -22.52395], [-69.14535, -22.52329], [-69.14754, -22.52253], [-69.14829, -22.5226], [-69.14941, -22.52295], [-69.15018, -22.52292], [-69.15121, -22.52315], [-69.15221, -22.52281], [-69.15312, -22.52289], [-69.1546, -22.52267], [-69.15553, -22.52233], [-69.15617, -22.52241], [-69.15724, -22.52179], [-69.15856, -22.52201], [-69.15949, -22.52191], [-69.16134, -22.52287], [-69.16258, -22.52295], [-69.16307, -22.52241], [-69.16379, -22.52201], [-69.16587, -22.52153], [-69.166, -22.5214], [-69.1661, -22.52064], [-69.16626, -22.52046], [-69.16753, -22.52022], [-69.16943, -22.51904], [-69.17094, -22.51746], [-69.17135, -22.51648], [-69.17296, -22.51415], [-69.17356, -22.51388], [-69.17494, -22.51383], [-69.1754, -22.51366], [-69.1771, -22.51167], [-69.17881, -22.51168], [-69.18076, -22.51084], [-69.18154, -22.51085], [-69.18229, -22.51112], [-69.18259, -22.51138], [-69.18409, -22.5131], [-69.1848, -22.51329], [-69.18682, -22.51287], [-69.18752, -22.51248], [-69.18818, -22.5118], [-69.18901, -22.51123], [-69.18938, -22.51125], [-69.19122, -22.51226], [-69.19192, -22.51252], [-69.19251, -22.51218], [-69.19367, -22.51195], [-69.19443, -22.51156], [-69.19548, -22.51162], [-69.19596, -22.51116], [-69.19631, -22.51051]]}}, {"type": "Feature", "properties": {"clase": "rio"}, "geometry": {"type": "LineString", "coordinates": [[-68.93355, -22.48398], [-68.93363, -22.48386], [-68.93377, -22.4839], [-68.93479, -22.48479], [-68.93506, -22.48482], [-68.9354, -22.48521], [-68.93572, -22.48501], [-68.93644, -22.48527], [-68.9373, -22.48521], [-68.93885, -22.48586], [-68.94191, -22.4867], [-68.9433, -22.48743], [-68.94464, -22.4879], [-68.94635, -22.4878], [-68.94997, -22.4894]]}}, {"type": "Feature", "properties": {"clase": "rio"}, "geometry": {"type": "LineString", "coordinates": [[-68.90348, -22.45105], [-68.9038, -22.45231], [-68.9044, -22.45265], [-68.90469, -22.45308], [-68.90532, -22.45352], [-68.90545, -22.45399], [-68.9064, -22.45495], [-68.90667, -22.45564], [-68.90661, -22.45602], [-68.905, -22.45638], [-68.90602, -22.45909]]}}, {"type": "Feature", "properties": {"clase": "rio"}, "geometry": {"type": "LineString", "coordinates": [[-68.90626, -22.45482], [-68.90451, -22.45522]]}}, {"type": "Feature", "properties": {"clase": "rio"}, "geometry": {"type": "LineString", "coordinates": [[-68.90524, -22.45318], [-68.90649, -22.45491], [-68.90711, -22.45618], [-68.90797, -22.45687], [-68.90904, -22.45814], [-68.91005, -22.45875], [-68.91122, -22.45918], [-68.91175, -22.4592], [-68.91283, -22.4596], [-68.91423, -22.45979], [-68.91633, -22.46076], [-68.91633, -22.46105]]}}, {"type": "Feature", "properties": {"clase": "rio"}, "geometry": {"type": "LineString", "coordinates": [[-68.91638, -22.46111], [-68.91627, -22.46245], [-68.91725, -22.46308]]}}, {"type": "Feature", "properties": {"clase": "rio"}, "geometry": {"type": "LineString", "coordinates": [[-68.90582, -22.46467], [-68.90783, -22.467], [-68.90948, -22.46829], [-68.91005, -22.46928], [-68.91182, -22.46974], [-68.91269, -22.47021], [-68.91231, -22.47121], [-68.91315, -22.47137]]}}, {"type": "Feature", "properties": {"clase": "rio"}, "geometry": {"type": "LineString", "coordinates": [[-68.9103, -22.46939], [-68.91062, -22.47013], [-68.91064, -22.47097], [-68.91078, -22.47133], [-68.91072, -22.47213], [-68.91091, -22.47253]]}}, {"type": "Feature", "properties": {"clase": "rio"}, "geometry": {"type": "LineString", "coordinates": [[-68.91518, -22.47187], [-68.91671, -22.47248], [-68.91773, -22.47311], [-68.91814, -22.47354], [-68.9186, -22.47369], [-68.91898, -22.47409]]}}, {"type": "Feature", "properties": {"clase": "rio"}, "geometry": {"type": "LineString", "coordinates": [[-68.90787, -22.45678], [-68.90758, -22.45774], [-68.90793, -22.46003], [-68.90775, -22.46119], [-68.90835, -22.46207], [-68.90871, -22.46358]]}}, {"type": "Feature", "properties": {"clase": "rio"}, "geometry": {"type": "LineString", "coordinates": [[-68.94193, -22.48672], [-68.94486, -22.48789], [-68.946, -22.48767], [-68.94835, -22.48648], [-68.94888, -22.48723], [-68.95144, -22.48894], [-68.95189, -22.49027], [-68.95284, -22.48996]]}}, {"type": "Feature", "properties": {"clase": "rio"}, "geometry": {"type": "LineString", "coordinates": [[-68.95284, -22.48996], [-68.9552, -22.48975], [-68.95709, -22.49027], [-68.95985, -22.49008], [-68.96151, -22.49089], [-68.96302, -22.4913], [-68.96346, -22.49168], [-68.9635, -22.49301]]}}, {"type": "Feature", "properties": {"clase": "rio"}, "geometry": {"type": "LineString", "coordinates": [[-68.94902, -22.48975], [-68.952, -22.49103], [-68.95204, -22.4912], [-68.95283, -22.49196]]}}, {"type": "Feature", "properties": {"clase": "rio"}, "geometry": {"type": "LineString", "coordinates": [[-68.95255, -22.49161], [-68.953, -22.49178], [-68.95437, -22.4931], [-68.95461, -22.49354], [-68.95493, -22.49351], [-68.95545, -22.49373], [-68.95624, -22.49435], [-68.95617, -22.49454]]}}, {"type": "Feature", "properties": {"clase": "rio"}, "geometry": {"type": "LineString", "coordinates": [[-68.95461, -22.49354], [-68.95462, -22.49412], [-68.9551, -22.49476]]}}, {"type": "Feature", "properties": {"clase": "rio"}, "geometry": {"type": "LineString", "coordinates": [[-68.95007, -22.49018], [-68.94945, -22.49165], [-68.95113, -22.49214], [-68.95127, -22.49264], [-68.95209, -22.49312], [-68.95235, -22.49353], [-68.95323, -22.49428]]}}, {"type": "Feature", "properties": {"clase": "rio"}, "geometry": {"type": "LineString", "coordinates": [[-68.94174, -22.48834], [-68.94217, -22.48786], [-68.94384, -22.48826], [-68.94512, -22.4884], [-68.94742, -22.48898], [-68.94902, -22.48975]]}}, {"type": "Feature", "properties": {"clase": "rio"}, "geometry": {"type": "LineString", "coordinates": [[-68.95621, -22.49748], [-68.95761, -22.49629], [-68.95806, -22.49648], [-68.95836, -22.49685], [-68.9592, -22.49736]]}}, {"type": "Feature", "properties": {"clase": "rio"}, "geometry": {"type": "LineString", "coordinates": [[-68.96725, -22.50483], [-68.96772, -22.50504], [-68.96936, -22.50531], [-68.96972, -22.50551], [-68.97082, -22.50521], [-68.97207, -22.50415], [-68.97335, -22.50406], [-68.97568, -22.50445], [-68.97646, -22.50421], [-68.97666, -22.50446], [-68.97656, -22.50584]]}}, {"type": "Feature", "properties": {"clase": "rio"}, "geometry": {"type": "LineString", "coordinates": [[-68.96388, -22.50157], [-68.96341, -22.50269], [-68.96295, -22.50341], [-68.96434, -22.50395]]}}, {"type": "Feature", "properties": {"clase": "rio"}, "geometry": {"type": "LineString", "coordinates": [[-68.96434, -22.50395], [-68.96483, -22.50382], [-68.96524, -22.50387], [-68.96597, -22.50443], [-68.96689, -22.50463], [-68.96725, -22.50483]]}}, {"type": "Feature", "properties": {"clase": "rio"}, "geometry": {"type": "LineString", "coordinates": [[-68.90573, -22.46452], [-68.90582, -22.46467]]}}, {"type": "Feature", "properties": {"clase": "rio"}, "geometry": {"type": "LineString", "coordinates": [[-68.90227, -22.46207], [-68.9028, -22.46174], [-68.90333, -22.46187], [-68.90573, -22.46452]]}}, {"type": "Feature", "properties": {"clase": "rio"}, "geometry": {"type": "LineString", "coordinates": [[-68.91512, -22.47185], [-68.91518, -22.47187]]}}, {"type": "Feature", "properties": {"clase": "rio"}, "geometry": {"type": "LineString", "coordinates": [[-68.91269, -22.47021], [-68.91378, -22.47093], [-68.91435, -22.47174], [-68.91512, -22.47185]]}}, {"type": "Feature", "properties": {"clase": "rio"}, "geometry": {"type": "LineString", "coordinates": [[-68.91636, -22.46107], [-68.9172, -22.4618]]}}, {"type": "Feature", "properties": {"clase": "rio"}, "geometry": {"type": "LineString", "coordinates": [[-68.91633, -22.46105], [-68.91636, -22.46107]]}}, {"type": "Feature", "properties": {"clase": "rio"}, "geometry": {"type": "LineString", "coordinates": [[-68.91903, -22.47414], [-68.9197, -22.47501], [-68.92054, -22.47541], [-68.92126, -22.47634], [-68.92194, -22.4768]]}}, {"type": "Feature", "properties": {"clase": "rio"}, "geometry": {"type": "LineString", "coordinates": [[-68.91898, -22.47409], [-68.91903, -22.47414]]}}, {"type": "Feature", "properties": {"clase": "rio"}, "geometry": {"type": "LineString", "coordinates": [[-68.92203, -22.47688], [-68.92275, -22.47733]]}}, {"type": "Feature", "properties": {"clase": "rio"}, "geometry": {"type": "LineString", "coordinates": [[-68.92194, -22.4768], [-68.92203, -22.47688]]}}, {"type": "Feature", "properties": {"clase": "rio"}, "geometry": {"type": "LineString", "coordinates": [[-68.95596, -22.49767], [-68.95621, -22.49748]]}}, {"type": "Feature", "properties": {"clase": "rio"}, "geometry": {"type": "LineString", "coordinates": [[-68.95593, -22.49783], [-68.95596, -22.49767]]}}, {"type": "Feature", "properties": {"clase": "rio"}, "geometry": {"type": "LineString", "coordinates": [[-68.85418, -22.46107], [-68.855, -22.46137], [-68.85782, -22.46106], [-68.85811, -22.46111], [-68.85884, -22.46156], [-68.85933, -22.46166], [-68.8598, -22.46153], [-68.86044, -22.46084], [-68.8642, -22.45903], [-68.86565, -22.45915], [-68.86667, -22.45975], [-68.86792, -22.46006], [-68.86965, -22.45963], [-68.87004, -22.45929], [-68.87086, -22.45891], [-68.87189, -22.45854], [-68.87303, -22.45833], [-68.87358, -22.45796], [-68.87396, -22.45739], [-68.87463, -22.45688], [-68.87548, -22.45709], [-68.87636, -22.45582], [-68.87685, -22.45486], [-68.87859, -22.4537], [-68.87955, -22.45331], [-68.87977, -22.45293], [-68.87953, -22.45201], [-68.88053, -22.45148], [-68.88188, -22.45031], [-68.88247, -22.45033], [-68.88268, -22.4502], [-68.88292, -22.44983], [-68.88407, -22.44889], [-68.88522, -22.44847], [-68.88547, -22.44851], [-68.88665, -22.44823], [-68.88733, -22.4483], [-68.88796, -22.4478], [-68.88906, -22.44751], [-68.89043, -22.44669], [-68.891, -22.44702], [-68.89213, -22.44812], [-68.89303, -22.44831], [-68.89312, -22.44813]]}}, {"type": "Feature", "properties": {"clase": "rio"}, "geometry": {"type": "LineString", "coordinates": [[-68.90223, -22.44676], [-68.9027, -22.44654], [-68.90406, -22.44864], [-68.90425, -22.4505], [-68.90395, -22.45197], [-68.90524, -22.45318]]}}, {"type": "Feature", "properties": {"clase": "rio"}, "geometry": {"type": "LineString", "coordinates": [[-68.90085, -22.45913], [-68.90077, -22.45977], [-68.9016, -22.46185], [-68.90171, -22.4624], [-68.90136, -22.46313], [-68.9014, -22.46436], [-68.90202, -22.4656], [-68.90203, -22.46609], [-68.90156, -22.46741]]}}, {"type": "Feature", "properties": {"clase": "rio"}, "geometry": {"type": "LineString", "coordinates": [[-68.90154, -22.46753], [-68.90151, -22.46767], [-68.90119, -22.46775], [-68.90078, -22.46927], [-68.90145, -22.47138], [-68.90212, -22.47268]]}}, {"type": "Feature", "properties": {"clase": "rio"}, "geometry": {"type": "LineString", "coordinates": [[-68.90156, -22.46741], [-68.90154, -22.46753]]}}, {"type": "Feature", "properties": {"clase": "rio"}, "geometry": {"type": "LineString", "coordinates": [[-68.93117, -22.48471], [-68.93301, -22.48517], [-68.93323, -22.48491], [-68.93353, -22.48405]]}}, {"type": "Feature", "properties": {"clase": "rio"}, "geometry": {"type": "LineString", "coordinates": [[-68.93353, -22.48405], [-68.93355, -22.48398]]}}], "_meta": {"ciudad": "Calama", "fuente": "OpenStreetMap (ODbL) — extracción puntual Overpass"}}