{"type": "FeatureCollection", "features": [{"type": "Feature", "properties": {"clase": "costa"}, "geometry": {"type": "LineString", "coordinates": [[-70.40262, -23.53763], [-70.40268, -23.53782], [-70.40242, -23.53831], [-70.40216, -23.53845], [-70.40177, -23.53979], [-70.4018, -23.54023], [-70.40133, -23.54151], [-70.40115, -23.54167], [-70.40119, -23.54205], [-70.40104, -23.54218], [-70.40121, -23.54224], [-70.40115, -23.54247], [-70.401, -23.54256], [-70.40095, -23.54295], [-70.40049, -23.54325], [-70.40058, -23.54344], [-70.40107, -23.54346], [-70.40097, -23.5436], [-70.40067, -23.54364], [-70.40072, -23.54376], [-70.40111, -23.5438], [-70.40112, -23.54404], [-70.40096, -23.54438], [-70.40087, -23.54442], [-70.40083, -23.54417], [-70.40065, -23.54455], [-70.40042, -23.54429], [-70.40025, -23.54457], [-70.40006, -23.54461], [-70.40003, -23.54495], [-70.39953, -23.54482], [-70.39916, -23.54509], [-70.39895, -23.5454], [-70.39906, -23.54597], [-70.39929, -23.54591], [-70.39899, -23.54617], [-70.399, -23.54633], [-70.39917, -23.54635], [-70.39895, -23.54647], [-70.39903, -23.54661], [-70.39923, -23.54657], [-70.39906, -23.54691], [-70.39946, -23.54702], [-70.39967, -23.54728], [-70.39995, -23.54708], [-70.40015, -23.54715], [-70.40025, -23.54761], [-70.40005, -23.54776], [-70.40023, -23.54786], [-70.40023, -23.54815], [-70.40034, -23.54817], [-70.40025, -23.54854], [-70.40129, -23.54965], [-70.40151, -23.54967], [-70.40239, -23.54924], [-70.40199, -23.5499], [-70.40259, -23.54954], [-70.40243, -23.55026], [-70.40214, -23.55037], [-70.40235, -23.55062], [-70.40223, -23.55106], [-70.40244, -23.55075], [-70.40284, -23.55084], [-70.40289, -23.55179], [-70.40313, -23.55141], [-70.40328, -23.55149], [-70.40313, -23.55182], [-70.4032, -23.55229], [-70.40272, -23.55222], [-70.40269, -23.55265], [-70.40301, -23.5527], [-70.40312, -23.55299], [-70.40292, -23.55309], [-70.40265, -23.55302], [-70.40254, -23.55319], [-70.40294, -23.55348], [-70.40309, -23.55403], [-70.40279, -23.55424], [-70.40309, -23.55429], [-70.40282, -23.5544], [-70.40321, -23.55441], [-70.40293, -23.55453], [-70.40323, -23.55455], [-70.40319, -23.55487], [-70.40342, -23.55528], [-70.40442, -23.55566], [-70.40506, -23.55564], [-70.40556, -23.55536], [-70.40533, -23.55505], [-70.40561, -23.55531], [-70.40621, -23.5545], [-70.40617, -23.55422], [-70.40562, -23.55407], [-70.40625, -23.55414], [-70.40689, -23.55381], [-70.40672, -23.55378], [-70.40665, -23.55361], [-70.40676, -23.55331], [-70.40718, -23.5533], [-70.40724, -23.55351], [-70.4075, -23.55315], [-70.40736, -23.55392], [-70.40746, -23.55365], [-70.40799, -23.5533], [-70.40786, -23.55379], [-70.40882, -23.55341], [-70.4089, -23.55375], [-70.40924, -23.5532], [-70.40912, -23.5537], [-70.40951, -23.55315], [-70.40963, -23.55346], [-70.40949, -23.55363], [-70.40955, -23.55388], [-70.40947, -23.55419], [-70.40926, -23.55424], [-70.40934, -23.55504], [-70.40881, -23.55497], [-70.40933, -23.5555], [-70.40954, -23.55543], [-70.40941, -23.55564], [-70.40918, -23.5556], [-70.40924, -23.55599], [-70.40889, -23.5561], [-70.40884, -23.55592], [-70.40878, -23.5563], [-70.40887, -23.55615], [-70.40904, -23.55615], [-70.40918, -23.5567], [-70.40901, -23.55694], [-70.40904, -23.5572], [-70.40887, -23.55736], [-70.4087, -23.55702], [-70.4088, -23.55664], [-70.40861, -23.55666], [-70.40864, -23.55742], [-70.40845, -23.55791], [-70.4084, -23.55734], [-70.40824, -23.55759], [-70.40806, -23.55683], [-70.40804, -23.5574], [-70.40778, -23.55744], [-70.40777, -23.55719], [-70.40793, -23.55706], [-70.40773, -23.5572], [-70.40772, -23.55709], [-70.40752, -23.55734], [-70.40728, -23.55702], [-70.40742, -23.55678], [-70.40727, -23.55687], [-70.40723, -23.55648], [-70.40704, -23.55677], [-70.40707, -23.5565], [-70.40681, -23.55667], [-70.40649, -23.55646], [-70.40628, -23.55613], [-70.40632, -23.55599], [-70.40608, -23.55584], [-70.40575, -23.55595], [-70.40566, -23.55633], [-70.40602, -23.55681], [-70.40644, -23.55689], [-70.40638, -23.55705], [-70.40651, -23.55705], [-70.40661, -23.55729], [-70.40657, -23.55811], [-70.40645, -23.55808], [-70.40651, -23.55795], [-70.40622, -23.55827], [-70.40604, -23.55738], [-70.40611, -23.55832], [-70.40593, -23.55954], [-70.40578, -23.55984], [-70.40557, -23.55993], [-70.40497, -23.55877], [-70.40505, -23.55995], [-70.40421, -23.55948], [-70.40399, -23.55955], [-70.40449, -23.56032], [-70.40391, -23.56041], [-70.40453, -23.56041], [-70.40468, -23.56079], [-70.40356, -23.56065], [-70.40387, -23.56078], [-70.40347, -23.56076], [-70.40322, -23.56111], [-70.40408, -23.56189], [-70.40433, -23.56234], [-70.40404, -23.56254], [-70.40425, -23.56245], [-70.40428, -23.56254], [-70.40413, -23.56276], [-70.40373, -23.56295], [-70.40354, -23.56273], [-70.40348, -23.56305], [-70.40308, -23.56237], [-70.40296, -23.5624], [-70.40312, -23.56287], [-70.40296, -23.56282], [-70.40281, -23.56294], [-70.40279, -23.56248], [-70.40264, -23.56309], [-70.4024, -23.56293], [-70.40239, -23.56258], [-70.40236, -23.56289], [-70.40221, -23.56284], [-70.40222, -23.56254], [-70.40215, -23.56311], [-70.40196, -23.56235], [-70.40189, -23.56303], [-70.40171, -23.56314], [-70.40164, -23.56296], [-70.40159, -23.5631], [-70.40092, -23.56301], [-70.40096, -23.56331], [-70.40112, -23.56317], [-70.40133, -23.56319], [-70.40137, -23.56332], [-70.40119, -23.5634], [-70.40144, -23.56347], [-70.4012, -23.56369], [-70.40132, -23.5639], [-70.40107, -23.56454], [-70.40103, -23.56412], [-70.40094, -23.5643], [-70.40087, -23.56409], [-70.40079, -23.56421], [-70.40072, -23.56407], [-70.40062, -23.56453], [-70.40047, -23.56439], [-70.40046, -23.56449], [-70.40028, -23.56442], [-70.40038, -23.56459], [-70.40019, -23.56463], [-70.40047, -23.56498], [-70.40028, -23.56508], [-70.40038, -23.56519], [-70.40017, -23.56522], [-70.40036, -23.56524], [-70.40041, -23.56541], [-70.40078, -23.56541], [-70.40072, -23.56554], [-70.39993, -23.56575], [-70.40054, -23.56574], [-70.4006, -23.56592], [-70.40036, -23.56595], [-70.40055, -23.56596], [-70.40064, -23.56612], [-70.4001, -23.56621], [-70.40051, -23.56641], [-70.4001, -23.56632], [-70.40006, -23.56646], [-70.40014, -23.56637], [-70.40034, -23.56644], [-70.40018, -23.56646], [-70.40038, -23.56649], [-70.40027, -23.56666], [-70.40042, -23.56671], [-70.40015, -23.56665], [-70.40001, -23.56676], [-70.40008, -23.56723], [-70.39978, -23.56752], [-70.39995, -23.56735], [-70.40008, -23.5674], [-70.4, -23.56771], [-70.39974, -23.56768], [-70.39972, -23.56779], [-70.4, -23.56782], [-70.4, -23.568], [-70.39975, -23.56803], [-70.4, -23.5681], [-70.39998, -23.5683], [-70.39957, -23.56818], [-70.39951, -23.56829], [-70.39962, -23.56845], [-70.39931, -23.5692], [-70.39945, -23.56923], [-70.39944, -23.56939], [-70.39922, -23.56944], [-70.39939, -23.56948], [-70.39921, -23.56954], [-70.3993, -23.56961], [-70.39916, -23.56972], [-70.39934, -23.56972], [-70.39924, -23.56986], [-70.39893, -23.56959], [-70.39871, -23.56971], [-70.39883, -23.56982], [-70.39863, -23.56997], [-70.39857, -23.57026], [-70.39859, -23.57036], [-70.39888, -23.57022], [-70.39898, -23.57037], [-70.39889, -23.57044], [-70.39907, -23.57077], [-70.39888, -23.57102], [-70.39895, -23.57108], [-70.39862, -23.57144], [-70.39852, -23.57137], [-70.39864, -23.57154], [-70.39835, -23.57168], [-70.39833, -23.57156], [-70.39804, -23.5716], [-70.39801, -23.57214], [-70.39788, -23.57208], [-70.39785, -23.57231], [-70.39749, -23.57237], [-70.39756, -23.57266], [-70.39769, -23.57269], [-70.39756, -23.57284], [-70.39786, -23.57288], [-70.39796, -23.57306], [-70.39784, -23.5731], [-70.39805, -23.57326], [-70.39795, -23.57356], [-70.39838, -23.57365], [-70.39875, -23.57391], [-70.39858, -23.57415], [-70.39807, -23.57404], [-70.39854, -23.57423], [-70.39818, -23.5742], [-70.39844, -23.57431], [-70.39834, -23.57467], [-70.3982, -23.57487], [-70.39812, -23.57471], [-70.39789, -23.57478], [-70.39786, -23.575], [-70.39761, -23.57499], [-70.39742, -23.57525], [-70.39739, -23.57502], [-70.39737, -23.57533], [-70.3971, -23.57532], [-70.39706, -23.57519], [-70.39704, -23.5756], [-70.39679, -23.57556], [-70.39693, -23.57566], [-70.39666, -23.57573], [-70.39665, -23.57594], [-70.39647, -23.57596], [-70.39668, -23.57598], [-70.39664, -23.57631], [-70.39636, -23.5764], [-70.39579, -23.57696], [-70.39588, -23.577], [-70.39583, -23.57725], [-70.39563, -23.57726], [-70.39558, -23.57745], [-70.39584, -23.57745], [-70.39585, -23.57759], [-70.39542, -23.57784], [-70.39544, -23.57753], [-70.39539, -23.57775], [-70.39522, -23.57781], [-70.39523, -23.57753], [-70.39535, -23.57748], [-70.39514, -23.57723], [-70.39514, -23.57744], [-70.39503, -23.57742], [-70.39516, -23.57752], [-70.3951, -23.57812], [-70.39487, -23.57809], [-70.39483, -23.57776], [-70.39475, -23.57817], [-70.39444, -23.5783], [-70.39446, -23.57806], [-70.39372, -23.57888], [-70.39346, -23.57891], [-70.39336, -23.57885], [-70.39344, -23.57876], [-70.39309, -23.57883], [-70.39343, -23.57917], [-70.39301, -23.57909], [-70.3932, -23.57923], [-70.39275, -23.57927], [-70.39297, -23.57952], [-70.39278, -23.57948], [-70.39287, -23.57961], [-70.3925, -23.57968], [-70.3926, -23.58014], [-70.39294, -23.58043], [-70.3932, -23.58027], [-70.39333, -23.58035], [-70.39319, -23.58066], [-70.39349, -23.58034], [-70.39389, -23.58046], [-70.39384, -23.58073], [-70.39407, -23.5806], [-70.39418, -23.58079], [-70.39434, -23.58074], [-70.39421, -23.58089], [-70.39443, -23.58082], [-70.39431, -23.58124], [-70.39398, -23.58129], [-70.39389, -23.58095], [-70.39392, -23.58132], [-70.39339, -23.58143], [-70.39341, -23.58158], [-70.39366, -23.58156], [-70.39389, -23.58175], [-70.39398, -23.58151], [-70.39439, -23.58162], [-70.39432, -23.58184], [-70.39406, -23.58189], [-70.39419, -23.582], [-70.39445, -23.58193], [-70.39431, -23.58224], [-70.39442, -23.58221], [-70.39438, -23.58255], [-70.39444, -23.58228], [-70.39467, -23.58221], [-70.39459, -23.58248], [-70.39472, -23.58221], [-70.39488, -23.58215], [-70.39483, -23.58235], [-70.3951, -23.58231], [-70.39504, -23.58311], [-70.39427, -23.58306], [-70.39427, -23.58318], [-70.3944, -23.5832], [-70.39438, -23.58338], [-70.39448, -23.5832], [-70.39484, -23.58323], [-70.39471, -23.58334], [-70.39487, -23.58333], [-70.39487, -23.58342], [-70.39492, -23.58327], [-70.39508, -23.58335], [-70.39507, -23.58386], [-70.39497, -23.58376], [-70.39478, -23.58408], [-70.39515, -23.58452], [-70.39461, -23.58418], [-70.39439, -23.58439], [-70.39427, -23.585], [-70.3945, -23.58536], [-70.39493, -23.58555], [-70.39539, -23.58499], [-70.39505, -23.58573], [-70.39514, -23.58572], [-70.39508, -23.58594], [-70.39525, -23.58591], [-70.3953, -23.58636], [-70.39514, -23.58639], [-70.3953, -23.58639], [-70.39536, -23.58667], [-70.39544, -23.58656], [-70.3957, -23.58659], [-70.39549, -23.58664], [-70.39564, -23.58669], [-70.39552, -23.58675], [-70.39574, -23.5867], [-70.39573, -23.58682], [-70.39585, -23.58672], [-70.39566, -23.58706], [-70.39589, -23.58675], [-70.39609, -23.58688], [-70.39587, -23.58705], [-70.39609, -23.58696], [-70.39613, -23.58708], [-70.39592, -23.58722], [-70.39626, -23.58715], [-70.39628, -23.58739], [-70.39613, -23.58738], [-70.39639, -23.58749], [-70.39619, -23.58762], [-70.39586, -23.5874], [-70.3961, -23.58768], [-70.39582, -23.5878], [-70.39589, -23.58811], [-70.39576, -23.58824], [-70.3959, -23.58838], [-70.39573, -23.5884], [-70.39604, -23.5885], [-70.39606, -23.58875], [-70.39622, -23.58876], [-70.3962, -23.58938], [-70.39627, -23.58917], [-70.3965, -23.58921], [-70.39647, -23.58955], [-70.3963, -23.58956], [-70.39674, -23.59], [-70.39673, -23.59025], [-70.39709, -23.5903], [-70.39686, -23.59046], [-70.39721, -23.5904], [-70.39695, -23.59059], [-70.39728, -23.59053], [-70.39745, -23.59095], [-70.3976, -23.59086], [-70.39751, -23.59107], [-70.3976, -23.59111], [-70.39739, -23.59132], [-70.39749, -23.59194], [-70.3977, -23.59225], [-70.39788, -23.59221], [-70.39791, -23.59246], [-70.39797, -23.59226], [-70.39812, -23.5923], [-70.39808, -23.59253], [-70.39821, -23.59261], [-70.39816, -23.59278], [-70.39793, -23.59285], [-70.39789, -23.59268], [-70.39787, -23.59322], [-70.39827, -23.59289], [-70.39808, -23.59303], [-70.39818, -23.59307], [-70.39805, -23.59314], [-70.39826, -23.59314], [-70.39816, -23.59325], [-70.39774, -23.59335], [-70.39788, -23.59337], [-70.3979, -23.59359], [-70.39806, -23.59358], [-70.39761, -23.59393], [-70.39756, -23.59412], [-70.39767, -23.59455], [-70.39748, -23.59523], [-70.39758, -23.59543], [-70.39751, -23.59558], [-70.39734, -23.59553], [-70.39746, -23.59596], [-70.39765, -23.59609], [-70.39747, -23.59631], [-70.39736, -23.59699], [-70.39729, -23.59669], [-70.39712, -23.5967], [-70.39713, -23.59699], [-70.39668, -23.59705], [-70.39657, -23.59685], [-70.39656, -23.59721], [-70.39572, -23.59722], [-70.39625, -23.59736], [-70.39634, -23.5976], [-70.3959, -23.59782], [-70.39625, -23.59777], [-70.39638, -23.59799], [-70.39599, -23.59842], [-70.39598, -23.59828], [-70.39586, -23.59837], [-70.39586, -23.59821], [-70.39585, -23.59848], [-70.39561, -23.59842], [-70.39557, -23.59858], [-70.39535, -23.5986], [-70.39543, -23.59874], [-70.39517, -23.59877], [-70.39543, -23.59881], [-70.39518, -23.59933], [-70.39515, -23.59916], [-70.39497, -23.59933], [-70.39505, -23.59943], [-70.39472, -23.5995], [-70.39478, -23.59977], [-70.39461, -23.59984], [-70.39452, -23.59964], [-70.39387, -23.60048], [-70.39361, -23.60167], [-70.39376, -23.60235], [-70.39342, -23.6028], [-70.39285, -23.6041], [-70.39288, -23.60524], [-70.39276, -23.60533], [-70.39276, -23.60507], [-70.39264, -23.60544], [-70.39273, -23.60541], [-70.39272, -23.6056], [-70.39275, -23.60543], [-70.39289, -23.60552], [-70.3927, -23.60635], [-70.39284, -23.60626], [-70.39288, -23.60656], [-70.39258, -23.60745], [-70.39278, -23.60758], [-70.39274, -23.60774], [-70.39257, -23.6078], [-70.39248, -23.60805], [-70.39273, -23.60791], [-70.39269, -23.60839], [-70.39252, -23.60846], [-70.39266, -23.6085], [-70.3926, -23.60867], [-70.3928, -23.60861], [-70.3928, -23.60887], [-70.39263, -23.60891], [-70.39285, -23.60894], [-70.39284, -23.60921], [-70.39307, -23.60908], [-70.39308, -23.60918], [-70.3929, -23.60999], [-70.39279, -23.60997], [-70.39274, -23.61013], [-70.39271, -23.61003], [-70.39253, -23.61032], [-70.3926, -23.61053], [-70.39276, -23.61051], [-70.39256, -23.61083], [-70.39274, -23.61078], [-70.39277, -23.61099], [-70.39261, -23.61147], [-70.39351, -23.61165], [-70.39352, -23.61175], [-70.39259, -23.6117], [-70.39227, -23.61231], [-70.3922, -23.61299], [-70.39233, -23.61355], [-70.39221, -23.6141], [-70.3923, -23.61477], [-70.39252, -23.61519], [-70.39287, -23.61536], [-70.39293, -23.61664]]}}, {"type": "Feature", "properties": {"clase": "costa"}, "geometry": {"type": "LineString", "coordinates": [[-70.40446, -23.65312], [-70.40446, -23.6543], [-70.40775, -23.65287], [-70.40787, -23.65159], [-70.40767, -23.65155], [-70.40783, -23.64919], [-70.40816, -23.64921], [-70.40846, -23.64896], [-70.40866, -23.64651], [-70.40879, -23.64621], [-70.40895, -23.64621], [-70.40835, -23.65263], [-70.40816, -23.65307], [-70.40761, -23.65359], [-70.40361, -23.65534], [-70.40315, -23.65567], [-70.403, -23.65596], [-70.40296, -23.65768], [-70.40359, -23.65957], [-70.40401, -23.65981], [-70.40408, -23.66297], [-70.40424, -23.66304], [-70.40405, -23.66362], [-70.40414, -23.6643], [-70.40454, -23.66475], [-70.40504, -23.66472], [-70.40554, -23.66545], [-70.40585, -23.66562], [-70.40601, -23.66651], [-70.40635, -23.66717], [-70.40659, -23.66719], [-70.40675, -23.66751], [-70.40683, -23.66821], [-70.40714, -23.66916], [-70.40732, -23.66912], [-70.40795, -23.66967], [-70.40877, -23.66954], [-70.40819, -23.67038], [-70.40893, -23.67074], [-70.40957, -23.67063], [-70.40924, -23.66964], [-70.40936, -23.66953], [-70.40972, -23.67045], [-70.41016, -23.67085], [-70.41022, -23.67094], [-70.41006, -23.67093], [-70.41047, -23.6712], [-70.41054, -23.67158], [-70.41073, -23.67182], [-70.41119, -23.67226], [-70.41205, -23.6727], [-70.41323, -23.67406], [-70.41383, -23.67525], [-70.41376, -23.67567], [-70.41413, -23.67629], [-70.41449, -23.67662], [-70.41457, -23.6772], [-70.41444, -23.67717], [-70.41463, -23.6774], [-70.4146, -23.67776], [-70.41417, -23.67747], [-70.41447, -23.67797], [-70.41435, -23.67808], [-70.41409, -23.67788], [-70.41448, -23.67826], [-70.4143, -23.67842], [-70.41445, -23.67845], [-70.41433, -23.67856], [-70.41448, -23.67854], [-70.41448, -23.67868], [-70.41456, -23.67861], [-70.41471, -23.6789], [-70.41441, -23.67872], [-70.41467, -23.67902], [-70.41457, -23.67903], [-70.41476, -23.67954], [-70.41476, -23.68014], [-70.4144, -23.68036], [-70.41445, -23.68061], [-70.41476, -23.68088], [-70.41488, -23.68081], [-70.41529, -23.68097], [-70.41529, -23.68119], [-70.41517, -23.68125], [-70.41542, -23.68127], [-70.41522, -23.68138], [-70.41537, -23.68142], [-70.41545, -23.68167], [-70.4153, -23.6818], [-70.41545, -23.68174], [-70.41578, -23.68216], [-70.416, -23.68223], [-70.41602, -23.68236], [-70.41573, -23.68268], [-70.41598, -23.68255], [-70.41585, -23.68274], [-70.4161, -23.68269], [-70.41585, -23.68286], [-70.41615, -23.68276], [-70.41589, -23.68294], [-70.41615, -23.68281], [-70.41653, -23.6834], [-70.41713, -23.6835], [-70.41747, -23.68403], [-70.4175, -23.68438], [-70.41788, -23.68459], [-70.41859, -23.6853], [-70.41941, -23.68548], [-70.41981, -23.68605], [-70.41957, -23.6862], [-70.41997, -23.68621], [-70.42, -23.68651], [-70.4199, -23.68655], [-70.42004, -23.68674], [-70.41979, -23.68687], [-70.42, -23.68691], [-70.4198, -23.68693], [-70.42007, -23.68716], [-70.42003, -23.68767], [-70.4202, -23.68756], [-70.42014, -23.68775], [-70.42032, -23.68773], [-70.42027, -23.68784], [-70.42043, -23.68772], [-70.42055, -23.68795], [-70.42033, -23.68804], [-70.42039, -23.68813], [-70.42055, -23.68804], [-70.42075, -23.68855], [-70.42053, -23.68842], [-70.4209, -23.6888], [-70.42071, -23.68897], [-70.42094, -23.68899], [-70.42066, -23.68903], [-70.4209, -23.68918], [-70.42077, -23.68929], [-70.42084, -23.68955], [-70.42106, -23.68953], [-70.42115, -23.69004], [-70.42105, -23.69051], [-70.42123, -23.69104], [-70.42153, -23.69136], [-70.42192, -23.6915], [-70.42252, -23.69233], [-70.42266, -23.69289], [-70.42251, -23.69299], [-70.42258, -23.69308], [-70.42266, -23.69296], [-70.42279, -23.69302], [-70.42285, -23.69318], [-70.42265, -23.69329], [-70.42276, -23.6939], [-70.42304, -23.69391], [-70.42292, -23.69402], [-70.42312, -23.69424], [-70.42307, -23.69433], [-70.42311, -23.6944], [-70.42322, -23.69424], [-70.42337, -23.69452], [-70.42309, -23.69567], [-70.42313, -23.69597], [-70.42333, -23.69607], [-70.42315, -23.69642], [-70.42324, -23.69709], [-70.42387, -23.69866], [-70.42373, -23.69921], [-70.42396, -23.69952], [-70.42409, -23.70058], [-70.42423, -23.70062], [-70.42423, -23.70034], [-70.42441, -23.70047], [-70.4243, -23.70083], [-70.42438, -23.70091], [-70.42453, -23.7008], [-70.42445, -23.70093], [-70.42455, -23.70128], [-70.42441, -23.70123], [-70.42452, -23.70138], [-70.42448, -23.70176], [-70.42427, -23.7018], [-70.42451, -23.70188], [-70.42441, -23.70199], [-70.42455, -23.7024], [-70.42437, -23.7026], [-70.42449, -23.70279], [-70.42481, -23.70279], [-70.42503, -23.70355], [-70.42512, -23.70353], [-70.4251, -23.70324], [-70.42529, -23.70349], [-70.42553, -23.70436], [-70.42545, -23.70479], [-70.42589, -23.70487], [-70.42628, -23.70534], [-70.42662, -23.70517], [-70.42705, -23.70516], [-70.42826, -23.70555], [-70.42893, -23.70617], [-70.42887, -23.70648], [-70.42903, -23.70674], [-70.43008, -23.70745], [-70.43043, -23.70751], [-70.43079, -23.70735], [-70.43157, -23.7082], [-70.4318, -23.70868], [-70.43196, -23.70985], [-70.43229, -23.7102], [-70.43254, -23.71019], [-70.43331, -23.71102], [-70.43337, -23.71181], [-70.43402, -23.71259], [-70.4342, -23.71308], [-70.43417, -23.71359], [-70.43399, -23.71368], [-70.43463, -23.71399], [-70.43442, -23.71414], [-70.4343, -23.71406], [-70.43437, -23.71427], [-70.43463, -23.71424], [-70.43435, -23.71443], [-70.43459, -23.71439], [-70.43466, -23.71454], [-70.43454, -23.71459], [-70.43475, -23.71465], [-70.43456, -23.71496], [-70.43485, -23.71498], [-70.43499, -23.71577], [-70.43519, -23.71584], [-70.4352, -23.71686], [-70.43571, -23.71713], [-70.4359, -23.71744], [-70.43581, -23.71792], [-70.43553, -23.7178], [-70.43557, -23.718], [-70.4353, -23.71836], [-70.43585, -23.71895], [-70.43591, -23.71936], [-70.43615, -23.71962], [-70.43622, -23.72006], [-70.43588, -23.72021], [-70.43622, -23.72022], [-70.43658, -23.72057], [-70.43644, -23.72078], [-70.43606, -23.72063], [-70.43657, -23.7211], [-70.43748, -23.72304], [-70.43752, -23.72349], [-70.43733, -23.72374], [-70.43714, -23.72361], [-70.43704, -23.72368], [-70.43716, -23.72374], [-70.43699, -23.72413], [-70.43703, -23.72434], [-70.43716, -23.72434], [-70.43724, -23.72467], [-70.43696, -23.72459], [-70.43742, -23.72494], [-70.43764, -23.72533], [-70.43765, -23.72584], [-70.43794, -23.7266], [-70.43774, -23.72667], [-70.43768, -23.72701], [-70.43808, -23.72708], [-70.43814, -23.72751], [-70.43838, -23.72762], [-70.43894, -23.72901], [-70.43871, -23.72897], [-70.43849, -23.72917], [-70.43898, -23.72931], [-70.43909, -23.72989], [-70.43881, -23.72995], [-70.43909, -23.73027], [-70.43931, -23.73085], [-70.43919, -23.73109], [-70.43947, -23.73126], [-70.43965, -23.73165], [-70.43938, -23.73171], [-70.43928, -23.73283], [-70.43966, -23.73337], [-70.4401, -23.73327], [-70.44068, -23.73343], [-70.44115, -23.73399], [-70.44101, -23.73447], [-70.44155, -23.73472], [-70.44177, -23.73498]]}}, {"type": "Feature", "properties": {"clase": "costa"}, "geometry": {"type": "LineString", "coordinates": [[-70.39293, -23.61664], [-70.39298, -23.61735], [-70.39268, -23.61786], [-70.39272, -23.61909], [-70.39314, -23.61957], [-70.39322, -23.61996], [-70.39334, -23.61979], [-70.39342, -23.61991], [-70.39323, -23.62011], [-70.3932, -23.62035], [-70.39354, -23.62089], [-70.39375, -23.62075], [-70.39398, -23.62088], [-70.39385, -23.62112], [-70.39424, -23.62109], [-70.3944, -23.62124], [-70.39465, -23.62111], [-70.39501, -23.62137], [-70.39504, -23.62174], [-70.39535, -23.62173], [-70.39533, -23.62187], [-70.39555, -23.62188], [-70.39545, -23.62213], [-70.39554, -23.62244], [-70.3957, -23.62269], [-70.39597, -23.62268], [-70.39606, -23.62305], [-70.39613, -23.62298], [-70.39617, -23.6232], [-70.39607, -23.62322], [-70.39626, -23.6233], [-70.3963, -23.62382], [-70.39614, -23.6238], [-70.39609, -23.62398], [-70.39614, -23.62414], [-70.39612, -23.62399], [-70.39625, -23.62403], [-70.39622, -23.62421], [-70.39639, -23.62448], [-70.39614, -23.62455], [-70.39641, -23.62454], [-70.39617, -23.6246], [-70.39636, -23.62469], [-70.39628, -23.62481], [-70.39647, -23.62478], [-70.39623, -23.62508], [-70.39637, -23.62552], [-70.39712, -23.62661], [-70.39702, -23.63024], [-70.39711, -23.63129], [-70.39636, -23.63209], [-70.39622, -23.63276], [-70.39637, -23.63429], [-70.39648, -23.6346], [-70.39697, -23.63513], [-70.39719, -23.63605], [-70.3973, -23.63609], [-70.39727, -23.63792], [-70.3976, -23.63817], [-70.39767, -23.63889], [-70.39816, -23.63942], [-70.39865, -23.63953], [-70.39902, -23.63941], [-70.39916, -23.63922], [-70.3988, -23.63899], [-70.39885, -23.63884], [-70.39913, -23.6389], [-70.39951, -23.63938], [-70.39944, -23.63991], [-70.39883, -23.64074], [-70.39913, -23.64132], [-70.39921, -23.64182], [-70.39901, -23.64177], [-70.39896, -23.64142], [-70.39864, -23.64084], [-70.39711, -23.64181], [-70.39702, -23.64191], [-70.39716, -23.64227], [-70.39762, -23.64301], [-70.39889, -23.64429], [-70.39911, -23.6438], [-70.39921, -23.64386], [-70.39906, -23.6441], [-70.39952, -23.64412], [-70.39988, -23.64394], [-70.39989, -23.64377], [-70.40017, -23.64376], [-70.40033, -23.64287], [-70.40027, -23.64268], [-70.39982, -23.64236], [-70.39995, -23.64229], [-70.40048, -23.64263], [-70.40116, -23.6426], [-70.40119, -23.64338], [-70.40045, -23.64425], [-70.40071, -23.64477], [-70.40103, -23.64502], [-70.40179, -23.64521], [-70.40198, -23.64503], [-70.40197, -23.64452], [-70.40235, -23.64405], [-70.40262, -23.64391], [-70.40322, -23.64398], [-70.4044, -23.64486], [-70.40495, -23.64559], [-70.40651, -23.64592], [-70.40645, -23.64602], [-70.40474, -23.64587], [-70.40501, -23.65289], [-70.40446, -23.65312]]}}, {"type": "Feature", "properties": {"clase": "costa"}, "geometry": {"type": "LineString", "coordinates": [[-70.39677, -23.58971], [-70.39663, -23.58979], [-70.39643, -23.58961], [-70.39672, -23.58951], [-70.39677, -23.58971]]}}, {"type": "Feature", "properties": {"clase": "costa"}, "geometry": {"type": "LineString", "coordinates": [[-70.39766, -23.58793], [-70.39761, -23.58801], [-70.39754, -23.58777], [-70.39772, -23.58775], [-70.39766, -23.58793]]}}, {"type": "Feature", "properties": {"clase": "costa"}, "geometry": {"type": "LineString", "coordinates": [[-70.39803, -23.58785], [-70.3981, -23.58775], [-70.39803, -23.58785]]}}, {"type": "Feature", "properties": {"clase": "costa"}, "geometry": {"type": "LineString", "coordinates": [[-70.39716, -23.58794], [-70.3972, -23.58779], [-70.39716, -23.58794]]}}, {"type": "Feature", "properties": {"clase": "costa"}, "geometry": {"type": "LineString", "coordinates": [[-70.39792, -23.5878], [-70.39776, -23.58772], [-70.39794, -23.58772], [-70.39792, -23.5878]]}}, {"type": "Feature", "properties": {"clase": "costa"}, "geometry": {"type": "LineString", "coordinates": [[-70.39656, -23.58794], [-70.39646, -23.58778], [-70.39658, -23.58764], [-70.39672, -23.58786], [-70.39656, -23.58794]]}}, {"type": "Feature", "properties": {"clase": "costa"}, "geometry": {"type": "LineString", "coordinates": [[-70.39548, -23.58624], [-70.39567, -23.58632], [-70.3955, -23.58635], [-70.39548, -23.58624]]}}, {"type": "Feature", "properties": {"clase": "costa"}, "geometry": {"type": "LineString", "coordinates": [[-70.39537, -23.58637], [-70.39531, -23.58609], [-70.39546, -23.58609], [-70.39549, -23.58632], [-70.39537, -23.58637]]}}, {"type": "Feature", "properties": {"clase": "costa"}, "geometry": {"type": "LineString", "coordinates": [[-70.39547, -23.5862], [-70.39556, -23.58618], [-70.39547, -23.5862]]}}, {"type": "Feature", "properties": {"clase": "costa"}, "geometry": {"type": "LineString", "coordinates": [[-70.3978, -23.59481], [-70.39782, -23.59449], [-70.3978, -23.59481]]}}, {"type": "Feature", "properties": {"clase": "costa"}, "geometry": {"type": "LineString", "coordinates": [[-70.39513, -23.58297], [-70.39511, -23.58277], [-70.39529, -23.58253], [-70.39525, -23.58291], [-70.39513, -23.58297]]}}, {"type": "Feature", "properties": {"clase": "costa"}, "geometry": {"type": "LineString", "coordinates": [[-70.39792, -23.59503], [-70.39788, -23.59477], [-70.39813, -23.59469], [-70.39823, -23.59488], [-70.39809, -23.59508], [-70.39792, -23.59503]]}}, {"type": "Feature", "properties": {"clase": "costa"}, "geometry": {"type": "LineString", "coordinates": [[-70.39758, -23.59696], [-70.39765, -23.59684], [-70.39758, -23.59696]]}}, {"type": "Feature", "properties": {"clase": "costa"}, "geometry": {"type": "LineString", "coordinates": [[-70.39533, -23.58354], [-70.39525, -23.58363], [-70.39521, -23.58355], [-70.39533, -23.58354]]}}, {"type": "Feature", "properties": {"clase": "costa"}, "geometry": {"type": "LineString", "coordinates": [[-70.39797, -23.5962], [-70.398, -23.59589], [-70.39797, -23.5962]]}}, {"type": "Feature", "properties": {"clase": "costa"}, "geometry": {"type": "LineString", "coordinates": [[-70.39805, -23.59466], [-70.39812, -23.59449], [-70.39805, -23.59466]]}}, {"type": "Feature", "properties": {"clase": "costa"}, "geometry": {"type": "LineString", "coordinates": [[-70.39565, -23.58361], [-70.39574, -23.58347], [-70.39576, -23.58362], [-70.39565, -23.58361]]}}, {"type": "Feature", "properties": {"clase": "costa"}, "geometry": {"type": "LineString", "coordinates": [[-70.39803, -23.59441], [-70.39814, -23.59434], [-70.39803, -23.59441]]}}, {"type": "Feature", "properties": {"clase": "costa"}, "geometry": {"type": "LineString", "coordinates": [[-70.39797, -23.59535], [-70.39807, -23.59558], [-70.39796, -23.59564], [-70.39797, -23.59535]]}}, {"type": "Feature", "properties": {"clase": "costa"}, "geometry": {"type": "LineString", "coordinates": [[-70.39534, -23.58283], [-70.39543, -23.58257], [-70.39534, -23.58283]]}}, {"type": "Feature", "properties": {"clase": "costa"}, "geometry": {"type": "LineString", "coordinates": [[-70.39796, -23.59347], [-70.39792, -23.59338], [-70.39805, -23.59339], [-70.39796, -23.59347]]}}, {"type": "Feature", "properties": {"clase": "costa"}, "geometry": {"type": "LineString", "coordinates": [[-70.39518, -23.58352], [-70.3951, -23.58353], [-70.39517, -23.58334], [-70.39518, -23.58352]]}}, {"type": "Feature", "properties": {"clase": "costa"}, "geometry": {"type": "LineString", "coordinates": [[-70.3976, -23.59673], [-70.39758, -23.59684], [-70.39748, -23.59668], [-70.39754, -23.59653], [-70.3976, -23.59673]]}}, {"type": "Feature", "properties": {"clase": "costa"}, "geometry": {"type": "LineString", "coordinates": [[-70.39809, -23.59286], [-70.39794, -23.59303], [-70.39795, -23.59287], [-70.39809, -23.59286]]}}, {"type": "Feature", "properties": {"clase": "costa"}, "geometry": {"type": "LineString", "coordinates": [[-70.3978, -23.59446], [-70.39793, -23.59433], [-70.39798, -23.59442], [-70.3978, -23.59446]]}}, {"type": "Feature", "properties": {"clase": "costa"}, "geometry": {"type": "LineString", "coordinates": [[-70.39812, -23.59366], [-70.39814, -23.59379], [-70.39793, -23.59392], [-70.39796, -23.59367], [-70.39812, -23.59366]]}}, {"type": "Feature", "properties": {"clase": "costa"}, "geometry": {"type": "LineString", "coordinates": [[-70.39296, -23.58014], [-70.39295, -23.58004], [-70.39306, -23.58017], [-70.39296, -23.58014]]}}, {"type": "Feature", "properties": {"clase": "costa"}, "geometry": {"type": "LineString", "coordinates": [[-70.39264, -23.58013], [-70.39271, -23.58002], [-70.39288, -23.58011], [-70.39264, -23.58013]]}}], "_meta": {"ciudad": "Antofagasta", "fuente": "OpenStreetMap (ODbL) — extracción puntual Overpass"}}