{"type": "FeatureCollection", "features": [{"type": "Feature", "properties": {"clase": "costa"}, "geometry": {"type": "LineString", "coordinates": [[-70.46687, -24.99921], [-70.46676, -25.0002], [-70.46711, -25.00076], [-70.46689, -25.00149], [-70.46651, -25.00466], [-70.46678, -25.00676], [-70.46732, -25.00806], [-70.46833, -25.00872], [-70.46813, -25.00905], [-70.46818, -25.00917], [-70.46887, -25.00926], [-70.46901, -25.00871], [-70.4693, -25.00911], [-70.46968, -25.00913], [-70.46989, -25.00864], [-70.47004, -25.00885], [-70.46988, -25.00935], [-70.47025, -25.00925], [-70.46997, -25.00974], [-70.46898, -25.0099], [-70.4684, -25.01049], [-70.4683, -25.01108], [-70.46838, -25.01134], [-70.46921, -25.01209], [-70.46939, -25.01352], [-70.47005, -25.01451], [-70.47018, -25.01579], [-70.4701, -25.01665], [-70.46956, -25.0179], [-70.46965, -25.0192], [-70.47002, -25.02041], [-70.47078, -25.02201], [-70.47236, -25.02479], [-70.47307, -25.0258], [-70.47347, -25.02658], [-70.47374, -25.02773], [-70.4752, -25.03029], [-70.47553, -25.03124], [-70.47562, -25.03216], [-70.47648, -25.03455], [-70.47882, -25.03856], [-70.47852, -25.0393], [-70.47895, -25.03992], [-70.479, -25.04076], [-70.47968, -25.04212], [-70.48021, -25.0425], [-70.48108, -25.04277], [-70.48241, -25.04276], [-70.48267, -25.04296], [-70.48278, -25.04327], [-70.48273, -25.04374], [-70.48288, -25.04419], [-70.48346, -25.04459], [-70.48336, -25.04484], [-70.4824, -25.04493], [-70.48232, -25.04517], [-70.48289, -25.04617], [-70.48285, -25.04637], [-70.48241, -25.04663], [-70.48226, -25.04686], [-70.48188, -25.04966], [-70.48122, -25.05135], [-70.48124, -25.05188], [-70.4836, -25.05709], [-70.48425, -25.05794], [-70.48565, -25.05887], [-70.48607, -25.05945], [-70.48633, -25.0608], [-70.48595, -25.06283], [-70.48596, -25.06408], [-70.48645, -25.06824], [-70.48672, -25.06945], [-70.48702, -25.06982], [-70.48767, -25.07016], [-70.48781, -25.0704], [-70.4877, -25.07151], [-70.48827, -25.07402], [-70.48858, -25.0744], [-70.48952, -25.07471], [-70.48978, -25.07498], [-70.49017, -25.07611], [-70.49047, -25.07769], [-70.49076, -25.07821], [-70.4921, -25.07926], [-70.49273, -25.0794], [-70.49294, -25.07961], [-70.49287, -25.08063], [-70.49327, -25.08141], [-70.49376, -25.08174], [-70.49418, -25.08176], [-70.49463, -25.08146], [-70.49555, -25.08147], [-70.49588, -25.08171], [-70.49678, -25.08316], [-70.49826, -25.08502], [-70.49968, -25.08611], [-70.50054, -25.08747], [-70.50091, -25.08784], [-70.50137, -25.0881], [-70.50258, -25.08831], [-70.50405, -25.08926], [-70.50536, -25.08942], [-70.50571, -25.09019], [-70.50561, -25.09151], [-70.50623, -25.09307], [-70.50692, -25.09378], [-70.5072, -25.09432], [-70.50707, -25.09562], [-70.50777, -25.09665], [-70.50681, -25.09727], [-70.50665, -25.0976], [-70.50662, -25.0983], [-70.50573, -25.10002], [-70.50514, -25.10044], [-70.50498, -25.1009], [-70.50437, -25.10104], [-70.50403, -25.10135], [-70.50404, -25.10295], [-70.50384, -25.10319], [-70.50313, -25.10345], [-70.50292, -25.10395], [-70.50197, -25.10906], [-70.50214, -25.10991], [-70.50277, -25.11072], [-70.5034, -25.11121], [-70.50328, -25.11162], [-70.50348, -25.11254], [-70.50295, -25.11423], [-70.50134, -25.11435], [-70.50052, -25.11463], [-70.50011, -25.11447], [-70.49975, -25.11401], [-70.4994, -25.1133], [-70.4992, -25.1122], [-70.49888, -25.11184], [-70.49725, -25.11126], [-70.49662, -25.11116], [-70.49503, -25.11124], [-70.49463, -25.11129], [-70.48984, -25.11319], [-70.48847, -25.11409], [-70.48777, -25.11475], [-70.48699, -25.11493], [-70.48678, -25.1155], [-70.48588, -25.11527], [-70.4847, -25.1156], [-70.48288, -25.11688], [-70.4808, -25.11931], [-70.47714, -25.12289], [-70.47094, -25.12866], [-70.46985, -25.12945], [-70.46413, -25.13557], [-70.46231, -25.13853], [-70.46185, -25.13953], [-70.46179, -25.14069], [-70.46197, -25.14138], [-70.46238, -25.14199], [-70.46261, -25.14287], [-70.46252, -25.14389], [-70.46225, -25.14458], [-70.46205, -25.14604], [-70.46161, -25.14779], [-70.46146, -25.14809], [-70.46074, -25.14864], [-70.45977, -25.14909], [-70.45955, -25.14931], [-70.45935, -25.1494], [-70.45873, -25.1492], [-70.45844, -25.14926], [-70.45756, -25.14987], [-70.45746, -25.15007], [-70.45757, -25.15067], [-70.45692, -25.15246], [-70.45695, -25.15336], [-70.45647, -25.15453], [-70.45608, -25.15485], [-70.45601, -25.15516], [-70.4559, -25.15676], [-70.45623, -25.15754], [-70.4575, -25.15952], [-70.45942, -25.1609], [-70.45948, -25.16111], [-70.45933, -25.16124], [-70.45844, -25.16111], [-70.45816, -25.16123], [-70.45789, -25.16168], [-70.45769, -25.16275], [-70.45747, -25.16292], [-70.45592, -25.16275], [-70.45366, -25.16409], [-70.44863, -25.1698], [-70.44688, -25.17214], [-70.44414, -25.1763], [-70.44265, -25.17909], [-70.44157, -25.18064], [-70.44019, -25.1832], [-70.4399, -25.18414], [-70.44003, -25.18534], [-70.44001, -25.18686], [-70.43982, -25.18711], [-70.43894, -25.18719], [-70.43856, -25.18738], [-70.43768, -25.18887], [-70.43723, -25.19027], [-70.43734, -25.19165], [-70.43725, -25.19189], [-70.43638, -25.19254], [-70.43634, -25.19279], [-70.43676, -25.19373], [-70.43683, -25.19427], [-70.43672, -25.19463], [-70.43616, -25.19511], [-70.43604, -25.19543], [-70.43627, -25.19612], [-70.43625, -25.19647], [-70.43569, -25.19768], [-70.43514, -25.19846], [-70.43495, -25.19932], [-70.43498, -25.19981], [-70.43529, -25.20021], [-70.4359, -25.20067], [-70.43668, -25.20101], [-70.4382, -25.20108], [-70.43929, -25.20081], [-70.43956, -25.20086], [-70.43995, -25.20167], [-70.4401, -25.20219], [-70.43965, -25.2033], [-70.44019, -25.20442], [-70.44038, -25.20524], [-70.44023, -25.20561], [-70.43926, -25.20597], [-70.43891, -25.20632], [-70.43871, -25.20694], [-70.43892, -25.20752], [-70.43935, -25.20786], [-70.43967, -25.20834], [-70.44017, -25.20965], [-70.44007, -25.20994], [-70.43862, -25.21018], [-70.43777, -25.21093], [-70.4375, -25.21166], [-70.43791, -25.21272], [-70.43899, -25.2148], [-70.43911, -25.21537], [-70.44061, -25.21686], [-70.4407, -25.21723], [-70.44015, -25.21777], [-70.43991, -25.21831], [-70.44022, -25.21864], [-70.44089, -25.21883], [-70.44113, -25.21916], [-70.44114, -25.22024], [-70.4411, -25.22063], [-70.44077, -25.22119], [-70.44032, -25.22251], [-70.44016, -25.22366], [-70.44022, -25.22467], [-70.44, -25.22503], [-70.43962, -25.22516], [-70.43864, -25.22509], [-70.43836, -25.22532], [-70.43826, -25.22576], [-70.43848, -25.22689], [-70.43808, -25.22814], [-70.43798, -25.22892], [-70.43839, -25.23132], [-70.43833, -25.23191], [-70.43781, -25.23273], [-70.43779, -25.233], [-70.43816, -25.23404], [-70.43778, -25.23602], [-70.43793, -25.23711], [-70.4376, -25.23764], [-70.43751, -25.23805], [-70.43766, -25.23844], [-70.43769, -25.24005], [-70.4373, -25.24061], [-70.43686, -25.24089], [-70.43552, -25.24259], [-70.43537, -25.2437], [-70.43476, -25.24429], [-70.43465, -25.24478], [-70.43485, -25.24567], [-70.43449, -25.24633], [-70.43381, -25.24683], [-70.43374, -25.2471], [-70.4341, -25.24792], [-70.43444, -25.25074], [-70.43454, -25.25428], [-70.43434, -25.25598], [-70.43447, -25.25656], [-70.43517, -25.2576], [-70.43571, -25.25891], [-70.43792, -25.26189], [-70.43842, -25.2622], [-70.43907, -25.26229], [-70.43983, -25.26222], [-70.44083, -25.26182], [-70.44132, -25.26192], [-70.44203, -25.2622], [-70.44245, -25.26262], [-70.44273, -25.26334], [-70.44276, -25.26381], [-70.44254, -25.26414], [-70.4421, -25.26436], [-70.44184, -25.26471], [-70.44169, -25.26523], [-70.44198, -25.26657], [-70.44197, -25.26721], [-70.44159, -25.26784], [-70.44111, -25.26829], [-70.44094, -25.2687], [-70.44093, -25.26946], [-70.44115, -25.2705], [-70.44133, -25.27085], [-70.442, -25.27125], [-70.44174, -25.27152], [-70.44123, -25.27171], [-70.44102, -25.27194], [-70.44101, -25.27231], [-70.44157, -25.2728], [-70.4422, -25.27372], [-70.44302, -25.2741], [-70.44336, -25.27474], [-70.44394, -25.27505], [-70.44411, -25.27529], [-70.44459, -25.2771], [-70.44525, -25.27755], [-70.4471, -25.278], [-70.44727, -25.27827], [-70.44731, -25.27896], [-70.44793, -25.27956], [-70.44814, -25.28011], [-70.44823, -25.28063], [-70.44801, -25.28185], [-70.4482, -25.28228], [-70.45035, -25.28284], [-70.4511, -25.28292], [-70.45162, -25.28276], [-70.45195, -25.28287], [-70.45192, -25.28311], [-70.45149, -25.28344], [-70.45102, -25.28408], [-70.4507, -25.28526], [-70.45061, -25.28616], [-70.4504, -25.28665], [-70.44933, -25.28771], [-70.44954, -25.28883], [-70.44944, -25.2893], [-70.44877, -25.29031], [-70.44873, -25.291], [-70.44923, -25.29197], [-70.45196, -25.29564], [-70.45282, -25.29624], [-70.45493, -25.29691], [-70.45521, -25.29715], [-70.45517, -25.29746], [-70.45401, -25.29828], [-70.45393, -25.29911], [-70.45327, -25.30127], [-70.45344, -25.3018], [-70.45419, -25.3027], [-70.45419, -25.30313], [-70.4539, -25.30347], [-70.45303, -25.30363], [-70.45279, -25.30396], [-70.45272, -25.30491], [-70.45298, -25.30594], [-70.45291, -25.30636], [-70.45246, -25.3068], [-70.45203, -25.30748], [-70.45198, -25.30931], [-70.45273, -25.31133], [-70.4521, -25.31352], [-70.45208, -25.31417], [-70.45266, -25.31566], [-70.45253, -25.31633], [-70.45231, -25.31685], [-70.45005, -25.31977], [-70.44976, -25.32154], [-70.44992, -25.32242], [-70.45043, -25.3233], [-70.45122, -25.32547], [-70.45195, -25.32614], [-70.452, -25.32657], [-70.45184, -25.3271], [-70.45111, -25.32846], [-70.4507, -25.32887], [-70.44985, -25.32946], [-70.44868, -25.32987], [-70.44847, -25.33019], [-70.44832, -25.33138], [-70.44801, -25.33191], [-70.44749, -25.33239], [-70.44733, -25.33283], [-70.44731, -25.33349], [-70.4478, -25.33656], [-70.44768, -25.33688], [-70.44627, -25.33766], [-70.44605, -25.33825], [-70.44597, -25.33927], [-70.44559, -25.34039], [-70.44541, -25.34147], [-70.4453, -25.34541], [-70.44611, -25.34712], [-70.4464, -25.34894], [-70.44639, -25.3502], [-70.44653, -25.35077], [-70.44617, -25.35292], [-70.44623, -25.35346], [-70.44642, -25.35391], [-70.44697, -25.35426], [-70.44709, -25.35454], [-70.44697, -25.35475], [-70.44639, -25.35481], [-70.44615, -25.35498], [-70.446, -25.35526], [-70.44596, -25.35597], [-70.44634, -25.35741], [-70.44641, -25.35851], [-70.44683, -25.3587], [-70.44691, -25.35887], [-70.44673, -25.35943], [-70.44676, -25.36214], [-70.44625, -25.36424], [-70.44617, -25.3653], [-70.44649, -25.36682], [-70.44705, -25.36847], [-70.44823, -25.37066], [-70.4485, -25.37188], [-70.44933, -25.37322], [-70.44992, -25.37376], [-70.45054, -25.37404], [-70.4513, -25.37401], [-70.4515, -25.3742], [-70.45158, -25.37448], [-70.45147, -25.37477], [-70.45091, -25.37513], [-70.45078, -25.37703], [-70.45089, -25.37776], [-70.45225, -25.37951], [-70.45349, -25.3806], [-70.45391, -25.38126], [-70.45426, -25.3823], [-70.45484, -25.38302], [-70.45554, -25.38354], [-70.45814, -25.38453], [-70.46135, -25.38721], [-70.46216, -25.38728], [-70.46244, -25.38681], [-70.46247, -25.38715], [-70.4626, -25.38714], [-70.46297, -25.38653], [-70.46387, -25.38638], [-70.46428, -25.38641], [-70.46592, -25.38695], [-70.4661, -25.38762], [-70.46667, -25.38788], [-70.4683, -25.38793], [-70.47019, -25.38835], [-70.47129, -25.38784], [-70.47168, -25.38784], [-70.47221, -25.38823], [-70.47235, -25.38849], [-70.47274, -25.39006], [-70.47307, -25.39032], [-70.47354, -25.39043], [-70.4746, -25.39005], [-70.47513, -25.38948], [-70.47596, -25.38953], [-70.47696, -25.38931], [-70.47772, -25.38942], [-70.47794, -25.38992], [-70.47783, -25.39059], [-70.47826, -25.39096], [-70.47817, -25.3911], [-70.47734, -25.39106], [-70.47724, -25.39234], [-70.47661, -25.3928], [-70.47596, -25.39407], [-70.47598, -25.39452], [-70.47716, -25.3969], [-70.47814, -25.39844], [-70.48029, -25.40098], [-70.48082, -25.40114], [-70.48091, -25.4013], [-70.48178, -25.40177], [-70.48199, -25.40167], [-70.48223, -25.40198], [-70.48284, -25.40229], [-70.48326, -25.40271], [-70.48341, -25.40305], [-70.48383, -25.4032], [-70.48436, -25.4038], [-70.48764, -25.40655], [-70.48949, -25.40779], [-70.49209, -25.40915], [-70.4927, -25.40935]]}}, {"type": "Feature", "properties": {"clase": "costa"}, "geometry": {"type": "LineString", "coordinates": [[-70.4927, -25.40935], [-70.49314, -25.40935], [-70.49327, -25.40919], [-70.49362, -25.40942], [-70.49451, -25.40944], [-70.49469, -25.40932], [-70.49499, -25.40934], [-70.49524, -25.40911], [-70.49542, -25.40933], [-70.49564, -25.40931], [-70.49624, -25.40958], [-70.49772, -25.40941], [-70.49802, -25.40951], [-70.49824, -25.40923], [-70.49886, -25.40894], [-70.49883, -25.40874], [-70.49897, -25.40881], [-70.49956, -25.40807], [-70.49973, -25.40805], [-70.49968, -25.40786], [-70.49983, -25.40746], [-70.50019, -25.40716], [-70.49999, -25.4069], [-70.50014, -25.40678], [-70.50025, -25.40685], [-70.50048, -25.40653], [-70.50084, -25.40652], [-70.50149, -25.40573], [-70.50172, -25.40566], [-70.50192, -25.40586], [-70.50207, -25.40576], [-70.50235, -25.40581], [-70.50257, -25.40546], [-70.50297, -25.40531], [-70.50356, -25.40571], [-70.50386, -25.40531], [-70.50375, -25.40526], [-70.50383, -25.40512], [-70.50434, -25.40523], [-70.50432, -25.40497], [-70.50458, -25.40514], [-70.50461, -25.40499], [-70.50437, -25.40468], [-70.50459, -25.40457], [-70.50501, -25.40492], [-70.50496, -25.40454], [-70.50512, -25.40432], [-70.50592, -25.40393], [-70.50641, -25.40401], [-70.50673, -25.40428], [-70.5075, -25.40414], [-70.50759, -25.40407], [-70.50754, -25.40382], [-70.50779, -25.40368], [-70.50803, -25.40319], [-70.50796, -25.40279]]}}, {"type": "Feature", "properties": {"clase": "costa"}, "geometry": {"type": "LineString", "coordinates": [[-70.50796, -25.40279], [-70.50825, -25.40226], [-70.50802, -25.4018], [-70.50782, -25.40175], [-70.50789, -25.40157], [-70.50694, -25.40148], [-70.50683, -25.40121], [-70.50732, -25.40079], [-70.50738, -25.40047], [-70.50811, -25.39992], [-70.50829, -25.4001], [-70.50814, -25.40048], [-70.5082, -25.40071], [-70.50869, -25.39986], [-70.50875, -25.40023], [-70.5086, -25.40042], [-70.50877, -25.40071], [-70.50901, -25.40067], [-70.50897, -25.40034], [-70.50912, -25.39995], [-70.509, -25.39949], [-70.50915, -25.3991], [-70.50931, -25.39902], [-70.50945, -25.39912], [-70.50934, -25.39895], [-70.50945, -25.39877], [-70.50963, -25.39877], [-70.50964, -25.39913], [-70.50975, -25.39893], [-70.50984, -25.39901], [-70.51008, -25.39891], [-70.51018, -25.39871], [-70.51032, -25.39902], [-70.5106, -25.39915], [-70.51098, -25.3986], [-70.51118, -25.39865], [-70.51129, -25.39893], [-70.51144, -25.39892], [-70.51149, -25.39876], [-70.51166, -25.39893], [-70.51174, -25.39804], [-70.51164, -25.39798], [-70.51192, -25.3976], [-70.5118, -25.39749], [-70.51185, -25.39732], [-70.51221, -25.39681], [-70.51243, -25.39691], [-70.51247, -25.39712], [-70.51258, -25.39678], [-70.51289, -25.39709], [-70.51297, -25.39696], [-70.51282, -25.39689], [-70.51286, -25.39669], [-70.51308, -25.39665], [-70.51312, -25.39685], [-70.51335, -25.39673], [-70.51351, -25.39642], [-70.51341, -25.39601], [-70.51354, -25.39584], [-70.51395, -25.39575], [-70.51374, -25.39613], [-70.51395, -25.39607], [-70.51403, -25.3963], [-70.51417, -25.39609], [-70.51433, -25.39607], [-70.51421, -25.39645], [-70.51443, -25.3966], [-70.51511, -25.39558], [-70.51526, -25.39559], [-70.51504, -25.39584], [-70.51534, -25.3956], [-70.51536, -25.39572], [-70.51552, -25.39563], [-70.51539, -25.39595], [-70.51566, -25.39574], [-70.51607, -25.39574], [-70.51578, -25.39622], [-70.51661, -25.39565], [-70.51674, -25.39605], [-70.51697, -25.39579], [-70.51707, -25.39588], [-70.51703, -25.39609], [-70.51679, -25.39635], [-70.51658, -25.39627], [-70.51631, -25.3967], [-70.51589, -25.39691], [-70.51634, -25.39693], [-70.5166, -25.39719], [-70.51642, -25.39733], [-70.51648, -25.39754], [-70.51635, -25.39775], [-70.51659, -25.39773], [-70.51663, -25.3979], [-70.51647, -25.39812], [-70.51626, -25.39816], [-70.51641, -25.39875], [-70.51588, -25.3991], [-70.51678, -25.3994], [-70.51676, -25.39957], [-70.51688, -25.39964], [-70.51673, -25.40043], [-70.51647, -25.40084], [-70.51576, -25.401], [-70.51572, -25.40123], [-70.51514, -25.40148], [-70.51502, -25.40168], [-70.51528, -25.40168], [-70.51505, -25.4018], [-70.51522, -25.4021], [-70.51494, -25.40226], [-70.51504, -25.40243], [-70.51526, -25.40247], [-70.51524, -25.40267], [-70.51503, -25.40268], [-70.51496, -25.40302], [-70.51476, -25.40322], [-70.5145, -25.40309], [-70.51441, -25.40325], [-70.51425, -25.40324], [-70.51415, -25.40344], [-70.51442, -25.4035], [-70.51428, -25.40372], [-70.51364, -25.40385], [-70.51359, -25.4042], [-70.51336, -25.40456], [-70.51345, -25.40486], [-70.51319, -25.40519], [-70.5133, -25.40539], [-70.51325, -25.40577], [-70.51295, -25.40612], [-70.51314, -25.40639], [-70.51297, -25.40664], [-70.51301, -25.40698], [-70.51347, -25.40719], [-70.51382, -25.40697], [-70.51391, -25.40718], [-70.51429, -25.40725], [-70.51449, -25.40746], [-70.51468, -25.40743], [-70.51469, -25.40758], [-70.51494, -25.40759], [-70.51499, -25.4077], [-70.51532, -25.40751], [-70.51553, -25.40755], [-70.51562, -25.40765], [-70.51552, -25.40787], [-70.51633, -25.40759], [-70.51607, -25.40838], [-70.5167, -25.40824], [-70.51667, -25.40813], [-70.51694, -25.40805], [-70.51682, -25.40824], [-70.51708, -25.40839], [-70.51707, -25.40876], [-70.51732, -25.40822], [-70.5174, -25.40868], [-70.51807, -25.40879], [-70.51823, -25.40908], [-70.51803, -25.40941], [-70.51818, -25.40952], [-70.51844, -25.40948], [-70.51867, -25.41044], [-70.51889, -25.41027], [-70.51895, -25.41001], [-70.5191, -25.41009], [-70.51915, -25.40971], [-70.51933, -25.40989], [-70.51917, -25.41015], [-70.51922, -25.41027], [-70.51951, -25.4103], [-70.51961, -25.40991], [-70.51998, -25.40981], [-70.52007, -25.4094], [-70.52025, -25.4095], [-70.52036, -25.40931], [-70.52054, -25.40932], [-70.52069, -25.40961], [-70.5209, -25.40967], [-70.52088, -25.40984], [-70.52116, -25.41002], [-70.52103, -25.41037], [-70.52077, -25.41047], [-70.52065, -25.41074], [-70.52091, -25.41092], [-70.52073, -25.41096], [-70.52073, -25.41112], [-70.52094, -25.41134], [-70.52062, -25.41135], [-70.52046, -25.41165], [-70.51985, -25.41218], [-70.52034, -25.41313], [-70.51986, -25.41327]]}}, {"type": "Feature", "properties": {"clase": "costa"}, "geometry": {"type": "LineString", "coordinates": [[-70.50694, -25.40055], [-70.50703, -25.40077], [-70.50677, -25.40103], [-70.5066, -25.40098], [-70.50662, -25.40079], [-70.50694, -25.40055]]}}, {"type": "Feature", "properties": {"clase": "costa"}, "geometry": {"type": "LineString", "coordinates": [[-70.50715, -25.40197], [-70.50726, -25.402], [-70.50713, -25.40216], [-70.50691, -25.40211], [-70.50715, -25.40197]]}}, {"type": "Feature", "properties": {"clase": "costa"}, "geometry": {"type": "LineString", "coordinates": [[-70.51303, -25.3963], [-70.51313, -25.39652], [-70.513, -25.39649], [-70.51303, -25.3963]]}}], "_meta": {"ciudad": "Taltal", "fuente": "OpenStreetMap (ODbL) — extracción puntual Overpass"}}