{"type": "FeatureCollection", "features": [{"type": "Feature", "properties": {"nombre": "Ollagüe", "entidad": "Pueblo", "comuna": "Ollagüe"}, "geometry": {"type": "Point", "coordinates": [-68.25364, -21.22458]}}, {"type": "Feature", "properties": {"nombre": "Michilla", "entidad": "Aldea", "comuna": "Mejillones"}, "geometry": {"type": "Point", "coordinates": [-70.2758, -22.71211]}}, {"type": "Feature", "properties": {"nombre": "Baquedano", "entidad": "Pueblo", "comuna": "Sierra Gorda"}, "geometry": {"type": "Point", "coordinates": [-69.84053, -23.33237]}}, {"type": "Feature", "properties": {"nombre": "Toconao", "entidad": "Pueblo", "comuna": "San Pedro de Atacama"}, "geometry": {"type": "Point", "coordinates": [-68.00463, -23.18971]}}, {"type": "Feature", "properties": {"nombre": "Peine", "entidad": "Aldea", "comuna": "San Pedro de Atacama"}, "geometry": {"type": "Point", "coordinates": [-68.06274, -23.68337]}}, {"type": "Feature", "properties": {"nombre": "Río Grande", "entidad": "Aldea", "comuna": "San Pedro de Atacama"}, "geometry": {"type": "Point", "coordinates": [-68.16689, -22.65158]}}, {"type": "Feature", "properties": {"nombre": "Calama", "entidad": "Ciudad", "comuna": "Calama"}, "geometry": {"type": "Point", "coordinates": [-68.91843, -22.44956]}}, {"type": "Feature", "properties": {"nombre": "Calama", "entidad": "Ciudad", "comuna": "Calama"}, "geometry": {"type": "Point", "coordinates": [-68.91208, -22.48062]}}, {"type": "Feature", "properties": {"nombre": "San Pedro de Atacama", "entidad": "Pueblo", "comuna": "San Pedro de Atacama"}, "geometry": {"type": "Point", "coordinates": [-68.19821, -22.90842]}}, {"type": "Feature", "properties": {"nombre": "Antofagasta", "entidad": "Ciudad", "comuna": "Antofagasta"}, "geometry": {"type": "Point", "coordinates": [-70.40132, -23.64713]}}, {"type": "Feature", "properties": {"nombre": "Taltal", "entidad": "Ciudad", "comuna": "Taltal"}, "geometry": {"type": "Point", "coordinates": [-70.47851, -25.4075]}}, {"type": "Feature", "properties": {"nombre": "Sierra Gorda", "entidad": "Aldea", "comuna": "Sierra Gorda"}, "geometry": {"type": "Point", "coordinates": [-69.32035, -22.89091]}}, {"type": "Feature", "properties": {"nombre": "Paposo", "entidad": "Aldea", "comuna": "Taltal"}, "geometry": {"type": "Point", "coordinates": [-70.46593, -25.00991]}}, {"type": "Feature", "properties": {"nombre": "Caleta Coloso", "entidad": "Aldea", "comuna": "Antofagasta"}, "geometry": {"type": "Point", "coordinates": [-70.46087, -23.7612]}}, {"type": "Feature", "properties": {"nombre": "Juan López", "entidad": "Aldea", "comuna": "Antofagasta"}, "geometry": {"type": "Point", "coordinates": [-70.53354, -23.51237]}}, {"type": "Feature", "properties": {"nombre": "Mejillones", "entidad": "Ciudad", "comuna": "Mejillones"}, "geometry": {"type": "Point", "coordinates": [-70.42607, -23.09203]}}, {"type": "Feature", "properties": {"nombre": "Tocopilla", "entidad": "Ciudad", "comuna": "Tocopilla"}, "geometry": {"type": "Point", "coordinates": [-70.20412, -22.09509]}}, {"type": "Feature", "properties": {"nombre": "Hornitos", "entidad": "Aldea", "comuna": "Mejillones"}, "geometry": {"type": "Point", "coordinates": [-70.28982, -22.91314]}}, {"type": "Feature", "properties": {"nombre": "San Francisco de Chiu-Chiu", "entidad": "Aldea", "comuna": "Calama"}, "geometry": {"type": "Point", "coordinates": [-68.65115, -22.34071]}}]}