{"type": "FeatureCollection", "features": [{"type": "Feature", "properties": {"nombre": "Sierra Gorda", "tipo": "place"}, "geometry": {"type": "Point", "coordinates": [-69.32001, -22.89168]}}, {"type": "Feature", "properties": {"nombre": "La Noria", "tipo": "place"}, "geometry": {"type": "Point", "coordinates": [-69.33529, -22.91143]}}, {"type": "Feature", "properties": {"nombre": "Eleuterio Ramírez", "tipo": "calle"}, "geometry": {"type": "Point", "coordinates": [-69.31799, -22.88946]}}, {"type": "Feature", "properties": {"nombre": "Bolívar", "tipo": "calle"}, "geometry": {"type": "Point", "coordinates": [-69.32022, -22.89123]}}, {"type": "Feature", "properties": {"nombre": "Jaime Guzmán", "tipo": "calle"}, "geometry": {"type": "Point", "coordinates": [-69.321, -22.89051]}}, {"type": "Feature", "properties": {"nombre": "Arturo Prat", "tipo": "calle"}, "geometry": {"type": "Point", "coordinates": [-69.31795, -22.89099]}}, {"type": "Feature", "properties": {"nombre": "Diego Portales", "tipo": "calle"}, "geometry": {"type": "Point", "coordinates": [-69.31949, -22.89199]}}, {"type": "Feature", "properties": {"nombre": "Santa María", "tipo": "calle"}, "geometry": {"type": "Point", "coordinates": [-69.32, -22.89258]}}, {"type": "Feature", "properties": {"nombre": "Eduardo Frei", "tipo": "calle"}, "geometry": {"type": "Point", "coordinates": [-69.31959, -22.89093]}}, {"type": "Feature", "properties": {"nombre": "Colón", "tipo": "calle"}, "geometry": {"type": "Point", "coordinates": [-69.31862, -22.89002]}}, {"type": "Feature", "properties": {"nombre": "Plaza Sierra Gorda", "tipo": "place"}, "geometry": {"type": "Point", "coordinates": [-69.3201, -22.89177]}}, {"type": "Feature", "properties": {"nombre": "Avenida Salvador Allende", "tipo": "calle"}, "geometry": {"type": "Point", "coordinates": [-69.32114, -22.8914]}}, {"type": "Feature", "properties": {"nombre": "José Santos Ossa", "tipo": "calle"}, "geometry": {"type": "Point", "coordinates": [-69.3194, -22.89271]}}, {"type": "Feature", "properties": {"nombre": "O'Higgins", "tipo": "calle"}, "geometry": {"type": "Point", "coordinates": [-69.31946, -22.89102]}}, {"type": "Feature", "properties": {"nombre": "Camino a Oficina Lina", "tipo": "calle"}, "geometry": {"type": "Point", "coordinates": [-69.31888, -22.8882]}}, {"type": "Feature", "properties": {"nombre": "Ruta 25", "tipo": "calle"}, "geometry": {"type": "Point", "coordinates": [-69.31433, -22.88425]}}, {"type": "Feature", "properties": {"nombre": "Caracoles", "tipo": "calle"}, "geometry": {"type": "Point", "coordinates": [-69.31892, -22.89065]}}], "_meta": {"ciudad": "Sierra Gorda", "fuente": "OpenStreetMap (ODbL) — extracción puntual Overpass"}}