{"type": "FeatureCollection", "features": [{"type": "Feature", "properties": {"nombre": "Caleta El Hueso", "tipo": "place"}, "geometry": {"type": "Point", "coordinates": [-70.4738, -25.39219]}}, {"type": "Feature", "properties": {"nombre": "Taltal", "tipo": "place"}, "geometry": {"type": "Point", "coordinates": [-70.48584, -25.40783]}}, {"type": "Feature", "properties": {"nombre": "Ilustre Municipalidad de Taltal", "tipo": "place"}, "geometry": {"type": "Point", "coordinates": [-70.48664, -25.40757]}}, {"type": "Feature", "properties": {"nombre": "Avenida Arturo Prat", "tipo": "calle"}, "geometry": {"type": "Point", "coordinates": [-70.4905, -25.40969]}}, {"type": "Feature", "properties": {"nombre": "Esmeralda", "tipo": "calle"}, "geometry": {"type": "Point", "coordinates": [-70.4877, -25.40709]}}, {"type": "Feature", "properties": {"nombre": "Vivar", "tipo": "calle"}, "geometry": {"type": "Point", "coordinates": [-70.4822, -25.41265]}}, {"type": "Feature", "properties": {"nombre": "República", "tipo": "calle"}, "geometry": {"type": "Point", "coordinates": [-70.48354, -25.41241]}}, {"type": "Feature", "properties": {"nombre": "Daniel Oliva", "tipo": "calle"}, "geometry": {"type": "Point", "coordinates": [-70.48974, -25.41022]}}, {"type": "Feature", "properties": {"nombre": "Sargento Aldea", "tipo": "calle"}, "geometry": {"type": "Point", "coordinates": [-70.48735, -25.41198]}}, {"type": "Feature", "properties": {"nombre": "Guillermo Matta", "tipo": "calle"}, "geometry": {"type": "Point", "coordinates": [-70.48867, -25.40845]}}, {"type": "Feature", "properties": {"nombre": "Pasaje La Puntilla", "tipo": "calle"}, "geometry": {"type": "Point", "coordinates": [-70.49051, -25.4104]}}, {"type": "Feature", "properties": {"nombre": "J.M Quiroz", "tipo": "calle"}, "geometry": {"type": "Point", "coordinates": [-70.49026, -25.41005]}}, {"type": "Feature", "properties": {"nombre": "Martínez", "tipo": "calle"}, "geometry": {"type": "Point", "coordinates": [-70.48493, -25.41255]}}, {"type": "Feature", "properties": {"nombre": "Doctor Olivares", "tipo": "calle"}, "geometry": {"type": "Point", "coordinates": [-70.48986, -25.40981]}}, {"type": "Feature", "properties": {"nombre": "Riquelme", "tipo": "calle"}, "geometry": {"type": "Point", "coordinates": [-70.48487, -25.40933]}}, {"type": "Feature", "properties": {"nombre": "Moreno", "tipo": "calle"}, "geometry": {"type": "Point", "coordinates": [-70.48839, -25.41002]}}, {"type": "Feature", "properties": {"nombre": "Thompson", "tipo": "calle"}, "geometry": {"type": "Point", "coordinates": [-70.48153, -25.41]}}, {"type": "Feature", "properties": {"nombre": "O'Higgins", "tipo": "calle"}, "geometry": {"type": "Point", "coordinates": [-70.47829, -25.41168]}}, {"type": "Feature", "properties": {"nombre": "Avenida Francisco Bilbao", "tipo": "calle"}, "geometry": {"type": "Point", "coordinates": [-70.48048, -25.40733]}}, {"type": "Feature", "properties": {"nombre": "Jorge Montt", "tipo": "calle"}, "geometry": {"type": "Point", "coordinates": [-70.48072, -25.4065]}}, {"type": "Feature", "properties": {"nombre": "23 de Enero", "tipo": "calle"}, "geometry": {"type": "Point", "coordinates": [-70.47321, -25.40436]}}, {"type": "Feature", "properties": {"nombre": "Manuel Rodríguez", "tipo": "calle"}, "geometry": {"type": "Point", "coordinates": [-70.47589, -25.4023]}}, {"type": "Feature", "properties": {"nombre": "Tucapel", "tipo": "calle"}, "geometry": {"type": "Point", "coordinates": [-70.47568, -25.40242]}}, {"type": "Feature", "properties": {"nombre": "Carlos Prenafeta", "tipo": "calle"}, "geometry": {"type": "Point", "coordinates": [-70.47338, -25.40346]}}, {"type": "Feature", "properties": {"nombre": "Lautaro Cordero Watters", "tipo": "calle"}, "geometry": {"type": "Point", "coordinates": [-70.47805, -25.40269]}}, {"type": "Feature", "properties": {"nombre": "Copiapó", "tipo": "calle"}, "geometry": {"type": "Point", "coordinates": [-70.47669, -25.40526]}}, {"type": "Feature", "properties": {"nombre": "Alonso de Ercilla", "tipo": "calle"}, "geometry": {"type": "Point", "coordinates": [-70.47731, -25.40389]}}, {"type": "Feature", "properties": {"nombre": "Sady Zañartu", "tipo": "calle"}, "geometry": {"type": "Point", "coordinates": [-70.47889, -25.40285]}}, {"type": "Feature", "properties": {"nombre": "Pasaje Isaias Peña Cuello", "tipo": "calle"}, "geometry": {"type": "Point", "coordinates": [-70.47821, -25.40242]}}, {"type": "Feature", "properties": {"nombre": "Pasaje Flor de Chile", "tipo": "calle"}, "geometry": {"type": "Point", "coordinates": [-70.47519, -25.41179]}}, {"type": "Feature", "properties": {"nombre": "Pasaje Lautaro", "tipo": "calle"}, "geometry": {"type": "Point", "coordinates": [-70.47507, -25.41203]}}, {"type": "Feature", "properties": {"nombre": "20 de Mayo", "tipo": "calle"}, "geometry": {"type": "Point", "coordinates": [-70.47642, -25.40939]}}, {"type": "Feature", "properties": {"nombre": "Pasaje Santa Luisa", "tipo": "calle"}, "geometry": {"type": "Point", "coordinates": [-70.47533, -25.41153]}}, {"type": "Feature", "properties": {"nombre": "Eusebio Lillo", "tipo": "calle"}, "geometry": {"type": "Point", "coordinates": [-70.47826, -25.40496]}}, {"type": "Feature", "properties": {"nombre": "Avenida Manuel Antonio Matta", "tipo": "calle"}, "geometry": {"type": "Point", "coordinates": [-70.47578, -25.40546]}}, {"type": "Feature", "properties": {"nombre": "Pasaje Belmor Rojas", "tipo": "calle"}, "geometry": {"type": "Point", "coordinates": [-70.4722, -25.40433]}}, {"type": "Feature", "properties": {"nombre": "Salvador Reyes", "tipo": "calle"}, "geometry": {"type": "Point", "coordinates": [-70.47248, -25.40423]}}, {"type": "Feature", "properties": {"nombre": "Pasaje Isabel Barrios Fordt", "tipo": "calle"}, "geometry": {"type": "Point", "coordinates": [-70.47225, -25.40295]}}, {"type": "Feature", "properties": {"nombre": "Pasaje Horacio Valderrama", "tipo": "calle"}, "geometry": {"type": "Point", "coordinates": [-70.47208, -25.40252]}}, {"type": "Feature", "properties": {"nombre": "Mario Bahamonde", "tipo": "calle"}, "geometry": {"type": "Point", "coordinates": [-70.47296, -25.40268]}}, {"type": "Feature", "properties": {"nombre": "Avenida Cementerio", "tipo": "calle"}, "geometry": {"type": "Point", "coordinates": [-70.47526, -25.40574]}}, {"type": "Feature", "properties": {"nombre": "Nicolás Santana", "tipo": "calle"}, "geometry": {"type": "Point", "coordinates": [-70.47361, -25.40379]}}, {"type": "Feature", "properties": {"nombre": "V. Quinteros", "tipo": "calle"}, "geometry": {"type": "Point", "coordinates": [-70.47323, -25.40394]}}, {"type": "Feature", "properties": {"nombre": "Luis Godoy", "tipo": "calle"}, "geometry": {"type": "Point", "coordinates": [-70.47346, -25.40541]}}, {"type": "Feature", "properties": {"nombre": "La Exploradora", "tipo": "calle"}, "geometry": {"type": "Point", "coordinates": [-70.47543, -25.40749]}}, {"type": "Feature", "properties": {"nombre": "Altamira", "tipo": "calle"}, "geometry": {"type": "Point", "coordinates": [-70.47552, -25.40824]}}, {"type": "Feature", "properties": {"nombre": "La Sotta", "tipo": "calle"}, "geometry": {"type": "Point", "coordinates": [-70.47626, -25.40659]}}, {"type": "Feature", "properties": {"nombre": "Pasaje Capitán Trizano", "tipo": "calle"}, "geometry": {"type": "Point", "coordinates": [-70.47175, -25.4001]}}, {"type": "Feature", "properties": {"nombre": "Pasaje Alessandri", "tipo": "calle"}, "geometry": {"type": "Point", "coordinates": [-70.47201, -25.39946]}}, {"type": "Feature", "properties": {"nombre": "Pasaje Humberto Díaz", "tipo": "calle"}, "geometry": {"type": "Point", "coordinates": [-70.47163, -25.39923]}}, {"type": "Feature", "properties": {"nombre": "Pasaje B. Pinto", "tipo": "calle"}, "geometry": {"type": "Point", "coordinates": [-70.4721, -25.40028]}}, {"type": "Feature", "properties": {"nombre": "Pasaje Santo Domingo", "tipo": "calle"}, "geometry": {"type": "Point", "coordinates": [-70.47512, -25.40718]}}, {"type": "Feature", "properties": {"nombre": "Pasaje Aguirre Cerda", "tipo": "calle"}, "geometry": {"type": "Point", "coordinates": [-70.47258, -25.40143]}}, {"type": "Feature", "properties": {"nombre": "Teniente Merino", "tipo": "calle"}, "geometry": {"type": "Point", "coordinates": [-70.47211, -25.40147]}}, {"type": "Feature", "properties": {"nombre": "Dagoberto Godoy", "tipo": "calle"}, "geometry": {"type": "Point", "coordinates": [-70.47257, -25.40099]}}, {"type": "Feature", "properties": {"nombre": "Juan Antonio Ríos", "tipo": "calle"}, "geometry": {"type": "Point", "coordinates": [-70.47188, -25.40053]}}, {"type": "Feature", "properties": {"nombre": "Avenida Salvador Allende", "tipo": "calle"}, "geometry": {"type": "Point", "coordinates": [-70.47317, -25.40746]}}, {"type": "Feature", "properties": {"nombre": "Avenida Bonilla", "tipo": "calle"}, "geometry": {"type": "Point", "coordinates": [-70.47265, -25.40006]}}, {"type": "Feature", "properties": {"nombre": "Pasaje Dávila Baeza", "tipo": "calle"}, "geometry": {"type": "Point", "coordinates": [-70.47215, -25.40055]}}, {"type": "Feature", "properties": {"nombre": "Progreso", "tipo": "calle"}, "geometry": {"type": "Point", "coordinates": [-70.47696, -25.40825]}}, {"type": "Feature", "properties": {"nombre": "Carrera", "tipo": "calle"}, "geometry": {"type": "Point", "coordinates": [-70.48827, -25.41182]}}, {"type": "Feature", "properties": {"nombre": "Camino a Punta San Pedro", "tipo": "calle"}, "geometry": {"type": "Point", "coordinates": [-70.51753, -25.41132]}}, {"type": "Feature", "properties": {"nombre": "Serrano", "tipo": "calle"}, "geometry": {"type": "Point", "coordinates": [-70.48915, -25.41041]}}, {"type": "Feature", "properties": {"nombre": "Atacama", "tipo": "calle"}, "geometry": {"type": "Point", "coordinates": [-70.4842, -25.40493]}}, {"type": "Feature", "properties": {"nombre": "Plaza de Armas", "tipo": "place"}, "geometry": {"type": "Point", "coordinates": [-70.4857, -25.408]}}, {"type": "Feature", "properties": {"nombre": "Ramírez", "tipo": "calle"}, "geometry": {"type": "Point", "coordinates": [-70.48248, -25.41167]}}, {"type": "Feature", "properties": {"nombre": "San Martín", "tipo": "calle"}, "geometry": {"type": "Point", "coordinates": [-70.48328, -25.40842]}}, {"type": "Feature", "properties": {"nombre": "Torreblanca", "tipo": "calle"}, "geometry": {"type": "Point", "coordinates": [-70.48672, -25.40782]}}, {"type": "Feature", "properties": {"nombre": "Matancillas", "tipo": "calle"}, "geometry": {"type": "Point", "coordinates": [-70.47804, -25.41112]}}, {"type": "Feature", "properties": {"nombre": "Parque Costanera Taltal", "tipo": "place"}, "geometry": {"type": "Point", "coordinates": [-70.48681, -25.40624]}}, {"type": "Feature", "properties": {"nombre": "Tiro Al Blanco 1", "tipo": "calle"}, "geometry": {"type": "Point", "coordinates": [-70.47888, -25.41366]}}, {"type": "Feature", "properties": {"nombre": "Tiro Al Blanco 2", "tipo": "calle"}, "geometry": {"type": "Point", "coordinates": [-70.47817, -25.41356]}}, {"type": "Feature", "properties": {"nombre": "Cusmita", "tipo": "calle"}, "geometry": {"type": "Point", "coordinates": [-70.47619, -25.40486]}}, {"type": "Feature", "properties": {"nombre": "Pasaje Santos Bahamondes", "tipo": "calle"}, "geometry": {"type": "Point", "coordinates": [-70.47272, -25.40501]}}, {"type": "Feature", "properties": {"nombre": "Pasaje Carrizalillo", "tipo": "calle"}, "geometry": {"type": "Point", "coordinates": [-70.47321, -25.40607]}}, {"type": "Feature", "properties": {"nombre": "Latorre", "tipo": "calle"}, "geometry": {"type": "Point", "coordinates": [-70.47268, -25.39909]}}, {"type": "Feature", "properties": {"nombre": "Pasaje Amancay", "tipo": "calle"}, "geometry": {"type": "Point", "coordinates": [-70.47377, -25.40723]}}, {"type": "Feature", "properties": {"nombre": "Pasaje Las Tipias", "tipo": "calle"}, "geometry": {"type": "Point", "coordinates": [-70.47357, -25.40682]}}, {"type": "Feature", "properties": {"nombre": "Pasaje Juncal", "tipo": "calle"}, "geometry": {"type": "Point", "coordinates": [-70.47368, -25.40751]}}, {"type": "Feature", "properties": {"nombre": "Parque Del Tren", "tipo": "place"}, "geometry": {"type": "Point", "coordinates": [-70.48226, -25.40446]}}, {"type": "Feature", "properties": {"nombre": "Pasaje Yumbes", "tipo": "calle"}, "geometry": {"type": "Point", "coordinates": [-70.4729, -25.40539]}}, {"type": "Feature", "properties": {"nombre": "Pasaje Perales", "tipo": "calle"}, "geometry": {"type": "Point", "coordinates": [-70.47306, -25.40576]}}, {"type": "Feature", "properties": {"nombre": "Pasaje Los Lirios", "tipo": "calle"}, "geometry": {"type": "Point", "coordinates": [-70.47341, -25.40648]}}, {"type": "Feature", "properties": {"nombre": "Las Verbenas", "tipo": "calle"}, "geometry": {"type": "Point", "coordinates": [-70.47345, -25.40622]}}, {"type": "Feature", "properties": {"nombre": "Maipú", "tipo": "calle"}, "geometry": {"type": "Point", "coordinates": [-70.47607, -25.40433]}}, {"type": "Feature", "properties": {"nombre": "Plaza San Lorenzo", "tipo": "place"}, "geometry": {"type": "Point", "coordinates": [-70.47893, -25.4031]}}, {"type": "Feature", "properties": {"nombre": "Parque Vigil", "tipo": "place"}, "geometry": {"type": "Point", "coordinates": [-70.47236, -25.4012]}}, {"type": "Feature", "properties": {"nombre": "René Schneider", "tipo": "calle"}, "geometry": {"type": "Point", "coordinates": [-70.47163, -25.40149]}}, {"type": "Feature", "properties": {"nombre": "Avenida Carlos Ibánez del Campo", "tipo": "calle"}, "geometry": {"type": "Point", "coordinates": [-70.47259, -25.40188]}}, {"type": "Feature", "properties": {"nombre": "Pasaje Erasmo Bernales", "tipo": "calle"}, "geometry": {"type": "Point", "coordinates": [-70.47209, -25.40347]}}, {"type": "Feature", "properties": {"nombre": "Piques", "tipo": "calle"}, "geometry": {"type": "Point", "coordinates": [-70.47579, -25.40087]}}, {"type": "Feature", "properties": {"nombre": "Pasaje Entel", "tipo": "calle"}, "geometry": {"type": "Point", "coordinates": [-70.47821, -25.41092]}}, {"type": "Feature", "properties": {"nombre": "Pasaje Atacama", "tipo": "calle"}, "geometry": {"type": "Point", "coordinates": [-70.47917, -25.41187]}}, {"type": "Feature", "properties": {"nombre": "La Pincolla", "tipo": "place"}, "geometry": {"type": "Point", "coordinates": [-70.47195, -25.40415]}}, {"type": "Feature", "properties": {"nombre": "Parque horacio Valderrama", "tipo": "place"}, "geometry": {"type": "Point", "coordinates": [-70.47161, -25.40245]}}, {"type": "Feature", "properties": {"nombre": "15 de Abril", "tipo": "calle"}, "geometry": {"type": "Point", "coordinates": [-70.47018, -25.40496]}}, {"type": "Feature", "properties": {"nombre": "Francisco Javier", "tipo": "calle"}, "geometry": {"type": "Point", "coordinates": [-70.47117, -25.40327]}}, {"type": "Feature", "properties": {"nombre": "Castilla", "tipo": "calle"}, "geometry": {"type": "Point", "coordinates": [-70.4708, -25.4032]}}, {"type": "Feature", "properties": {"nombre": "Miramar", "tipo": "calle"}, "geometry": {"type": "Point", "coordinates": [-70.47018, -25.4031]}}, {"type": "Feature", "properties": {"nombre": "Piramide Alta", "tipo": "calle"}, "geometry": {"type": "Point", "coordinates": [-70.47417, -25.41117]}}, {"type": "Feature", "properties": {"nombre": "Ruta 1", "tipo": "calle"}, "geometry": {"type": "Point", "coordinates": [-70.47417, -25.41374]}}, {"type": "Feature", "properties": {"nombre": "Eleuterio Ramírez", "tipo": "calle"}, "geometry": {"type": "Point", "coordinates": [-70.48427, -25.40903]}}, {"type": "Feature", "properties": {"nombre": "Jardines del Cerro", "tipo": "place"}, "geometry": {"type": "Point", "coordinates": [-70.4729, -25.40671]}}, {"type": "Feature", "properties": {"nombre": "Plaza del Cementerio", "tipo": "place"}, "geometry": {"type": "Point", "coordinates": [-70.47578, -25.40583]}}, {"type": "Feature", "properties": {"nombre": "El Hueso", "tipo": "calle"}, "geometry": {"type": "Point", "coordinates": [-70.45159, -25.40802]}}, {"type": "Feature", "properties": {"nombre": "Plaza Jardines del Cerro", "tipo": "place"}, "geometry": {"type": "Point", "coordinates": [-70.47386, -25.40647]}}, {"type": "Feature", "properties": {"nombre": "Paseo Nuevo Borde Costero de Taltal", "tipo": "place"}, "geometry": {"type": "Point", "coordinates": [-70.4815, -25.40216]}}, {"type": "Feature", "properties": {"nombre": "12 de Junio", "tipo": "calle"}, "geometry": {"type": "Point", "coordinates": [-70.47056, -25.40421]}}, {"type": "Feature", "properties": {"nombre": "Plazoleta Yumbes", "tipo": "place"}, "geometry": {"type": "Point", "coordinates": [-70.473, -25.4055]}}, {"type": "Feature", "properties": {"nombre": "La Pirámide", "tipo": "calle"}, "geometry": {"type": "Point", "coordinates": [-70.47433, -25.41493]}}], "_meta": {"ciudad": "Taltal", "fuente": "OpenStreetMap (ODbL) — extracción puntual Overpass"}}