{"type": "FeatureCollection", "features": [{"type": "Feature", "properties": {"nombre": "Tocopilla", "tipo": "place"}, "geometry": {"type": "Point", "coordinates": [-70.19607, -22.08872]}}, {"type": "Feature", "properties": {"nombre": "Ilustre Municipalidad de Tocopilla", "tipo": "place"}, "geometry": {"type": "Point", "coordinates": [-70.20085, -22.09328]}}, {"type": "Feature", "properties": {"nombre": "Villa Ayquina", "tipo": "place"}, "geometry": {"type": "Point", "coordinates": [-70.18689, -22.08495]}}, {"type": "Feature", "properties": {"nombre": "Caleta Boy", "tipo": "place"}, "geometry": {"type": "Point", "coordinates": [-70.21416, -22.10887]}}, {"type": "Feature", "properties": {"nombre": "San Martín", "tipo": "calle"}, "geometry": {"type": "Point", "coordinates": [-70.20596, -22.09487]}}, {"type": "Feature", "properties": {"nombre": "5° Poniente", "tipo": "calle"}, "geometry": {"type": "Point", "coordinates": [-70.1947, -22.08431]}}, {"type": "Feature", "properties": {"nombre": "Teniente Uribe", "tipo": "calle"}, "geometry": {"type": "Point", "coordinates": [-70.18878, -22.08859]}}, {"type": "Feature", "properties": {"nombre": "Luis Cruz Martínez", "tipo": "calle"}, "geometry": {"type": "Point", "coordinates": [-70.19307, -22.08719]}}, {"type": "Feature", "properties": {"nombre": "Pasaje Las Rosas", "tipo": "calle"}, "geometry": {"type": "Point", "coordinates": [-70.1833, -22.08338]}}, {"type": "Feature", "properties": {"nombre": "Las Dalias", "tipo": "calle"}, "geometry": {"type": "Point", "coordinates": [-70.18285, -22.08341]}}, {"type": "Feature", "properties": {"nombre": "Ignacio Carrera Pinto", "tipo": "calle"}, "geometry": {"type": "Point", "coordinates": [-70.19472, -22.08532]}}, {"type": "Feature", "properties": {"nombre": "Iquique", "tipo": "calle"}, "geometry": {"type": "Point", "coordinates": [-70.19073, -22.08085]}}, {"type": "Feature", "properties": {"nombre": "Pasaje Las Lilas", "tipo": "calle"}, "geometry": {"type": "Point", "coordinates": [-70.18245, -22.08292]}}, {"type": "Feature", "properties": {"nombre": "Miraflores", "tipo": "calle"}, "geometry": {"type": "Point", "coordinates": [-70.18871, -22.08056]}}, {"type": "Feature", "properties": {"nombre": "Pasaje Rebolledo", "tipo": "calle"}, "geometry": {"type": "Point", "coordinates": [-70.18501, -22.08373]}}, {"type": "Feature", "properties": {"nombre": "11 de Septiembre", "tipo": "calle"}, "geometry": {"type": "Point", "coordinates": [-70.18444, -22.08326]}}, {"type": "Feature", "properties": {"nombre": "18 de Septiembre", "tipo": "calle"}, "geometry": {"type": "Point", "coordinates": [-70.19503, -22.08813]}}, {"type": "Feature", "properties": {"nombre": "Santa Rosa", "tipo": "calle"}, "geometry": {"type": "Point", "coordinates": [-70.19283, -22.08919]}}, {"type": "Feature", "properties": {"nombre": "Dolores", "tipo": "calle"}, "geometry": {"type": "Point", "coordinates": [-70.19141, -22.08741]}}, {"type": "Feature", "properties": {"nombre": "3° Poniente", "tipo": "calle"}, "geometry": {"type": "Point", "coordinates": [-70.18896, -22.0841]}}, {"type": "Feature", "properties": {"nombre": "Chorrillos", "tipo": "calle"}, "geometry": {"type": "Point", "coordinates": [-70.18576, -22.08528]}}, {"type": "Feature", "properties": {"nombre": "Alexis Sánchez", "tipo": "calle"}, "geometry": {"type": "Point", "coordinates": [-70.1923, -22.08475]}}, {"type": "Feature", "properties": {"nombre": "Sargento Aldea", "tipo": "calle"}, "geometry": {"type": "Point", "coordinates": [-70.20585, -22.09648]}}, {"type": "Feature", "properties": {"nombre": "Barros Arana", "tipo": "calle"}, "geometry": {"type": "Point", "coordinates": [-70.202, -22.09195]}}, {"type": "Feature", "properties": {"nombre": "Pasaje Sucre", "tipo": "calle"}, "geometry": {"type": "Point", "coordinates": [-70.19076, -22.08727]}}, {"type": "Feature", "properties": {"nombre": "Gómez Carreño", "tipo": "calle"}, "geometry": {"type": "Point", "coordinates": [-70.18928, -22.08635]}}, {"type": "Feature", "properties": {"nombre": "Almirante Riveros", "tipo": "calle"}, "geometry": {"type": "Point", "coordinates": [-70.19337, -22.08027]}}, {"type": "Feature", "properties": {"nombre": "Orella", "tipo": "calle"}, "geometry": {"type": "Point", "coordinates": [-70.19301, -22.07924]}}, {"type": "Feature", "properties": {"nombre": "Pasaje Matta", "tipo": "calle"}, "geometry": {"type": "Point", "coordinates": [-70.1905, -22.08841]}}, {"type": "Feature", "properties": {"nombre": "Del Rosario", "tipo": "calle"}, "geometry": {"type": "Point", "coordinates": [-70.19187, -22.08859]}}, {"type": "Feature", "properties": {"nombre": "Sucre", "tipo": "calle"}, "geometry": {"type": "Point", "coordinates": [-70.19112, -22.08688]}}, {"type": "Feature", "properties": {"nombre": "Esmeralda", "tipo": "calle"}, "geometry": {"type": "Point", "coordinates": [-70.18457, -22.08383]}}, {"type": "Feature", "properties": {"nombre": "Carrera", "tipo": "calle"}, "geometry": {"type": "Point", "coordinates": [-70.19377, -22.08978]}}, {"type": "Feature", "properties": {"nombre": "O'Higgins", "tipo": "calle"}, "geometry": {"type": "Point", "coordinates": [-70.1938, -22.09148]}}, {"type": "Feature", "properties": {"nombre": "Colón", "tipo": "calle"}, "geometry": {"type": "Point", "coordinates": [-70.20067, -22.09226]}}, {"type": "Feature", "properties": {"nombre": "Pasaje Esmeralda", "tipo": "calle"}, "geometry": {"type": "Point", "coordinates": [-70.1926, -22.0915]}}, {"type": "Feature", "properties": {"nombre": "Guillermo Matta", "tipo": "calle"}, "geometry": {"type": "Point", "coordinates": [-70.20111, -22.0965]}}, {"type": "Feature", "properties": {"nombre": "Bolívar", "tipo": "calle"}, "geometry": {"type": "Point", "coordinates": [-70.20159, -22.0946]}}, {"type": "Feature", "properties": {"nombre": "Baquedano", "tipo": "calle"}, "geometry": {"type": "Point", "coordinates": [-70.20292, -22.09486]}}, {"type": "Feature", "properties": {"nombre": "Ruta B-160", "tipo": "calle"}, "geometry": {"type": "Point", "coordinates": [-70.18674, -22.12761]}}, {"type": "Feature", "properties": {"nombre": "Lynch", "tipo": "calle"}, "geometry": {"type": "Point", "coordinates": [-70.21178, -22.10674]}}, {"type": "Feature", "properties": {"nombre": "Thompson", "tipo": "calle"}, "geometry": {"type": "Point", "coordinates": [-70.21259, -22.10744]}}, {"type": "Feature", "properties": {"nombre": "Rancagua", "tipo": "calle"}, "geometry": {"type": "Point", "coordinates": [-70.21057, -22.11133]}}, {"type": "Feature", "properties": {"nombre": "Plaza Carlos Condell", "tipo": "place"}, "geometry": {"type": "Point", "coordinates": [-70.20138, -22.09408]}}, {"type": "Feature", "properties": {"nombre": "Pasaje Combate Casma", "tipo": "calle"}, "geometry": {"type": "Point", "coordinates": [-70.21273, -22.10518]}}, {"type": "Feature", "properties": {"nombre": "Combate Casma", "tipo": "calle"}, "geometry": {"type": "Point", "coordinates": [-70.21251, -22.10743]}}, {"type": "Feature", "properties": {"nombre": "Julio Montt Salamanca", "tipo": "calle"}, "geometry": {"type": "Point", "coordinates": [-70.19374, -22.08441]}}, {"type": "Feature", "properties": {"nombre": "Pasaje Placilla Sur", "tipo": "calle"}, "geometry": {"type": "Point", "coordinates": [-70.19139, -22.08521]}}, {"type": "Feature", "properties": {"nombre": "7 Poniente", "tipo": "calle"}, "geometry": {"type": "Point", "coordinates": [-70.19355, -22.0818]}}, {"type": "Feature", "properties": {"nombre": "Pasaje 39", "tipo": "calle"}, "geometry": {"type": "Point", "coordinates": [-70.19234, -22.08725]}}, {"type": "Feature", "properties": {"nombre": "Pasaje Ejército", "tipo": "calle"}, "geometry": {"type": "Point", "coordinates": [-70.19271, -22.0791]}}, {"type": "Feature", "properties": {"nombre": "Pasaje Teniente Merino", "tipo": "calle"}, "geometry": {"type": "Point", "coordinates": [-70.19317, -22.07826]}}, {"type": "Feature", "properties": {"nombre": "Las Brisas", "tipo": "calle"}, "geometry": {"type": "Point", "coordinates": [-70.19317, -22.0822]}}, {"type": "Feature", "properties": {"nombre": "Isabel Riquelme", "tipo": "calle"}, "geometry": {"type": "Point", "coordinates": [-70.18994, -22.0816]}}, {"type": "Feature", "properties": {"nombre": "Pasaje Orella", "tipo": "calle"}, "geometry": {"type": "Point", "coordinates": [-70.18826, -22.08259]}}, {"type": "Feature", "properties": {"nombre": "Pasaje Lautaro", "tipo": "calle"}, "geometry": {"type": "Point", "coordinates": [-70.18674, -22.08341]}}, {"type": "Feature", "properties": {"nombre": "M. Macuada", "tipo": "calle"}, "geometry": {"type": "Point", "coordinates": [-70.19316, -22.08801]}}, {"type": "Feature", "properties": {"nombre": "Pasaje Chorrillos", "tipo": "calle"}, "geometry": {"type": "Point", "coordinates": [-70.18804, -22.08199]}}, {"type": "Feature", "properties": {"nombre": "Chuquicamata", "tipo": "calle"}, "geometry": {"type": "Point", "coordinates": [-70.19221, -22.07995]}}, {"type": "Feature", "properties": {"nombre": "Arica", "tipo": "calle"}, "geometry": {"type": "Point", "coordinates": [-70.19033, -22.08122]}}, {"type": "Feature", "properties": {"nombre": "Pasaje 3° Poniente", "tipo": "calle"}, "geometry": {"type": "Point", "coordinates": [-70.18895, -22.08343]}}, {"type": "Feature", "properties": {"nombre": "Pasaje Javiera Carrera", "tipo": "calle"}, "geometry": {"type": "Point", "coordinates": [-70.18932, -22.08181]}}, {"type": "Feature", "properties": {"nombre": "Pasaje Río Loa", "tipo": "calle"}, "geometry": {"type": "Point", "coordinates": [-70.18828, -22.08909]}}, {"type": "Feature", "properties": {"nombre": "Pasaje Lauca", "tipo": "calle"}, "geometry": {"type": "Point", "coordinates": [-70.19495, -22.08341]}}, {"type": "Feature", "properties": {"nombre": "Lonquimay", "tipo": "calle"}, "geometry": {"type": "Point", "coordinates": [-70.19397, -22.08075]}}, {"type": "Feature", "properties": {"nombre": "Barriento", "tipo": "calle"}, "geometry": {"type": "Point", "coordinates": [-70.19556, -22.0857]}}, {"type": "Feature", "properties": {"nombre": "Cienfuegos", "tipo": "calle"}, "geometry": {"type": "Point", "coordinates": [-70.19736, -22.0885]}}, {"type": "Feature", "properties": {"nombre": "Caliche", "tipo": "calle"}, "geometry": {"type": "Point", "coordinates": [-70.19575, -22.09294]}}, {"type": "Feature", "properties": {"nombre": "Pasaje 104", "tipo": "calle"}, "geometry": {"type": "Point", "coordinates": [-70.1948, -22.08484]}}, {"type": "Feature", "properties": {"nombre": "Pasaje O'Higgins", "tipo": "calle"}, "geometry": {"type": "Point", "coordinates": [-70.19476, -22.09124]}}, {"type": "Feature", "properties": {"nombre": "Pasaje San Pedro de Atacama", "tipo": "calle"}, "geometry": {"type": "Point", "coordinates": [-70.19372, -22.07919]}}, {"type": "Feature", "properties": {"nombre": "Pasaje Láscar", "tipo": "calle"}, "geometry": {"type": "Point", "coordinates": [-70.19325, -22.08098]}}, {"type": "Feature", "properties": {"nombre": "Vergara", "tipo": "calle"}, "geometry": {"type": "Point", "coordinates": [-70.19598, -22.09271]}}, {"type": "Feature", "properties": {"nombre": "Ministro Portales", "tipo": "calle"}, "geometry": {"type": "Point", "coordinates": [-70.21185, -22.10243]}}, {"type": "Feature", "properties": {"nombre": "Pasaje Camarones", "tipo": "calle"}, "geometry": {"type": "Point", "coordinates": [-70.18792, -22.08879]}}, {"type": "Feature", "properties": {"nombre": "Bergantín Aguila", "tipo": "calle"}, "geometry": {"type": "Point", "coordinates": [-70.21289, -22.10124]}}, {"type": "Feature", "properties": {"nombre": "Pasaje Gómez Carreño", "tipo": "calle"}, "geometry": {"type": "Point", "coordinates": [-70.18732, -22.08769]}}, {"type": "Feature", "properties": {"nombre": "Villarrica", "tipo": "calle"}, "geometry": {"type": "Point", "coordinates": [-70.19374, -22.08044]}}, {"type": "Feature", "properties": {"nombre": "3 Poniente", "tipo": "calle"}, "geometry": {"type": "Point", "coordinates": [-70.19496, -22.08614]}}, {"type": "Feature", "properties": {"nombre": "Juan Daniel Ruiz", "tipo": "calle"}, "geometry": {"type": "Point", "coordinates": [-70.1944, -22.08665]}}, {"type": "Feature", "properties": {"nombre": "Calama", "tipo": "calle"}, "geometry": {"type": "Point", "coordinates": [-70.19422, -22.08129]}}, {"type": "Feature", "properties": {"nombre": "Pasaje Duendes", "tipo": "calle"}, "geometry": {"type": "Point", "coordinates": [-70.1964, -22.08564]}}, {"type": "Feature", "properties": {"nombre": "Rodríguez", "tipo": "calle"}, "geometry": {"type": "Point", "coordinates": [-70.19518, -22.08573]}}, {"type": "Feature", "properties": {"nombre": "Pasaje Washington", "tipo": "calle"}, "geometry": {"type": "Point", "coordinates": [-70.19651, -22.09458]}}, {"type": "Feature", "properties": {"nombre": "Freire", "tipo": "calle"}, "geometry": {"type": "Point", "coordinates": [-70.19752, -22.09229]}}, {"type": "Feature", "properties": {"nombre": "Serrano", "tipo": "calle"}, "geometry": {"type": "Point", "coordinates": [-70.20382, -22.09555]}}, {"type": "Feature", "properties": {"nombre": "El Salvador", "tipo": "calle"}, "geometry": {"type": "Point", "coordinates": [-70.2134, -22.10897]}}, {"type": "Feature", "properties": {"nombre": "Hyatt", "tipo": "calle"}, "geometry": {"type": "Point", "coordinates": [-70.21231, -22.10693]}}, {"type": "Feature", "properties": {"nombre": "Pasaje Puyehue", "tipo": "calle"}, "geometry": {"type": "Point", "coordinates": [-70.20891, -22.11005]}}, {"type": "Feature", "properties": {"nombre": "Videla", "tipo": "calle"}, "geometry": {"type": "Point", "coordinates": [-70.21108, -22.10797]}}, {"type": "Feature", "properties": {"nombre": "8 de Octubre", "tipo": "calle"}, "geometry": {"type": "Point", "coordinates": [-70.2135, -22.10614]}}, {"type": "Feature", "properties": {"nombre": "Darío Salas", "tipo": "calle"}, "geometry": {"type": "Point", "coordinates": [-70.21244, -22.11438]}}, {"type": "Feature", "properties": {"nombre": "Angamos", "tipo": "calle"}, "geometry": {"type": "Point", "coordinates": [-70.21056, -22.11233]}}, {"type": "Feature", "properties": {"nombre": "San Pablo", "tipo": "calle"}, "geometry": {"type": "Point", "coordinates": [-70.20936, -22.10591]}}, {"type": "Feature", "properties": {"nombre": "Pasaje Tronador", "tipo": "calle"}, "geometry": {"type": "Point", "coordinates": [-70.20982, -22.11052]}}, {"type": "Feature", "properties": {"nombre": "Combate Papudo", "tipo": "calle"}, "geometry": {"type": "Point", "coordinates": [-70.2117, -22.10423]}}, {"type": "Feature", "properties": {"nombre": "Felipe Ojeda", "tipo": "calle"}, "geometry": {"type": "Point", "coordinates": [-70.21036, -22.11006]}}, {"type": "Feature", "properties": {"nombre": "Blas Segundo Téllez", "tipo": "calle"}, "geometry": {"type": "Point", "coordinates": [-70.21168, -22.10895]}}, {"type": "Feature", "properties": {"nombre": "Pasaje Calbuco", "tipo": "calle"}, "geometry": {"type": "Point", "coordinates": [-70.20942, -22.10971]}}, {"type": "Feature", "properties": {"nombre": "John F. Kennedy", "tipo": "calle"}, "geometry": {"type": "Point", "coordinates": [-70.21209, -22.11284]}}, {"type": "Feature", "properties": {"nombre": "Williams Rebolledo", "tipo": "calle"}, "geometry": {"type": "Point", "coordinates": [-70.21479, -22.10678]}}, {"type": "Feature", "properties": {"nombre": "Combate Abtao", "tipo": "calle"}, "geometry": {"type": "Point", "coordinates": [-70.2117, -22.10386]}}, {"type": "Feature", "properties": {"nombre": "Avenida Potrerillos", "tipo": "calle"}, "geometry": {"type": "Point", "coordinates": [-70.21025, -22.10956]}}, {"type": "Feature", "properties": {"nombre": "Lord Cochrane", "tipo": "calle"}, "geometry": {"type": "Point", "coordinates": [-70.21369, -22.10319]}}, {"type": "Feature", "properties": {"nombre": "Condell", "tipo": "calle"}, "geometry": {"type": "Point", "coordinates": [-70.21174, -22.11318]}}, {"type": "Feature", "properties": {"nombre": "Caletones", "tipo": "calle"}, "geometry": {"type": "Point", "coordinates": [-70.21129, -22.11029]}}, {"type": "Feature", "properties": {"nombre": "Pasaje Corbeta Covadonga", "tipo": "calle"}, "geometry": {"type": "Point", "coordinates": [-70.21012, -22.10878]}}, {"type": "Feature", "properties": {"nombre": "Barquito", "tipo": "calle"}, "geometry": {"type": "Point", "coordinates": [-70.21311, -22.10874]}}, {"type": "Feature", "properties": {"nombre": "Escuela Naval", "tipo": "calle"}, "geometry": {"type": "Point", "coordinates": [-70.21404, -22.10634]}}, {"type": "Feature", "properties": {"nombre": "Pasaje Tacora", "tipo": "calle"}, "geometry": {"type": "Point", "coordinates": [-70.20978, -22.10952]}}, {"type": "Feature", "properties": {"nombre": "La Exótica", "tipo": "calle"}, "geometry": {"type": "Point", "coordinates": [-70.21121, -22.11119]}}, {"type": "Feature", "properties": {"nombre": "Pasaje Isluga", "tipo": "calle"}, "geometry": {"type": "Point", "coordinates": [-70.20894, -22.10938]}}, {"type": "Feature", "properties": {"nombre": "El Teniente", "tipo": "calle"}, "geometry": {"type": "Point", "coordinates": [-70.21334, -22.10881]}}, {"type": "Feature", "properties": {"nombre": "Julio Fernández", "tipo": "calle"}, "geometry": {"type": "Point", "coordinates": [-70.20949, -22.10525]}}, {"type": "Feature", "properties": {"nombre": "Alexander Kurtovic", "tipo": "calle"}, "geometry": {"type": "Point", "coordinates": [-70.20968, -22.10477]}}, {"type": "Feature", "properties": {"nombre": "Pasaje Batalla de Tarapacá", "tipo": "calle"}, "geometry": {"type": "Point", "coordinates": [-70.20986, -22.10647]}}, {"type": "Feature", "properties": {"nombre": "Pasaje Combate de Germania", "tipo": "calle"}, "geometry": {"type": "Point", "coordinates": [-70.21143, -22.10809]}}, {"type": "Feature", "properties": {"nombre": "Pasaje Combate Punta Gruesa", "tipo": "calle"}, "geometry": {"type": "Point", "coordinates": [-70.21033, -22.10749]}}, {"type": "Feature", "properties": {"nombre": "Pasaje Combate de Chipana", "tipo": "calle"}, "geometry": {"type": "Point", "coordinates": [-70.21005, -22.10758]}}, {"type": "Feature", "properties": {"nombre": "Pasaje Combate de la Concepción", "tipo": "calle"}, "geometry": {"type": "Point", "coordinates": [-70.21008, -22.10686]}}, {"type": "Feature", "properties": {"nombre": "Combate de Papudo", "tipo": "calle"}, "geometry": {"type": "Point", "coordinates": [-70.21036, -22.10725]}}, {"type": "Feature", "properties": {"nombre": "Pasaje Combate de Angamos", "tipo": "calle"}, "geometry": {"type": "Point", "coordinates": [-70.21008, -22.10777]}}, {"type": "Feature", "properties": {"nombre": "Marcos de la Vega", "tipo": "calle"}, "geometry": {"type": "Point", "coordinates": [-70.21136, -22.11246]}}, {"type": "Feature", "properties": {"nombre": "Echiburú", "tipo": "calle"}, "geometry": {"type": "Point", "coordinates": [-70.21139, -22.11372]}}, {"type": "Feature", "properties": {"nombre": "Andrés Bello", "tipo": "calle"}, "geometry": {"type": "Point", "coordinates": [-70.21183, -22.11318]}}, {"type": "Feature", "properties": {"nombre": "Sagasca", "tipo": "calle"}, "geometry": {"type": "Point", "coordinates": [-70.21165, -22.11051]}}, {"type": "Feature", "properties": {"nombre": "Caya", "tipo": "calle"}, "geometry": {"type": "Point", "coordinates": [-70.21204, -22.1108]}}, {"type": "Feature", "properties": {"nombre": "Andina", "tipo": "calle"}, "geometry": {"type": "Point", "coordinates": [-70.21247, -22.10974]}}, {"type": "Feature", "properties": {"nombre": "Corbeta Esmeralda", "tipo": "calle"}, "geometry": {"type": "Point", "coordinates": [-70.21337, -22.10739]}}, {"type": "Feature", "properties": {"nombre": "Ollagüe", "tipo": "calle"}, "geometry": {"type": "Point", "coordinates": [-70.20902, -22.10812]}}, {"type": "Feature", "properties": {"nombre": "Pasaje San Pedro", "tipo": "calle"}, "geometry": {"type": "Point", "coordinates": [-70.20922, -22.10716]}}, {"type": "Feature", "properties": {"nombre": "Policarpo Toro", "tipo": "calle"}, "geometry": {"type": "Point", "coordinates": [-70.21206, -22.10586]}}, {"type": "Feature", "properties": {"nombre": "Escuadra Nacional", "tipo": "calle"}, "geometry": {"type": "Point", "coordinates": [-70.21223, -22.10218]}}, {"type": "Feature", "properties": {"nombre": "Sloman", "tipo": "calle"}, "geometry": {"type": "Point", "coordinates": [-70.20833, -22.09926]}}, {"type": "Feature", "properties": {"nombre": "Pasaje Ferrocarril", "tipo": "calle"}, "geometry": {"type": "Point", "coordinates": [-70.20247, -22.09672]}}, {"type": "Feature", "properties": {"nombre": "Pasaje Galvarino", "tipo": "calle"}, "geometry": {"type": "Point", "coordinates": [-70.19919, -22.09684]}}, {"type": "Feature", "properties": {"nombre": "Pasaje Vista Hermosa", "tipo": "calle"}, "geometry": {"type": "Point", "coordinates": [-70.19976, -22.0972]}}, {"type": "Feature", "properties": {"nombre": "Pasaje Los Suspiros", "tipo": "calle"}, "geometry": {"type": "Point", "coordinates": [-70.20006, -22.09681]}}, {"type": "Feature", "properties": {"nombre": "Pasaje Bolívar", "tipo": "calle"}, "geometry": {"type": "Point", "coordinates": [-70.19883, -22.09617]}}, {"type": "Feature", "properties": {"nombre": "Pasaje Línea Férrea", "tipo": "calle"}, "geometry": {"type": "Point", "coordinates": [-70.1972, -22.09518]}}, {"type": "Feature", "properties": {"nombre": "Pasaje Tocopilla", "tipo": "calle"}, "geometry": {"type": "Point", "coordinates": [-70.19513, -22.09406]}}, {"type": "Feature", "properties": {"nombre": "Aguilera", "tipo": "calle"}, "geometry": {"type": "Point", "coordinates": [-70.19633, -22.09275]}}, {"type": "Feature", "properties": {"nombre": "Pasaje Carrera", "tipo": "calle"}, "geometry": {"type": "Point", "coordinates": [-70.19326, -22.08969]}}, {"type": "Feature", "properties": {"nombre": "Julieta Campusano", "tipo": "calle"}, "geometry": {"type": "Point", "coordinates": [-70.18936, -22.08912]}}, {"type": "Feature", "properties": {"nombre": "Pasaje Río Yuta", "tipo": "calle"}, "geometry": {"type": "Point", "coordinates": [-70.1887, -22.08931]}}, {"type": "Feature", "properties": {"nombre": "Pasaje Merino", "tipo": "calle"}, "geometry": {"type": "Point", "coordinates": [-70.19349, -22.08785]}}, {"type": "Feature", "properties": {"nombre": "Romero", "tipo": "calle"}, "geometry": {"type": "Point", "coordinates": [-70.19322, -22.08767]}}, {"type": "Feature", "properties": {"nombre": "Pasaje Tamarugal", "tipo": "calle"}, "geometry": {"type": "Point", "coordinates": [-70.18649, -22.08499]}}, {"type": "Feature", "properties": {"nombre": "Pasaje Algarrobos", "tipo": "calle"}, "geometry": {"type": "Point", "coordinates": [-70.1863, -22.08526]}}, {"type": "Feature", "properties": {"nombre": "Pasaje Algarrobo", "tipo": "calle"}, "geometry": {"type": "Point", "coordinates": [-70.18704, -22.08451]}}, {"type": "Feature", "properties": {"nombre": "Pasaje Almirante Riveros", "tipo": "calle"}, "geometry": {"type": "Point", "coordinates": [-70.18641, -22.08691]}}, {"type": "Feature", "properties": {"nombre": "Marín", "tipo": "calle"}, "geometry": {"type": "Point", "coordinates": [-70.18539, -22.08357]}}, {"type": "Feature", "properties": {"nombre": "Gatico", "tipo": "calle"}, "geometry": {"type": "Point", "coordinates": [-70.19679, -22.08678]}}, {"type": "Feature", "properties": {"nombre": "6 Poniente", "tipo": "calle"}, "geometry": {"type": "Point", "coordinates": [-70.19283, -22.08256]}}, {"type": "Feature", "properties": {"nombre": "Antofagasta", "tipo": "calle"}, "geometry": {"type": "Point", "coordinates": [-70.1911, -22.0805]}}, {"type": "Feature", "properties": {"nombre": "San Felipe", "tipo": "calle"}, "geometry": {"type": "Point", "coordinates": [-70.1918, -22.08039]}}, {"type": "Feature", "properties": {"nombre": "Pasaje Caspana", "tipo": "calle"}, "geometry": {"type": "Point", "coordinates": [-70.1925, -22.07888]}}, {"type": "Feature", "properties": {"nombre": "Pasaje José Manuel Balmaceda", "tipo": "calle"}, "geometry": {"type": "Point", "coordinates": [-70.19276, -22.07847]}}, {"type": "Feature", "properties": {"nombre": "Plaza Villa Ayquina", "tipo": "place"}, "geometry": {"type": "Point", "coordinates": [-70.18688, -22.08501]}}, {"type": "Feature", "properties": {"nombre": "Ramaditas", "tipo": "calle"}, "geometry": {"type": "Point", "coordinates": [-70.18722, -22.06374]}}, {"type": "Feature", "properties": {"nombre": "Pasaje Huachán", "tipo": "calle"}, "geometry": {"type": "Point", "coordinates": [-70.18541, -22.06167]}}, {"type": "Feature", "properties": {"nombre": "Caleta Iquique", "tipo": "calle"}, "geometry": {"type": "Point", "coordinates": [-70.18565, -22.06224]}}, {"type": "Feature", "properties": {"nombre": "Villa Norgener", "tipo": "calle"}, "geometry": {"type": "Point", "coordinates": [-70.21266, -22.11504]}}, {"type": "Feature", "properties": {"nombre": "Edificios Colectivos", "tipo": "calle"}, "geometry": {"type": "Point", "coordinates": [-70.19367, -22.08901]}}, {"type": "Feature", "properties": {"nombre": "Washington", "tipo": "calle"}, "geometry": {"type": "Point", "coordinates": [-70.19835, -22.09309]}}, {"type": "Feature", "properties": {"nombre": "Aníbal Pinto", "tipo": "calle"}, "geometry": {"type": "Point", "coordinates": [-70.19999, -22.09467]}}, {"type": "Feature", "properties": {"nombre": "21 de Mayo", "tipo": "calle"}, "geometry": {"type": "Point", "coordinates": [-70.20377, -22.09549]}}, {"type": "Feature", "properties": {"nombre": "Pasaje Francisco Bilbao", "tipo": "calle"}, "geometry": {"type": "Point", "coordinates": [-70.19177, -22.0782]}}, {"type": "Feature", "properties": {"nombre": "Urco", "tipo": "calle"}, "geometry": {"type": "Point", "coordinates": [-70.18403, -22.06095]}}, {"type": "Feature", "properties": {"nombre": "Plaza La Patria", "tipo": "place"}, "geometry": {"type": "Point", "coordinates": [-70.18436, -22.08314]}}, {"type": "Feature", "properties": {"nombre": "Casimiro Busanich", "tipo": "calle"}, "geometry": {"type": "Point", "coordinates": [-70.21011, -22.10579]}}, {"type": "Feature", "properties": {"nombre": "Fernández Jiménez", "tipo": "calle"}, "geometry": {"type": "Point", "coordinates": [-70.21109, -22.1069]}}, {"type": "Feature", "properties": {"nombre": "Geoparque Padre Hurtado", "tipo": "place"}, "geometry": {"type": "Point", "coordinates": [-70.20801, -22.10871]}}, {"type": "Feature", "properties": {"nombre": "Plazoleta O'Higgins", "tipo": "place"}, "geometry": {"type": "Point", "coordinates": [-70.19562, -22.08862]}}, {"type": "Feature", "properties": {"nombre": "Manuel Rodríguez", "tipo": "calle"}, "geometry": {"type": "Point", "coordinates": [-70.1966, -22.0917]}}, {"type": "Feature", "properties": {"nombre": "Plaza de la energía E-CL", "tipo": "place"}, "geometry": {"type": "Point", "coordinates": [-70.21305, -22.1014]}}, {"type": "Feature", "properties": {"nombre": "Plazoleta Moai", "tipo": "place"}, "geometry": {"type": "Point", "coordinates": [-70.19862, -22.08993]}}, {"type": "Feature", "properties": {"nombre": "Plaza Torre del Reloj", "tipo": "place"}, "geometry": {"type": "Point", "coordinates": [-70.1947, -22.08805]}}, {"type": "Feature", "properties": {"nombre": "Plazoleta del Tren", "tipo": "place"}, "geometry": {"type": "Point", "coordinates": [-70.19366, -22.08748]}}, {"type": "Feature", "properties": {"nombre": "Plaza Inclusiva", "tipo": "place"}, "geometry": {"type": "Point", "coordinates": [-70.19581, -22.08824]}}, {"type": "Feature", "properties": {"nombre": "Plaza Sargento Aldea", "tipo": "place"}, "geometry": {"type": "Point", "coordinates": [-70.20562, -22.09696]}}, {"type": "Feature", "properties": {"nombre": "Plaza Sotomayor", "tipo": "place"}, "geometry": {"type": "Point", "coordinates": [-70.19342, -22.08765]}}, {"type": "Feature", "properties": {"nombre": "Plazoleta Cementerio Municipal", "tipo": "place"}, "geometry": {"type": "Point", "coordinates": [-70.19085, -22.08372]}}, {"type": "Feature", "properties": {"nombre": "Teniente Merino", "tipo": "calle"}, "geometry": {"type": "Point", "coordinates": [-70.19444, -22.08181]}}, {"type": "Feature", "properties": {"nombre": "Pasaje Huella Tres Puntas", "tipo": "calle"}, "geometry": {"type": "Point", "coordinates": [-70.20025, -22.09758]}}, {"type": "Feature", "properties": {"nombre": "Plazoleta Villa Lonquimay", "tipo": "place"}, "geometry": {"type": "Point", "coordinates": [-70.19407, -22.08107]}}, {"type": "Feature", "properties": {"nombre": "Héroes de Iquique", "tipo": "calle"}, "geometry": {"type": "Point", "coordinates": [-70.21087, -22.10568]}}, {"type": "Feature", "properties": {"nombre": "Plazoleta Barros Arana", "tipo": "place"}, "geometry": {"type": "Point", "coordinates": [-70.19699, -22.08651]}}, {"type": "Feature", "properties": {"nombre": "Plaza Villa Norte II", "tipo": "place"}, "geometry": {"type": "Point", "coordinates": [-70.19219, -22.07859]}}, {"type": "Feature", "properties": {"nombre": "Plaza Colectvo II", "tipo": "place"}, "geometry": {"type": "Point", "coordinates": [-70.19351, -22.08887]}}, {"type": "Feature", "properties": {"nombre": "Plazoleta Tacora", "tipo": "place"}, "geometry": {"type": "Point", "coordinates": [-70.2102, -22.11121]}}, {"type": "Feature", "properties": {"nombre": "Plazoleta Isluga", "tipo": "place"}, "geometry": {"type": "Point", "coordinates": [-70.20896, -22.10995]}}, {"type": "Feature", "properties": {"nombre": "Pasaje Los Pimientos", "tipo": "calle"}, "geometry": {"type": "Point", "coordinates": [-70.18649, -22.08553]}}, {"type": "Feature", "properties": {"nombre": "Plaza Villa Prat", "tipo": "place"}, "geometry": {"type": "Point", "coordinates": [-70.20897, -22.09933]}}, {"type": "Feature", "properties": {"nombre": "Geoparque Villa Covadonga", "tipo": "place"}, "geometry": {"type": "Point", "coordinates": [-70.21063, -22.10763]}}, {"type": "Feature", "properties": {"nombre": "Plazoleta Iquique", "tipo": "place"}, "geometry": {"type": "Point", "coordinates": [-70.18593, -22.06233]}}, {"type": "Feature", "properties": {"nombre": "Plazoleta San Martin", "tipo": "place"}, "geometry": {"type": "Point", "coordinates": [-70.20217, -22.09724]}}], "_meta": {"ciudad": "Tocopilla", "fuente": "OpenStreetMap (ODbL) — extracción puntual Overpass"}}