{"type": "FeatureCollection", "features": [{"type": "Feature", "properties": {"nombre": "Baquedano", "tipo": "place"}, "geometry": {"type": "Point", "coordinates": [-69.84347, -23.33381]}}, {"type": "Feature", "properties": {"nombre": "Ilustre Municipalidad de Sierra Gorda", "tipo": "place"}, "geometry": {"type": "Point", "coordinates": [-69.83999, -23.33237]}}, {"type": "Feature", "properties": {"nombre": "Chacabuco", "tipo": "calle"}, "geometry": {"type": "Point", "coordinates": [-69.848, -23.3365]}}, {"type": "Feature", "properties": {"nombre": "Taltal", "tipo": "calle"}, "geometry": {"type": "Point", "coordinates": [-69.84076, -23.33276]}}, {"type": "Feature", "properties": {"nombre": "Jaime Guzmán", "tipo": "calle"}, "geometry": {"type": "Point", "coordinates": [-69.84083, -23.33248]}}, {"type": "Feature", "properties": {"nombre": "Atacama", "tipo": "calle"}, "geometry": {"type": "Point", "coordinates": [-69.84345, -23.33442]}}, {"type": "Feature", "properties": {"nombre": "Coquimbo", "tipo": "calle"}, "geometry": {"type": "Point", "coordinates": [-69.84438, -23.33495]}}, {"type": "Feature", "properties": {"nombre": "Aconcagua", "tipo": "calle"}, "geometry": {"type": "Point", "coordinates": [-69.84644, -23.33597]}}, {"type": "Feature", "properties": {"nombre": "Corazón del Desierto", "tipo": "calle"}, "geometry": {"type": "Point", "coordinates": [-69.84546, -23.33452]}}, {"type": "Feature", "properties": {"nombre": "Pasaje Pampa Unión", "tipo": "calle"}, "geometry": {"type": "Point", "coordinates": [-69.84713, -23.33542]}}, {"type": "Feature", "properties": {"nombre": "Ramón Barros Luco", "tipo": "calle"}, "geometry": {"type": "Point", "coordinates": [-69.84581, -23.33475]}}, {"type": "Feature", "properties": {"nombre": "Plaza Baquedano", "tipo": "place"}, "geometry": {"type": "Point", "coordinates": [-69.84345, -23.33378]}}, {"type": "Feature", "properties": {"nombre": "Avenida Salvador Allende", "tipo": "calle"}, "geometry": {"type": "Point", "coordinates": [-69.83866, -23.33174]}}, {"type": "Feature", "properties": {"nombre": "Acceso a Panamericana Norte", "tipo": "calle"}, "geometry": {"type": "Point", "coordinates": [-69.83254, -23.33001]}}, {"type": "Feature", "properties": {"nombre": "Antofagasta", "tipo": "calle"}, "geometry": {"type": "Point", "coordinates": [-69.8432, -23.33369]}}, {"type": "Feature", "properties": {"nombre": "Ruta B-330", "tipo": "calle"}, "geometry": {"type": "Point", "coordinates": [-69.81433, -23.22632]}}, {"type": "Feature", "properties": {"nombre": "Calle 1", "tipo": "calle"}, "geometry": {"type": "Point", "coordinates": [-69.85097, -23.33501]}}, {"type": "Feature", "properties": {"nombre": "Pasaje 2", "tipo": "calle"}, "geometry": {"type": "Point", "coordinates": [-69.85027, -23.33746]}}, {"type": "Feature", "properties": {"nombre": "Ruta B-39", "tipo": "calle"}, "geometry": {"type": "Point", "coordinates": [-69.82885, -23.3296]}}, {"type": "Feature", "properties": {"nombre": "Calle 2", "tipo": "calle"}, "geometry": {"type": "Point", "coordinates": [-69.85066, -23.33767]}}, {"type": "Feature", "properties": {"nombre": "Pasaje 1", "tipo": "calle"}, "geometry": {"type": "Point", "coordinates": [-69.84998, -23.33771]}}, {"type": "Feature", "properties": {"nombre": "Pasaje 3", "tipo": "calle"}, "geometry": {"type": "Point", "coordinates": [-69.85035, -23.3371]}}, {"type": "Feature", "properties": {"nombre": "Rafael Torres", "tipo": "calle"}, "geometry": {"type": "Point", "coordinates": [-69.84525, -23.33383]}}, {"type": "Feature", "properties": {"nombre": "Rafael Siglic Oyanadel", "tipo": "calle"}, "geometry": {"type": "Point", "coordinates": [-69.84468, -23.33378]}}, {"type": "Feature", "properties": {"nombre": "Nueva Esperanza", "tipo": "calle"}, "geometry": {"type": "Point", "coordinates": [-69.84647, -23.33465]}}, {"type": "Feature", "properties": {"nombre": "Sergio Vega Fernández", "tipo": "calle"}, "geometry": {"type": "Point", "coordinates": [-69.84604, -23.33445]}}, {"type": "Feature", "properties": {"nombre": "Emiliano Figueroa", "tipo": "calle"}, "geometry": {"type": "Point", "coordinates": [-69.84354, -23.33288]}}, {"type": "Feature", "properties": {"nombre": "Pasaje Sierra Gorda", "tipo": "calle"}, "geometry": {"type": "Point", "coordinates": [-69.84749, -23.33644]}}], "_meta": {"ciudad": "Baquedano", "fuente": "OpenStreetMap (ODbL) — extracción puntual Overpass"}}