{"type": "FeatureCollection", "features": [{"type": "Feature", "properties": {"nombre": "Mejillones", "tipo": "place"}, "geometry": {"type": "Point", "coordinates": [-70.44831, -23.10023]}}, {"type": "Feature", "properties": {"nombre": "Campamento Villa Internacional", "tipo": "place"}, "geometry": {"type": "Point", "coordinates": [-70.43883, -23.10314]}}, {"type": "Feature", "properties": {"nombre": "Campamento Villa Esfuerzo", "tipo": "place"}, "geometry": {"type": "Point", "coordinates": [-70.44055, -23.10279]}}, {"type": "Feature", "properties": {"nombre": "Campamento Promet", "tipo": "place"}, "geometry": {"type": "Point", "coordinates": [-70.47254, -23.10311]}}, {"type": "Feature", "properties": {"nombre": "Instituto Profesional IPG Sede Mejillones", "tipo": "place"}, "geometry": {"type": "Point", "coordinates": [-70.44862, -23.09973]}}, {"type": "Feature", "properties": {"nombre": "Bonanza", "tipo": "place"}, "geometry": {"type": "Point", "coordinates": [-70.43488, -23.12236]}}, {"type": "Feature", "properties": {"nombre": "Avenida Los Fertilizantes", "tipo": "calle"}, "geometry": {"type": "Point", "coordinates": [-70.43604, -23.10668]}}, {"type": "Feature", "properties": {"nombre": "Avenida Andalicán", "tipo": "calle"}, "geometry": {"type": "Point", "coordinates": [-70.4377, -23.10173]}}, {"type": "Feature", "properties": {"nombre": "Avenida Costanera Norte", "tipo": "calle"}, "geometry": {"type": "Point", "coordinates": [-70.41693, -23.08963]}}, {"type": "Feature", "properties": {"nombre": "Avenida Serrano", "tipo": "calle"}, "geometry": {"type": "Point", "coordinates": [-70.43939, -23.10703]}}, {"type": "Feature", "properties": {"nombre": "Rolando Biaggini", "tipo": "calle"}, "geometry": {"type": "Point", "coordinates": [-70.44933, -23.10565]}}, {"type": "Feature", "properties": {"nombre": "Matías Torres (Ex Pasaje 1)", "tipo": "calle"}, "geometry": {"type": "Point", "coordinates": [-70.44835, -23.10707]}}, {"type": "Feature", "properties": {"nombre": "Ignacio Carrera Pinto", "tipo": "calle"}, "geometry": {"type": "Point", "coordinates": [-70.4484, -23.10447]}}, {"type": "Feature", "properties": {"nombre": "Playa Blanca", "tipo": "calle"}, "geometry": {"type": "Point", "coordinates": [-70.44246, -23.10268]}}, {"type": "Feature", "properties": {"nombre": "Pasaje Bahia", "tipo": "calle"}, "geometry": {"type": "Point", "coordinates": [-70.44401, -23.10242]}}, {"type": "Feature", "properties": {"nombre": "Óscar Frías Mendoza", "tipo": "calle"}, "geometry": {"type": "Point", "coordinates": [-70.44255, -23.1035]}}, {"type": "Feature", "properties": {"nombre": "Pasaje Sargento Zenón Ortíz", "tipo": "calle"}, "geometry": {"type": "Point", "coordinates": [-70.44942, -23.1056]}}, {"type": "Feature", "properties": {"nombre": "Pasaje Sargento Gabriel Silva", "tipo": "calle"}, "geometry": {"type": "Point", "coordinates": [-70.44876, -23.10585]}}, {"type": "Feature", "properties": {"nombre": "Granaderos", "tipo": "calle"}, "geometry": {"type": "Point", "coordinates": [-70.44214, -23.10042]}}, {"type": "Feature", "properties": {"nombre": "Avenida Almirante Castillo", "tipo": "calle"}, "geometry": {"type": "Point", "coordinates": [-70.44307, -23.10129]}}, {"type": "Feature", "properties": {"nombre": "Ongolmo", "tipo": "calle"}, "geometry": {"type": "Point", "coordinates": [-70.44569, -23.10092]}}, {"type": "Feature", "properties": {"nombre": "Pasaje Manuel Montt", "tipo": "calle"}, "geometry": {"type": "Point", "coordinates": [-70.45478, -23.10011]}}, {"type": "Feature", "properties": {"nombre": "Avenida Pedro Montt", "tipo": "calle"}, "geometry": {"type": "Point", "coordinates": [-70.45623, -23.09933]}}, {"type": "Feature", "properties": {"nombre": "Pasaje Covadonga", "tipo": "calle"}, "geometry": {"type": "Point", "coordinates": [-70.4561, -23.09978]}}, {"type": "Feature", "properties": {"nombre": "Pasaje Matías Cousiño", "tipo": "calle"}, "geometry": {"type": "Point", "coordinates": [-70.45716, -23.09994]}}, {"type": "Feature", "properties": {"nombre": "San Martín", "tipo": "calle"}, "geometry": {"type": "Point", "coordinates": [-70.45065, -23.09942]}}, {"type": "Feature", "properties": {"nombre": "Avenida Bernardo O'Higgins", "tipo": "calle"}, "geometry": {"type": "Point", "coordinates": [-70.44668, -23.10218]}}, {"type": "Feature", "properties": {"nombre": "Las Heras", "tipo": "calle"}, "geometry": {"type": "Point", "coordinates": [-70.44945, -23.10022]}}, {"type": "Feature", "properties": {"nombre": "Avenida Manuel Rodríguez", "tipo": "calle"}, "geometry": {"type": "Point", "coordinates": [-70.4511, -23.10054]}}, {"type": "Feature", "properties": {"nombre": "Ignacio Riquelme", "tipo": "calle"}, "geometry": {"type": "Point", "coordinates": [-70.44514, -23.10486]}}, {"type": "Feature", "properties": {"nombre": "Pasaje Ferrocarril", "tipo": "calle"}, "geometry": {"type": "Point", "coordinates": [-70.44602, -23.10356]}}, {"type": "Feature", "properties": {"nombre": "Pasaje Lord Cochrane", "tipo": "calle"}, "geometry": {"type": "Point", "coordinates": [-70.45663, -23.09986]}}, {"type": "Feature", "properties": {"nombre": "Avenida Almirante Latorre", "tipo": "calle"}, "geometry": {"type": "Point", "coordinates": [-70.45384, -23.10112]}}, {"type": "Feature", "properties": {"nombre": "Iquique", "tipo": "calle"}, "geometry": {"type": "Point", "coordinates": [-70.45436, -23.09924]}}, {"type": "Feature", "properties": {"nombre": "Pablo Neruda (Ex Pasaje 3)", "tipo": "calle"}, "geometry": {"type": "Point", "coordinates": [-70.44592, -23.10293]}}, {"type": "Feature", "properties": {"nombre": "Pasaje 11 de Septiembre", "tipo": "calle"}, "geometry": {"type": "Point", "coordinates": [-70.44249, -23.10197]}}, {"type": "Feature", "properties": {"nombre": "Pasaje Cereceda", "tipo": "calle"}, "geometry": {"type": "Point", "coordinates": [-70.45527, -23.10057]}}, {"type": "Feature", "properties": {"nombre": "Pasaje Julio Montt", "tipo": "calle"}, "geometry": {"type": "Point", "coordinates": [-70.44758, -23.10174]}}, {"type": "Feature", "properties": {"nombre": "Antonio Varas", "tipo": "calle"}, "geometry": {"type": "Point", "coordinates": [-70.45352, -23.1004]}}, {"type": "Feature", "properties": {"nombre": "Hugo Ramírez Jofré", "tipo": "calle"}, "geometry": {"type": "Point", "coordinates": [-70.44545, -23.10256]}}, {"type": "Feature", "properties": {"nombre": "Pasaje Luis Cuadra", "tipo": "calle"}, "geometry": {"type": "Point", "coordinates": [-70.44214, -23.10247]}}, {"type": "Feature", "properties": {"nombre": "Pasaje Jorge Krstulovic", "tipo": "calle"}, "geometry": {"type": "Point", "coordinates": [-70.44141, -23.10212]}}, {"type": "Feature", "properties": {"nombre": "Acceso Norte a Mejillones", "tipo": "calle"}, "geometry": {"type": "Point", "coordinates": [-70.43195, -23.10318]}}, {"type": "Feature", "properties": {"nombre": "Pasaje Baltazar Zuleta", "tipo": "calle"}, "geometry": {"type": "Point", "coordinates": [-70.44347, -23.10226]}}, {"type": "Feature", "properties": {"nombre": "19 de Junio", "tipo": "calle"}, "geometry": {"type": "Point", "coordinates": [-70.44473, -23.10024]}}, {"type": "Feature", "properties": {"nombre": "Pasaje Léniz", "tipo": "calle"}, "geometry": {"type": "Point", "coordinates": [-70.45582, -23.10054]}}, {"type": "Feature", "properties": {"nombre": "Merino", "tipo": "calle"}, "geometry": {"type": "Point", "coordinates": [-70.44434, -23.10019]}}, {"type": "Feature", "properties": {"nombre": "Pasaje Humeres", "tipo": "calle"}, "geometry": {"type": "Point", "coordinates": [-70.44748, -23.09949]}}, {"type": "Feature", "properties": {"nombre": "Manuel Blanco Encalada", "tipo": "calle"}, "geometry": {"type": "Point", "coordinates": [-70.45557, -23.09969]}}, {"type": "Feature", "properties": {"nombre": "Pasaje O'Higgins", "tipo": "calle"}, "geometry": {"type": "Point", "coordinates": [-70.45768, -23.10005]}}, {"type": "Feature", "properties": {"nombre": "Pasaje Gabriela Mistral", "tipo": "calle"}, "geometry": {"type": "Point", "coordinates": [-70.44402, -23.09902]}}, {"type": "Feature", "properties": {"nombre": "Pasaje Clodomiro Rozas", "tipo": "calle"}, "geometry": {"type": "Point", "coordinates": [-70.44827, -23.10508]}}, {"type": "Feature", "properties": {"nombre": "Juan López", "tipo": "calle"}, "geometry": {"type": "Point", "coordinates": [-70.44809, -23.10662]}}, {"type": "Feature", "properties": {"nombre": "Dos Quebradas", "tipo": "calle"}, "geometry": {"type": "Point", "coordinates": [-70.44329, -23.10321]}}, {"type": "Feature", "properties": {"nombre": "Pasaje Evaristo Aguirre", "tipo": "calle"}, "geometry": {"type": "Point", "coordinates": [-70.45074, -23.10654]}}, {"type": "Feature", "properties": {"nombre": "Emilio de Vidts", "tipo": "calle"}, "geometry": {"type": "Point", "coordinates": [-70.44169, -23.10409]}}, {"type": "Feature", "properties": {"nombre": "Pasaje Jesús Tejeda (El Morro)", "tipo": "calle"}, "geometry": {"type": "Point", "coordinates": [-70.44943, -23.10612]}}, {"type": "Feature", "properties": {"nombre": "Andrés Bresson (Ex Pasaje 4)", "tipo": "calle"}, "geometry": {"type": "Point", "coordinates": [-70.44878, -23.10743]}}, {"type": "Feature", "properties": {"nombre": "Arturo Pérez Canto", "tipo": "calle"}, "geometry": {"type": "Point", "coordinates": [-70.44924, -23.10521]}}, {"type": "Feature", "properties": {"nombre": "Juan Garday", "tipo": "calle"}, "geometry": {"type": "Point", "coordinates": [-70.4478, -23.10627]}}, {"type": "Feature", "properties": {"nombre": "José Herrera", "tipo": "calle"}, "geometry": {"type": "Point", "coordinates": [-70.44852, -23.1038]}}, {"type": "Feature", "properties": {"nombre": "Pasaje Roy Corthon", "tipo": "calle"}, "geometry": {"type": "Point", "coordinates": [-70.45057, -23.10569]}}, {"type": "Feature", "properties": {"nombre": "Luis Cruz Martínez", "tipo": "calle"}, "geometry": {"type": "Point", "coordinates": [-70.44771, -23.10499]}}, {"type": "Feature", "properties": {"nombre": "Pasaje Miguelina Peña", "tipo": "calle"}, "geometry": {"type": "Point", "coordinates": [-70.45065, -23.1061]}}, {"type": "Feature", "properties": {"nombre": "Almirante Goñi", "tipo": "calle"}, "geometry": {"type": "Point", "coordinates": [-70.45047, -23.09891]}}, {"type": "Feature", "properties": {"nombre": "Pasaje Armando Herrera Soto (El Faro)", "tipo": "calle"}, "geometry": {"type": "Point", "coordinates": [-70.44952, -23.10654]}}, {"type": "Feature", "properties": {"nombre": "Ramón Vergara", "tipo": "calle"}, "geometry": {"type": "Point", "coordinates": [-70.4504, -23.10481]}}, {"type": "Feature", "properties": {"nombre": "Pasaje Nuevo", "tipo": "calle"}, "geometry": {"type": "Point", "coordinates": [-70.44181, -23.10037]}}, {"type": "Feature", "properties": {"nombre": "Lorenzo Aguirre Godoy", "tipo": "calle"}, "geometry": {"type": "Point", "coordinates": [-70.4443, -23.10334]}}, {"type": "Feature", "properties": {"nombre": "Pasaje Neftalí Agrella", "tipo": "calle"}, "geometry": {"type": "Point", "coordinates": [-70.45048, -23.10523]}}, {"type": "Feature", "properties": {"nombre": "Manuel Silva", "tipo": "calle"}, "geometry": {"type": "Point", "coordinates": [-70.44788, -23.10515]}}, {"type": "Feature", "properties": {"nombre": "Pasaje Casimiro Olivos", "tipo": "calle"}, "geometry": {"type": "Point", "coordinates": [-70.44996, -23.10576]}}, {"type": "Feature", "properties": {"nombre": "Chacón Villarroel", "tipo": "calle"}, "geometry": {"type": "Point", "coordinates": [-70.44302, -23.10678]}}, {"type": "Feature", "properties": {"nombre": "Shank Arqueros", "tipo": "calle"}, "geometry": {"type": "Point", "coordinates": [-70.44414, -23.10451]}}, {"type": "Feature", "properties": {"nombre": "Rolando Cortez", "tipo": "calle"}, "geometry": {"type": "Point", "coordinates": [-70.44253, -23.10633]}}, {"type": "Feature", "properties": {"nombre": "Rogelio Urrutia Monardes", "tipo": "calle"}, "geometry": {"type": "Point", "coordinates": [-70.4433, -23.10505]}}, {"type": "Feature", "properties": {"nombre": "Domingo Barraza", "tipo": "calle"}, "geometry": {"type": "Point", "coordinates": [-70.44297, -23.1058]}}, {"type": "Feature", "properties": {"nombre": "Zenobia Jiménez", "tipo": "calle"}, "geometry": {"type": "Point", "coordinates": [-70.44324, -23.10548]}}, {"type": "Feature", "properties": {"nombre": "Escudero Torres", "tipo": "calle"}, "geometry": {"type": "Point", "coordinates": [-70.44386, -23.10483]}}, {"type": "Feature", "properties": {"nombre": "Jaime Guerra Pavez", "tipo": "calle"}, "geometry": {"type": "Point", "coordinates": [-70.44267, -23.10611]}}, {"type": "Feature", "properties": {"nombre": "Guido Fleming Pérez ( Ex Diagonal O'Higgins)", "tipo": "calle"}, "geometry": {"type": "Point", "coordinates": [-70.44866, -23.10655]}}, {"type": "Feature", "properties": {"nombre": "Esterlinda Pizarro", "tipo": "calle"}, "geometry": {"type": "Point", "coordinates": [-70.44342, -23.10555]}}, {"type": "Feature", "properties": {"nombre": "Luba Palacios", "tipo": "calle"}, "geometry": {"type": "Point", "coordinates": [-70.44473, -23.10435]}}, {"type": "Feature", "properties": {"nombre": "Borgoño", "tipo": "calle"}, "geometry": {"type": "Point", "coordinates": [-70.44835, -23.09967]}}, {"type": "Feature", "properties": {"nombre": "Parque Avenida San Martín", "tipo": "place"}, "geometry": {"type": "Point", "coordinates": [-70.45162, -23.09912]}}, {"type": "Feature", "properties": {"nombre": "11 de Septiembre", "tipo": "calle"}, "geometry": {"type": "Point", "coordinates": [-70.44294, -23.09882]}}, {"type": "Feature", "properties": {"nombre": "Pasaje Subteniente Jorge Montt", "tipo": "calle"}, "geometry": {"type": "Point", "coordinates": [-70.44574, -23.10151]}}, {"type": "Feature", "properties": {"nombre": "Domingo Latrille", "tipo": "calle"}, "geometry": {"type": "Point", "coordinates": [-70.4485, -23.10695]}}, {"type": "Feature", "properties": {"nombre": "Crnl Emilio Sotomayor", "tipo": "calle"}, "geometry": {"type": "Point", "coordinates": [-70.44808, -23.10411]}}, {"type": "Feature", "properties": {"nombre": "Doctor Aliaga Palma", "tipo": "calle"}, "geometry": {"type": "Point", "coordinates": [-70.44288, -23.10496]}}, {"type": "Feature", "properties": {"nombre": "Pasaje Angamos", "tipo": "calle"}, "geometry": {"type": "Point", "coordinates": [-70.4443, -23.10128]}}, {"type": "Feature", "properties": {"nombre": "Francisco Antonio Pinto", "tipo": "calle"}, "geometry": {"type": "Point", "coordinates": [-70.45229, -23.10057]}}, {"type": "Feature", "properties": {"nombre": "Pasaje Loa", "tipo": "calle"}, "geometry": {"type": "Point", "coordinates": [-70.45816, -23.09999]}}, {"type": "Feature", "properties": {"nombre": "Pasaje Itata", "tipo": "calle"}, "geometry": {"type": "Point", "coordinates": [-70.44358, -23.10268]}}, {"type": "Feature", "properties": {"nombre": "Pasaje Sargento Aldea", "tipo": "calle"}, "geometry": {"type": "Point", "coordinates": [-70.44364, -23.10145]}}, {"type": "Feature", "properties": {"nombre": "Pasaje Addison Armstrong", "tipo": "calle"}, "geometry": {"type": "Point", "coordinates": [-70.44225, -23.10387]}}, {"type": "Feature", "properties": {"nombre": "Pasaje Chacaya", "tipo": "calle"}, "geometry": {"type": "Point", "coordinates": [-70.44311, -23.10388]}}, {"type": "Feature", "properties": {"nombre": "Emilio Sotomayor", "tipo": "calle"}, "geometry": {"type": "Point", "coordinates": [-70.44881, -23.1038]}}, {"type": "Feature", "properties": {"nombre": "8 de Octubre", "tipo": "calle"}, "geometry": {"type": "Point", "coordinates": [-70.45284, -23.10032]}}, {"type": "Feature", "properties": {"nombre": "Pasaje Neguayan", "tipo": "calle"}, "geometry": {"type": "Point", "coordinates": [-70.44382, -23.1034]}}, {"type": "Feature", "properties": {"nombre": "Juan Rojas", "tipo": "calle"}, "geometry": {"type": "Point", "coordinates": [-70.44487, -23.10326]}}, {"type": "Feature", "properties": {"nombre": "Pedro Herrera Rojas", "tipo": "calle"}, "geometry": {"type": "Point", "coordinates": [-70.44442, -23.10354]}}, {"type": "Feature", "properties": {"nombre": "Pasaje Jorge Salas", "tipo": "calle"}, "geometry": {"type": "Point", "coordinates": [-70.44266, -23.10229]}}, {"type": "Feature", "properties": {"nombre": "Ernesto Salinas Manríquez", "tipo": "calle"}, "geometry": {"type": "Point", "coordinates": [-70.44395, -23.10549]}}, {"type": "Feature", "properties": {"nombre": "Pasaje 4", "tipo": "calle"}, "geometry": {"type": "Point", "coordinates": [-70.44817, -23.10827]}}, {"type": "Feature", "properties": {"nombre": "Pasaje 1", "tipo": "calle"}, "geometry": {"type": "Point", "coordinates": [-70.44929, -23.10808]}}, {"type": "Feature", "properties": {"nombre": "Pasaje 2", "tipo": "calle"}, "geometry": {"type": "Point", "coordinates": [-70.44891, -23.10815]}}, {"type": "Feature", "properties": {"nombre": "Pasaje 3", "tipo": "calle"}, "geometry": {"type": "Point", "coordinates": [-70.44854, -23.1082]}}, {"type": "Feature", "properties": {"nombre": "Calle 1", "tipo": "calle"}, "geometry": {"type": "Point", "coordinates": [-70.43824, -23.10065]}}, {"type": "Feature", "properties": {"nombre": "Plaza Mejillones", "tipo": "calle"}, "geometry": {"type": "Point", "coordinates": [-70.44895, -23.10035]}}, {"type": "Feature", "properties": {"nombre": "Pasaje 6", "tipo": "calle"}, "geometry": {"type": "Point", "coordinates": [-70.44682, -23.10848]}}, {"type": "Feature", "properties": {"nombre": "Pasaje 5", "tipo": "calle"}, "geometry": {"type": "Point", "coordinates": [-70.4472, -23.10842]}}, {"type": "Feature", "properties": {"nombre": "Pasaje Arturo Prat", "tipo": "calle"}, "geometry": {"type": "Point", "coordinates": [-70.45367, -23.0995]}}, {"type": "Feature", "properties": {"nombre": "Pedro Guerra San Cristobal", "tipo": "calle"}, "geometry": {"type": "Point", "coordinates": [-70.44569, -23.10866]}}, {"type": "Feature", "properties": {"nombre": "Juan Vega Garbizo", "tipo": "calle"}, "geometry": {"type": "Point", "coordinates": [-70.44608, -23.1086]}}, {"type": "Feature", "properties": {"nombre": "Acceso Sur a Mejillones", "tipo": "calle"}, "geometry": {"type": "Point", "coordinates": [-70.44416, -23.10813]}}], "_meta": {"ciudad": "Mejillones", "fuente": "OpenStreetMap (ODbL) — extracción puntual Overpass"}}