{"type": "FeatureCollection", "features": [{"type": "Feature", "properties": {"nombre": "Peine", "tipo": "place"}, "geometry": {"type": "Point", "coordinates": [-68.06171, -23.68361]}}, {"type": "Feature", "properties": {"nombre": "Ruta B-39", "tipo": "calle"}, "geometry": {"type": "Point", "coordinates": [-68.09926, -23.7259]}}, {"type": "Feature", "properties": {"nombre": "Latorre", "tipo": "calle"}, "geometry": {"type": "Point", "coordinates": [-68.06619, -23.68264]}}, {"type": "Feature", "properties": {"nombre": "Camino Mina Lomas Bayas", "tipo": "calle"}, "geometry": {"type": "Point", "coordinates": [-68.17583, -23.65231]}}, {"type": "Feature", "properties": {"nombre": "Corpus Cristi", "tipo": "calle"}, "geometry": {"type": "Point", "coordinates": [-68.06013, -23.68425]}}, {"type": "Feature", "properties": {"nombre": "Plaza de Peine", "tipo": "place"}, "geometry": {"type": "Point", "coordinates": [-68.05955, -23.68395]}}, {"type": "Feature", "properties": {"nombre": "Lapanantur", "tipo": "calle"}, "geometry": {"type": "Point", "coordinates": [-68.06189, -23.68455]}}, {"type": "Feature", "properties": {"nombre": "Arturo Prat", "tipo": "calle"}, "geometry": {"type": "Point", "coordinates": [-68.06162, -23.68341]}}, {"type": "Feature", "properties": {"nombre": "Camino a Peine", "tipo": "calle"}, "geometry": {"type": "Point", "coordinates": [-68.05787, -23.68463]}}], "_meta": {"ciudad": "Peine", "fuente": "OpenStreetMap (ODbL) — extracción puntual Overpass"}}