{"type": "FeatureCollection", "features": [{"type": "Feature", "properties": {"clase": "verde"}, "geometry": {"type": "Polygon", "coordinates": [[[-69.84333, -23.33358], [-69.84378, -23.33381], [-69.84363, -23.33408], [-69.84318, -23.33384], [-69.84333, -23.33358]]]}}, {"type": "Feature", "properties": {"clase": "verde"}, "geometry": {"type": "Polygon", "coordinates": [[[-69.8401, -23.33469], [-69.83995, -23.3346], [-69.83976, -23.33482], [-69.83991, -23.33492], [-69.8401, -23.33469]]]}}, {"type": "Feature", "properties": {"clase": "verde"}, "geometry": {"type": "Polygon", "coordinates": [[[-69.85409, -23.33659], [-69.85396, -23.33681], [-69.85359, -23.33662], [-69.85371, -23.33641], [-69.85409, -23.33659]]]}}, {"type": "Feature", "properties": {"clase": "verde"}, "geometry": {"type": "Polygon", "coordinates": [[[-69.85361, -23.33654], [-69.85368, -23.33635], [-69.85358, -23.33633], [-69.85349, -23.33649], [-69.85361, -23.33654]]]}}, {"type": "Feature", "properties": {"clase": "verde"}, "geometry": {"type": "Polygon", "coordinates": [[[-69.85357, -23.33633], [-69.85346, -23.33647], [-69.85357, -23.33633]]]}}, {"type": "Feature", "properties": {"clase": "verde"}, "geometry": {"type": "Polygon", "coordinates": [[[-69.85003, -23.33697], [-69.8499, -23.33689], [-69.84954, -23.33743], [-69.84968, -23.33751], [-69.85003, -23.33697]]]}}, {"type": "Feature", "properties": {"clase": "verde"}, "geometry": {"type": "Polygon", "coordinates": [[[-69.84755, -23.33627], [-69.84731, -23.33664], [-69.84663, -23.33629], [-69.84685, -23.33593], [-69.84755, -23.33627]]]}}], "_meta": {"ciudad": "Baquedano", "fuente": "OpenStreetMap (ODbL) — extracción puntual Overpass"}}