{"type": "FeatureCollection", "features": [{"type": "Feature", "properties": {"clase": "verde"}, "geometry": {"type": "Polygon", "coordinates": [[[-70.20193, -22.09411], [-70.20201, -22.09401], [-70.20121, -22.09336], [-70.20033, -22.0943], [-70.20082, -22.09466], [-70.2016, -22.09385], [-70.20193, -22.09411]]]}}, {"type": "Feature", "properties": {"clase": "verde"}, "geometry": {"type": "Polygon", "coordinates": [[[-70.19583, -22.08674], [-70.19593, -22.08768], [-70.19528, -22.08775], [-70.19518, -22.0868], [-70.19583, -22.08674]]]}}, {"type": "Feature", "properties": {"clase": "verde"}, "geometry": {"type": "Polygon", "coordinates": [[[-70.21071, -22.10613], [-70.21122, -22.10654], [-70.21183, -22.1059], [-70.21133, -22.10549], [-70.21071, -22.10613]]]}}, {"type": "Feature", "properties": {"clase": "verde"}, "geometry": {"type": "Polygon", "coordinates": [[[-70.18643, -22.08221], [-70.18592, -22.08144], [-70.18642, -22.08115], [-70.18694, -22.08192], [-70.18643, -22.08221]]]}}, {"type": "Feature", "properties": {"clase": "verde"}, "geometry": {"type": "Polygon", "coordinates": [[[-70.187, -22.08494], [-70.18671, -22.08511], [-70.18694, -22.08487], [-70.187, -22.08494]]]}}, {"type": "Feature", "properties": {"clase": "verde"}, "geometry": {"type": "Polygon", "coordinates": [[[-70.18421, -22.08298], [-70.18402, -22.08302], [-70.1841, -22.08329], [-70.18428, -22.08325], [-70.18421, -22.08298]]]}}, {"type": "Feature", "properties": {"clase": "verde"}, "geometry": {"type": "Polygon", "coordinates": [[[-70.1848, -22.08315], [-70.18445, -22.08293], [-70.1838, -22.08298], [-70.1839, -22.08334], [-70.1848, -22.08315]]]}}, {"type": "Feature", "properties": {"clase": "verde"}, "geometry": {"type": "Polygon", "coordinates": [[[-70.18674, -22.0852], [-70.18666, -22.0853], [-70.18645, -22.08514], [-70.18654, -22.08505], [-70.18674, -22.0852]]]}}, {"type": "Feature", "properties": {"clase": "verde"}, "geometry": {"type": "Polygon", "coordinates": [[[-70.20856, -22.10932], [-70.20838, -22.10935], [-70.20842, -22.10961], [-70.20859, -22.10959], [-70.20856, -22.10932]]]}}, {"type": "Feature", "properties": {"clase": "verde"}, "geometry": {"type": "Polygon", "coordinates": [[[-70.20839, -22.10842], [-70.20753, -22.10827], [-70.20741, -22.10894], [-70.20809, -22.10876], [-70.20829, -22.10933], [-70.20859, -22.1093], [-70.20839, -22.10842]]]}}, {"type": "Feature", "properties": {"clase": "verde"}, "geometry": {"type": "Polygon", "coordinates": [[[-70.20945, -22.09935], [-70.20927, -22.09949], [-70.20955, -22.0998], [-70.20973, -22.09966], [-70.20945, -22.09935]]]}}, {"type": "Feature", "properties": {"clase": "verde"}, "geometry": {"type": "Polygon", "coordinates": [[[-70.20909, -22.09965], [-70.2089, -22.09979], [-70.20916, -22.1001], [-70.20935, -22.09996], [-70.20909, -22.09965]]]}}, {"type": "Feature", "properties": {"clase": "verde"}, "geometry": {"type": "Polygon", "coordinates": [[[-70.20843, -22.09871], [-70.20828, -22.09875], [-70.20838, -22.09907], [-70.20854, -22.09903], [-70.20843, -22.09871]]]}}, {"type": "Feature", "properties": {"clase": "verde"}, "geometry": {"type": "Polygon", "coordinates": [[[-70.20857, -22.09915], [-70.20843, -22.09926], [-70.2086, -22.09946], [-70.20875, -22.09936], [-70.20857, -22.09915]]]}}, {"type": "Feature", "properties": {"clase": "verde"}, "geometry": {"type": "Polygon", "coordinates": [[[-70.18384, -22.08421], [-70.18373, -22.0843], [-70.18352, -22.0841], [-70.1838, -22.08411], [-70.18384, -22.08421]]]}}, {"type": "Feature", "properties": {"clase": "verde"}, "geometry": {"type": "Polygon", "coordinates": [[[-70.21186, -22.11224], [-70.21174, -22.11225], [-70.2117, -22.11204], [-70.21182, -22.11203], [-70.21186, -22.11224]]]}}, {"type": "Feature", "properties": {"clase": "verde"}, "geometry": {"type": "Polygon", "coordinates": [[[-70.21012, -22.11141], [-70.20995, -22.11145], [-70.21004, -22.11178], [-70.21021, -22.11175], [-70.21012, -22.11141]]]}}, {"type": "Feature", "properties": {"clase": "verde"}, "geometry": {"type": "Polygon", "coordinates": [[[-70.21339, -22.10572], [-70.21331, -22.1058], [-70.21311, -22.10565], [-70.21319, -22.10556], [-70.21339, -22.10572]]]}}, {"type": "Feature", "properties": {"clase": "verde"}, "geometry": {"type": "Polygon", "coordinates": [[[-70.21329, -22.10543], [-70.21321, -22.10551], [-70.2134, -22.10567], [-70.21348, -22.1056], [-70.21329, -22.10543]]]}}, {"type": "Feature", "properties": {"clase": "verde"}, "geometry": {"type": "Polygon", "coordinates": [[[-70.21302, -22.10132], [-70.21287, -22.10139], [-70.213, -22.10164], [-70.21316, -22.10157], [-70.21302, -22.10132]]]}}, {"type": "Feature", "properties": {"clase": "verde"}, "geometry": {"type": "Polygon", "coordinates": [[[-70.20334, -22.09621], [-70.20325, -22.0963], [-70.20342, -22.09645], [-70.20351, -22.09636], [-70.20334, -22.09621]]]}}, {"type": "Feature", "properties": {"clase": "verde"}, "geometry": {"type": "Polygon", "coordinates": [[[-70.19463, -22.08162], [-70.1945, -22.08165], [-70.19456, -22.08185], [-70.19469, -22.08182], [-70.19463, -22.08162]]]}}, {"type": "Feature", "properties": {"clase": "verde"}, "geometry": {"type": "Polygon", "coordinates": [[[-70.19462, -22.08559], [-70.19448, -22.0856], [-70.19449, -22.08579], [-70.19463, -22.08578], [-70.19462, -22.08559]]]}}, {"type": "Feature", "properties": {"clase": "verde"}, "geometry": {"type": "Polygon", "coordinates": [[[-70.19589, -22.08862], [-70.19516, -22.08825], [-70.19504, -22.08839], [-70.19582, -22.089], [-70.19589, -22.08862]]]}}, {"type": "Feature", "properties": {"clase": "verde"}, "geometry": {"type": "Polygon", "coordinates": [[[-70.19661, -22.09191], [-70.19654, -22.09198], [-70.19669, -22.0921], [-70.19676, -22.09203], [-70.19661, -22.09191]]]}}, {"type": "Feature", "properties": {"clase": "verde"}, "geometry": {"type": "Polygon", "coordinates": [[[-70.19384, -22.08846], [-70.19373, -22.08837], [-70.19358, -22.08853], [-70.19369, -22.08862], [-70.19384, -22.08846]]]}}, {"type": "Feature", "properties": {"clase": "verde"}, "geometry": {"type": "Polygon", "coordinates": [[[-70.21422, -22.11394], [-70.21444, -22.11452], [-70.21389, -22.11474], [-70.21375, -22.11417], [-70.21422, -22.11394]]]}}, {"type": "Feature", "properties": {"clase": "verde"}, "geometry": {"type": "Polygon", "coordinates": [[[-70.19152, -22.06661], [-70.19141, -22.06663], [-70.19147, -22.06684], [-70.19157, -22.06682], [-70.19152, -22.06661]]]}}, {"type": "Feature", "properties": {"clase": "verde"}, "geometry": {"type": "Polygon", "coordinates": [[[-70.2135, -22.10102], [-70.21286, -22.10131], [-70.21277, -22.10146], [-70.21292, -22.10171], [-70.21376, -22.10135], [-70.2135, -22.10102]]]}}, {"type": "Feature", "properties": {"clase": "verde"}, "geometry": {"type": "Polygon", "coordinates": [[[-70.1983, -22.08985], [-70.19843, -22.08964], [-70.19912, -22.09026], [-70.1983, -22.08985]]]}}, {"type": "Feature", "properties": {"clase": "verde"}, "geometry": {"type": "Polygon", "coordinates": [[[-70.19506, -22.08818], [-70.19495, -22.08832], [-70.19418, -22.08782], [-70.19423, -22.08775], [-70.19506, -22.08818]]]}}, {"type": "Feature", "properties": {"clase": "verde"}, "geometry": {"type": "Polygon", "coordinates": [[[-70.19404, -22.08764], [-70.19401, -22.08772], [-70.19311, -22.08716], [-70.19404, -22.08764]]]}}, {"type": "Feature", "properties": {"clase": "verde"}, "geometry": {"type": "Polygon", "coordinates": [[[-70.19596, -22.08821], [-70.19597, -22.08831], [-70.19584, -22.08832], [-70.19596, -22.08821]]]}}, {"type": "Feature", "properties": {"clase": "verde"}, "geometry": {"type": "Polygon", "coordinates": [[[-70.19617, -22.08808], [-70.196, -22.08851], [-70.19521, -22.08817], [-70.19617, -22.08808]]]}}, {"type": "Feature", "properties": {"clase": "verde"}, "geometry": {"type": "Polygon", "coordinates": [[[-70.18993, -22.08553], [-70.18901, -22.08505], [-70.18895, -22.08512], [-70.18988, -22.0856], [-70.18993, -22.08553]]]}}, {"type": "Feature", "properties": {"clase": "verde"}, "geometry": {"type": "Polygon", "coordinates": [[[-70.19409, -22.08907], [-70.19383, -22.08887], [-70.19355, -22.08917], [-70.19381, -22.08937], [-70.19409, -22.08907]]]}}, {"type": "Feature", "properties": {"clase": "verde"}, "geometry": {"type": "Polygon", "coordinates": [[[-70.19102, -22.08609], [-70.19, -22.08564], [-70.19102, -22.08609]]]}}, {"type": "Feature", "properties": {"clase": "verde"}, "geometry": {"type": "Polygon", "coordinates": [[[-70.18684, -22.08393], [-70.18679, -22.084], [-70.1859, -22.08353], [-70.18684, -22.08393]]]}}, {"type": "Feature", "properties": {"clase": "verde"}, "geometry": {"type": "Polygon", "coordinates": [[[-70.19304, -22.08712], [-70.19303, -22.08721], [-70.19214, -22.08676], [-70.19304, -22.08712]]]}}, {"type": "Feature", "properties": {"clase": "verde"}, "geometry": {"type": "Polygon", "coordinates": [[[-70.18581, -22.08341], [-70.18576, -22.08348], [-70.18515, -22.08315], [-70.18581, -22.08341]]]}}, {"type": "Feature", "properties": {"clase": "verde"}, "geometry": {"type": "Polygon", "coordinates": [[[-70.18789, -22.08448], [-70.18694, -22.08408], [-70.18789, -22.08448]]]}}, {"type": "Feature", "properties": {"clase": "verde"}, "geometry": {"type": "Polygon", "coordinates": [[[-70.19166, -22.08641], [-70.19162, -22.08649], [-70.19104, -22.08619], [-70.19166, -22.08641]]]}}, {"type": "Feature", "properties": {"clase": "verde"}, "geometry": {"type": "Polygon", "coordinates": [[[-70.18895, -22.08502], [-70.18797, -22.08461], [-70.18895, -22.08502]]]}}, {"type": "Feature", "properties": {"clase": "verde"}, "geometry": {"type": "Polygon", "coordinates": [[[-70.20558, -22.09681], [-70.20579, -22.09704], [-70.2057, -22.09714], [-70.20544, -22.09695], [-70.20558, -22.09681]]]}}, {"type": "Feature", "properties": {"clase": "verde"}, "geometry": {"type": "Polygon", "coordinates": [[[-70.19327, -22.08766], [-70.19342, -22.0875], [-70.19367, -22.08763], [-70.19348, -22.08782], [-70.19327, -22.08766]]]}}, {"type": "Feature", "properties": {"clase": "verde"}, "geometry": {"type": "Polygon", "coordinates": [[[-70.19203, -22.08661], [-70.19171, -22.08653], [-70.19203, -22.08661]]]}}, {"type": "Feature", "properties": {"clase": "verde"}, "geometry": {"type": "Polygon", "coordinates": [[[-70.20238, -22.09303], [-70.2026, -22.09322], [-70.20243, -22.09339], [-70.20221, -22.0932], [-70.20238, -22.09303]]]}}, {"type": "Feature", "properties": {"clase": "verde"}, "geometry": {"type": "Polygon", "coordinates": [[[-70.19074, -22.08371], [-70.19101, -22.08386], [-70.19085, -22.08361], [-70.19074, -22.08371]]]}}, {"type": "Feature", "properties": {"clase": "verde"}, "geometry": {"type": "Polygon", "coordinates": [[[-70.19677, -22.09635], [-70.1967, -22.09646], [-70.19647, -22.09637], [-70.19654, -22.09625], [-70.19677, -22.09635]]]}}, {"type": "Feature", "properties": {"clase": "verde"}, "geometry": {"type": "Polygon", "coordinates": [[[-70.19424, -22.08139], [-70.19382, -22.08095], [-70.19399, -22.08076], [-70.19424, -22.08139]]]}}, {"type": "Feature", "properties": {"clase": "verde"}, "geometry": {"type": "Polygon", "coordinates": [[[-70.19694, -22.08625], [-70.19696, -22.08678], [-70.19712, -22.08676], [-70.19694, -22.08625]]]}}, {"type": "Feature", "properties": {"clase": "verde"}, "geometry": {"type": "Polygon", "coordinates": [[[-70.19235, -22.07858], [-70.19217, -22.07844], [-70.19198, -22.07863], [-70.19235, -22.07858]]]}}, {"type": "Feature", "properties": {"clase": "verde"}, "geometry": {"type": "Polygon", "coordinates": [[[-70.19299, -22.0891], [-70.1937, -22.08834], [-70.19398, -22.08857], [-70.19349, -22.0888], [-70.1933, -22.08935], [-70.19299, -22.0891]]]}}, {"type": "Feature", "properties": {"clase": "verde"}, "geometry": {"type": "Polygon", "coordinates": [[[-70.21024, -22.11113], [-70.21008, -22.11115], [-70.21009, -22.11132], [-70.21028, -22.11131], [-70.21024, -22.11113]]]}}, {"type": "Feature", "properties": {"clase": "verde"}, "geometry": {"type": "Polygon", "coordinates": [[[-70.21276, -22.11221], [-70.21257, -22.11223], [-70.21261, -22.1125], [-70.2128, -22.1125], [-70.21276, -22.11221]]]}}, {"type": "Feature", "properties": {"clase": "verde"}, "geometry": {"type": "Polygon", "coordinates": [[[-70.209, -22.1098], [-70.20879, -22.1098], [-70.20908, -22.11029], [-70.209, -22.1098]]]}}, {"type": "Feature", "properties": {"clase": "verde"}, "geometry": {"type": "Polygon", "coordinates": [[[-70.18588, -22.08196], [-70.18579, -22.08185], [-70.18559, -22.08191], [-70.18573, -22.08204], [-70.18588, -22.08196]]]}}, {"type": "Feature", "properties": {"clase": "verde"}, "geometry": {"type": "Polygon", "coordinates": [[[-70.21297, -22.10673], [-70.21283, -22.10668], [-70.21276, -22.10682], [-70.2129, -22.10687], [-70.21297, -22.10673]]]}}, {"type": "Feature", "properties": {"clase": "verde"}, "geometry": {"type": "Polygon", "coordinates": [[[-70.20981, -22.09968], [-70.20939, -22.09925], [-70.2091, -22.09948], [-70.20831, -22.09854], [-70.20826, -22.09918], [-70.20918, -22.10014], [-70.20981, -22.09968]]]}}, {"type": "Feature", "properties": {"clase": "verde"}, "geometry": {"type": "Polygon", "coordinates": [[[-70.21072, -22.10843], [-70.21067, -22.1079], [-70.21052, -22.10791], [-70.21049, -22.10771], [-70.21038, -22.10773], [-70.2103, -22.10725], [-70.21039, -22.1071], [-70.21062, -22.10706], [-70.21118, -22.10751], [-70.21095, -22.10837], [-70.21072, -22.10843]]]}}, {"type": "Feature", "properties": {"clase": "verde"}, "geometry": {"type": "Polygon", "coordinates": [[[-70.18644, -22.06237], [-70.18683, -22.06229], [-70.1849, -22.06223], [-70.18644, -22.06237]]]}}, {"type": "Feature", "properties": {"clase": "verde"}, "geometry": {"type": "Polygon", "coordinates": [[[-70.20229, -22.0972], [-70.2019, -22.09715], [-70.20221, -22.09738], [-70.20229, -22.0972]]]}}, {"type": "Feature", "properties": {"clase": "verde"}, "geometry": {"type": "Polygon", "coordinates": [[[-70.19042, -22.08299], [-70.19034, -22.08324], [-70.19018, -22.08319], [-70.19026, -22.08295], [-70.19042, -22.08299]]]}}, {"type": "Feature", "properties": {"clase": "verde"}, "geometry": {"type": "Polygon", "coordinates": [[[-70.19307, -22.07661], [-70.19295, -22.07675], [-70.19302, -22.07696], [-70.19319, -22.077], [-70.19307, -22.07661]]]}}], "_meta": {"ciudad": "Tocopilla", "fuente": "OpenStreetMap (ODbL) — extracción puntual Overpass"}}