{"type": "FeatureCollection", "features": [{"type": "Feature", "properties": {"clase": "verde"}, "geometry": {"type": "Polygon", "coordinates": [[[-68.05966, -23.68403], [-68.05957, -23.68377], [-68.05939, -23.68382], [-68.05948, -23.68408], [-68.05966, -23.68403]]]}}, {"type": "Feature", "properties": {"clase": "verde"}, "geometry": {"type": "Polygon", "coordinates": [[[-68.05949, -23.6837], [-68.05935, -23.68377], [-68.05924, -23.68356], [-68.05938, -23.68349], [-68.05949, -23.6837]]]}}, {"type": "Feature", "properties": {"clase": "verde"}, "geometry": {"type": "Polygon", "coordinates": [[[-68.06173, -23.68337], [-68.0618, -23.6837], [-68.06168, -23.68374], [-68.06163, -23.6835], [-68.06173, -23.68337]]]}}, {"type": "Feature", "properties": {"clase": "verde"}, "geometry": {"type": "Polygon", "coordinates": [[[-68.05908, -23.68309], [-68.05922, -23.68336], [-68.05913, -23.68339], [-68.059, -23.68312], [-68.05908, -23.68309]]]}}, {"type": "Feature", "properties": {"clase": "verde"}, "geometry": {"type": "Polygon", "coordinates": [[[-68.07513, -23.68149], [-68.07448, -23.6807], [-68.07507, -23.68029], [-68.07572, -23.68108], [-68.07513, -23.68149]]]}}, {"type": "Feature", "properties": {"clase": "verde"}, "geometry": {"type": "Polygon", "coordinates": [[[-68.06798, -23.68183], [-68.06764, -23.68201], [-68.06774, -23.68219], [-68.06809, -23.682], [-68.06798, -23.68183]]]}}], "_meta": {"ciudad": "Peine", "fuente": "OpenStreetMap (ODbL) — extracción puntual Overpass"}}