{"type": "FeatureCollection", "features": [{"type": "Feature", "properties": {"clase": "verde"}, "geometry": {"type": "Polygon", "coordinates": [[[-70.44638, -23.10419], [-70.44573, -23.1043], [-70.44591, -23.10523], [-70.44657, -23.10512], [-70.44638, -23.10419]]]}}, {"type": "Feature", "properties": {"clase": "verde"}, "geometry": {"type": "Polygon", "coordinates": [[[-70.44692, -23.10551], [-70.4463, -23.10562], [-70.44648, -23.10652], [-70.4471, -23.1064], [-70.44692, -23.10551]]]}}, {"type": "Feature", "properties": {"clase": "verde"}, "geometry": {"type": "Polygon", "coordinates": [[[-70.4508, -23.10143], [-70.45095, -23.10145], [-70.45108, -23.10069], [-70.45093, -23.10067], [-70.4508, -23.10143]]]}}, {"type": "Feature", "properties": {"clase": "verde"}, "geometry": {"type": "Polygon", "coordinates": [[[-70.45088, -23.10167], [-70.4508, -23.10159], [-70.45088, -23.10167]]]}}, {"type": "Feature", "properties": {"clase": "verde"}, "geometry": {"type": "Polygon", "coordinates": [[[-70.44197, -23.10345], [-70.44192, -23.10371], [-70.4416, -23.10366], [-70.44164, -23.1034], [-70.44197, -23.10345]]]}}, {"type": "Feature", "properties": {"clase": "verde"}, "geometry": {"type": "Polygon", "coordinates": [[[-70.44626, -23.10228], [-70.44498, -23.10205], [-70.44626, -23.10228]]]}}, {"type": "Feature", "properties": {"clase": "verde"}, "geometry": {"type": "Polygon", "coordinates": [[[-70.44135, -23.10141], [-70.4448, -23.10199], [-70.44135, -23.10141]]]}}, {"type": "Feature", "properties": {"clase": "verde"}, "geometry": {"type": "Polygon", "coordinates": [[[-70.4706, -23.10112], [-70.4706, -23.10126], [-70.47029, -23.10126], [-70.47029, -23.10112], [-70.4706, -23.10112]]]}}, {"type": "Feature", "properties": {"clase": "verde"}, "geometry": {"type": "Polygon", "coordinates": [[[-70.45236, -23.09962], [-70.45128, -23.09945], [-70.45133, -23.09912], [-70.45075, -23.09877], [-70.45101, -23.09858], [-70.45232, -23.09889], [-70.45255, -23.09908], [-70.45236, -23.09962]]]}}, {"type": "Feature", "properties": {"clase": "verde"}, "geometry": {"type": "Polygon", "coordinates": [[[-70.44623, -23.1039], [-70.44585, -23.10396], [-70.44579, -23.10366], [-70.44617, -23.1036], [-70.44623, -23.1039]]]}}, {"type": "Feature", "properties": {"clase": "verde"}, "geometry": {"type": "Polygon", "coordinates": [[[-70.44367, -23.10579], [-70.44354, -23.10573], [-70.44342, -23.10592], [-70.44355, -23.10599], [-70.44367, -23.10579]]]}}, {"type": "Feature", "properties": {"clase": "verde"}, "geometry": {"type": "Polygon", "coordinates": [[[-70.44976, -23.10614], [-70.44962, -23.10616], [-70.44968, -23.10646], [-70.44981, -23.10643], [-70.44976, -23.10614]]]}}, {"type": "Feature", "properties": {"clase": "verde"}, "geometry": {"type": "Polygon", "coordinates": [[[-70.44865, -23.1057], [-70.44844, -23.10573], [-70.44848, -23.106], [-70.4487, -23.10597], [-70.44865, -23.1057]]]}}, {"type": "Feature", "properties": {"clase": "verde"}, "geometry": {"type": "Polygon", "coordinates": [[[-70.45345, -23.09916], [-70.45335, -23.09915], [-70.45331, -23.09936], [-70.45341, -23.09938], [-70.45345, -23.09916]]]}}, {"type": "Feature", "properties": {"clase": "verde"}, "geometry": {"type": "Polygon", "coordinates": [[[-70.45329, -23.09915], [-70.4532, -23.09913], [-70.45317, -23.09934], [-70.45326, -23.09935], [-70.45329, -23.09915]]]}}, {"type": "Feature", "properties": {"clase": "verde"}, "geometry": {"type": "Polygon", "coordinates": [[[-70.44811, -23.09918], [-70.44795, -23.09915], [-70.44791, -23.0994], [-70.44807, -23.09943], [-70.44811, -23.09918]]]}}, {"type": "Feature", "properties": {"clase": "verde"}, "geometry": {"type": "Polygon", "coordinates": [[[-70.45505, -23.10077], [-70.45502, -23.10092], [-70.45473, -23.10088], [-70.45475, -23.10073], [-70.45505, -23.10077]]]}}, {"type": "Feature", "properties": {"clase": "verde"}, "geometry": {"type": "Polygon", "coordinates": [[[-70.4446, -23.10262], [-70.44414, -23.10259], [-70.44411, -23.10282], [-70.44456, -23.10282], [-70.4446, -23.10262]]]}}, {"type": "Feature", "properties": {"clase": "verde"}, "geometry": {"type": "Polygon", "coordinates": [[[-70.44877, -23.10415], [-70.4488, -23.10427], [-70.44856, -23.10432], [-70.44853, -23.10419], [-70.44877, -23.10415]]]}}, {"type": "Feature", "properties": {"clase": "verde"}, "geometry": {"type": "Polygon", "coordinates": [[[-70.44618, -23.10572], [-70.44603, -23.10574], [-70.44607, -23.10602], [-70.44623, -23.10599], [-70.44618, -23.10572]]]}}, {"type": "Feature", "properties": {"clase": "verde"}, "geometry": {"type": "Polygon", "coordinates": [[[-70.44628, -23.10621], [-70.44612, -23.10623], [-70.44617, -23.10651], [-70.44632, -23.10649], [-70.44628, -23.10621]]]}}, {"type": "Feature", "properties": {"clase": "verde"}, "geometry": {"type": "Polygon", "coordinates": [[[-70.4459, -23.10568], [-70.44568, -23.10571], [-70.44577, -23.10615], [-70.44599, -23.10611], [-70.4459, -23.10568]]]}}, {"type": "Feature", "properties": {"clase": "verde"}, "geometry": {"type": "Polygon", "coordinates": [[[-70.446, -23.10618], [-70.44578, -23.10621], [-70.44587, -23.10665], [-70.44609, -23.10661], [-70.446, -23.10618]]]}}, {"type": "Feature", "properties": {"clase": "verde"}, "geometry": {"type": "Polygon", "coordinates": [[[-70.44404, -23.10693], [-70.44391, -23.10687], [-70.44378, -23.10708], [-70.44391, -23.10715], [-70.44404, -23.10693]]]}}, {"type": "Feature", "properties": {"clase": "verde"}, "geometry": {"type": "Polygon", "coordinates": [[[-70.44453, -23.10543], [-70.44442, -23.10538], [-70.4443, -23.10559], [-70.44441, -23.10564], [-70.44453, -23.10543]]]}}, {"type": "Feature", "properties": {"clase": "verde"}, "geometry": {"type": "Polygon", "coordinates": [[[-70.46739, -23.10071], [-70.46719, -23.10072], [-70.46719, -23.10081], [-70.46739, -23.10081], [-70.46739, -23.10071]]]}}, {"type": "Feature", "properties": {"clase": "verde"}, "geometry": {"type": "Polygon", "coordinates": [[[-70.46595, -23.10098], [-70.4658, -23.10101], [-70.46585, -23.10129], [-70.466, -23.10127], [-70.46595, -23.10098]]]}}, {"type": "Feature", "properties": {"clase": "verde"}, "geometry": {"type": "Polygon", "coordinates": [[[-70.46668, -23.10035], [-70.46641, -23.10039], [-70.46644, -23.10055], [-70.46671, -23.10051], [-70.46668, -23.10035]]]}}, {"type": "Feature", "properties": {"clase": "verde"}, "geometry": {"type": "Polygon", "coordinates": [[[-70.44824, -23.10071], [-70.44863, -23.10082], [-70.44854, -23.10134], [-70.44871, -23.10136], [-70.4489, -23.10034], [-70.44943, -23.10034], [-70.44826, -23.10017], [-70.44824, -23.10071]]]}}, {"type": "Feature", "properties": {"clase": "verde"}, "geometry": {"type": "Polygon", "coordinates": [[[-70.44579, -23.10272], [-70.44554, -23.10276], [-70.44556, -23.10289], [-70.44581, -23.10285], [-70.44579, -23.10272]]]}}, {"type": "Feature", "properties": {"clase": "verde"}, "geometry": {"type": "Polygon", "coordinates": [[[-70.44678, -23.10846], [-70.44664, -23.10855], [-70.44678, -23.10846]]]}}, {"type": "Feature", "properties": {"clase": "verde"}, "geometry": {"type": "Polygon", "coordinates": [[[-70.44717, -23.1084], [-70.44685, -23.10841], [-70.44686, -23.1085], [-70.44717, -23.10849], [-70.44717, -23.1084]]]}}, {"type": "Feature", "properties": {"clase": "verde"}, "geometry": {"type": "Polygon", "coordinates": [[[-70.44754, -23.10821], [-70.44723, -23.10822], [-70.44724, -23.10844], [-70.44755, -23.10843], [-70.44754, -23.10821]]]}}, {"type": "Feature", "properties": {"clase": "verde"}, "geometry": {"type": "Polygon", "coordinates": [[[-70.44894, -23.10805], [-70.44894, -23.10819], [-70.44925, -23.10817], [-70.44924, -23.10804], [-70.44894, -23.10805]]]}}, {"type": "Feature", "properties": {"clase": "verde"}, "geometry": {"type": "Polygon", "coordinates": [[[-70.44857, -23.10812], [-70.44858, -23.10838], [-70.44888, -23.10836], [-70.44886, -23.10811], [-70.44857, -23.10812]]]}}, {"type": "Feature", "properties": {"clase": "verde"}, "geometry": {"type": "Polygon", "coordinates": [[[-70.4482, -23.10831], [-70.44849, -23.1083], [-70.44849, -23.10816], [-70.4482, -23.10817], [-70.4482, -23.10831]]]}}, {"type": "Feature", "properties": {"clase": "verde"}, "geometry": {"type": "Polygon", "coordinates": [[[-70.45354, -23.09954], [-70.45354, -23.09979], [-70.4525, -23.09963], [-70.45255, -23.09937], [-70.45354, -23.09954]]]}}, {"type": "Feature", "properties": {"clase": "agua"}, "geometry": {"type": "Polygon", "coordinates": [[[-70.47337, -23.10404], [-70.47351, -23.10401], [-70.47345, -23.10379], [-70.47331, -23.10383], [-70.47337, -23.10404]]]}}, {"type": "Feature", "properties": {"clase": "agua"}, "geometry": {"type": "Polygon", "coordinates": [[[-70.47315, -23.10387], [-70.47322, -23.10408], [-70.47336, -23.10404], [-70.47329, -23.10383], [-70.47315, -23.10387]]]}}, {"type": "Feature", "properties": {"clase": "agua"}, "geometry": {"type": "Polygon", "coordinates": [[[-70.47299, -23.10408], [-70.47292, -23.10414], [-70.47299, -23.10408]]]}}, {"type": "Feature", "properties": {"clase": "verde"}, "geometry": {"type": "Polygon", "coordinates": [[[-70.44601, -23.10848], [-70.44573, -23.10849], [-70.44574, -23.10863], [-70.44602, -23.10862], [-70.44601, -23.10848]]]}}, {"type": "Feature", "properties": {"clase": "verde"}, "geometry": {"type": "Polygon", "coordinates": [[[-70.4504, -23.10166], [-70.45061, -23.10169], [-70.4504, -23.10166]]]}}], "_meta": {"ciudad": "Mejillones", "fuente": "OpenStreetMap (ODbL) — extracción puntual Overpass"}}