{"type": "FeatureCollection", "features": [{"type": "Feature", "properties": {"clase": "verde"}, "geometry": {"type": "Polygon", "coordinates": [[[-68.93055, -22.45463], [-68.93006, -22.45462], [-68.93055, -22.45485], [-68.93055, -22.45463]]]}}, {"type": "Feature", "properties": {"clase": "verde"}, "geometry": {"type": "Polygon", "coordinates": [[[-68.92542, -22.46458], [-68.92515, -22.46456], [-68.92523, -22.46331], [-68.92551, -22.46331], [-68.92542, -22.46458]]]}}, {"type": "Feature", "properties": {"clase": "verde"}, "geometry": {"type": "Polygon", "coordinates": [[[-68.9298, -22.45464], [-68.92978, -22.45603], [-68.92942, -22.45593], [-68.92941, -22.45464], [-68.9298, -22.45464]]]}}, {"type": "Feature", "properties": {"clase": "verde"}, "geometry": {"type": "Polygon", "coordinates": [[[-68.92933, -22.45832], [-68.92884, -22.4582], [-68.92887, -22.45809], [-68.92933, -22.45832]]]}}, {"type": "Feature", "properties": {"clase": "verde"}, "geometry": {"type": "Polygon", "coordinates": [[[-68.92686, -22.46526], [-68.92664, -22.46534], [-68.92668, -22.46517], [-68.92686, -22.46526]]]}}, {"type": "Feature", "properties": {"clase": "verde"}, "geometry": {"type": "Polygon", "coordinates": [[[-68.9322, -22.46515], [-68.93315, -22.46521], [-68.93311, -22.46582], [-68.93216, -22.46576], [-68.9322, -22.46515]]]}}, {"type": "Feature", "properties": {"clase": "verde"}, "geometry": {"type": "Polygon", "coordinates": [[[-68.93489, -22.46566], [-68.93508, -22.46665], [-68.93482, -22.46656], [-68.93489, -22.46566]]]}}, {"type": "Feature", "properties": {"clase": "verde"}, "geometry": {"type": "Polygon", "coordinates": [[[-68.93753, -22.46737], [-68.93816, -22.46751], [-68.93837, -22.46673], [-68.93773, -22.4666], [-68.93753, -22.46737]]]}}, {"type": "Feature", "properties": {"clase": "verde"}, "geometry": {"type": "Polygon", "coordinates": [[[-68.9348, -22.46813], [-68.935, -22.46762], [-68.93479, -22.46755], [-68.93458, -22.46807], [-68.9348, -22.46813]]]}}, {"type": "Feature", "properties": {"clase": "verde"}, "geometry": {"type": "Polygon", "coordinates": [[[-68.93385, -22.46728], [-68.93367, -22.46777], [-68.93344, -22.4677], [-68.93363, -22.46721], [-68.93385, -22.46728]]]}}, {"type": "Feature", "properties": {"clase": "verde"}, "geometry": {"type": "Polygon", "coordinates": [[[-68.93797, -22.4598], [-68.93863, -22.45983], [-68.93858, -22.46074], [-68.93792, -22.46071], [-68.93797, -22.4598]]]}}, {"type": "Feature", "properties": {"clase": "verde"}, "geometry": {"type": "Polygon", "coordinates": [[[-68.92957, -22.4519], [-68.92973, -22.45273], [-68.92963, -22.4528], [-68.92928, -22.45271], [-68.92914, -22.45198], [-68.92957, -22.4519]]]}}, {"type": "Feature", "properties": {"clase": "verde"}, "geometry": {"type": "Polygon", "coordinates": [[[-68.93655, -22.4794], [-68.93655, -22.48029], [-68.93594, -22.48029], [-68.93593, -22.47941], [-68.93655, -22.4794]]]}}, {"type": "Feature", "properties": {"clase": "verde"}, "geometry": {"type": "Polygon", "coordinates": [[[-68.93844, -22.48019], [-68.93775, -22.48005], [-68.93796, -22.47912], [-68.93865, -22.47926], [-68.93844, -22.48019]]]}}, {"type": "Feature", "properties": {"clase": "verde"}, "geometry": {"type": "Polygon", "coordinates": [[[-68.93736, -22.4794], [-68.93736, -22.48029], [-68.93675, -22.48029], [-68.93674, -22.47941], [-68.93736, -22.4794]]]}}, {"type": "Feature", "properties": {"clase": "verde"}, "geometry": {"type": "Polygon", "coordinates": [[[-68.92376, -22.45035], [-68.92309, -22.45048], [-68.92289, -22.44961], [-68.92356, -22.44948], [-68.92376, -22.45035]]]}}, {"type": "Feature", "properties": {"clase": "verde"}, "geometry": {"type": "Polygon", "coordinates": [[[-68.91802, -22.45043], [-68.91735, -22.45033], [-68.91751, -22.44941], [-68.91818, -22.44951], [-68.91802, -22.45043]]]}}, {"type": "Feature", "properties": {"clase": "verde"}, "geometry": {"type": "Polygon", "coordinates": [[[-68.93687, -22.47836], [-68.93688, -22.47924], [-68.93627, -22.47924], [-68.93626, -22.47836], [-68.93687, -22.47836]]]}}, {"type": "Feature", "properties": {"clase": "verde"}, "geometry": {"type": "Polygon", "coordinates": [[[-68.938, -22.47731], [-68.938, -22.47819], [-68.93739, -22.47819], [-68.93738, -22.47731], [-68.938, -22.47731]]]}}, {"type": "Feature", "properties": {"clase": "verde"}, "geometry": {"type": "Polygon", "coordinates": [[[-68.93769, -22.47834], [-68.93769, -22.47922], [-68.93708, -22.47923], [-68.93708, -22.47835], [-68.93769, -22.47834]]]}}, {"type": "Feature", "properties": {"clase": "verde"}, "geometry": {"type": "Polygon", "coordinates": [[[-68.9336, -22.4439], [-68.93292, -22.44402], [-68.93271, -22.44303], [-68.9334, -22.44291], [-68.9336, -22.4439]]]}}, {"type": "Feature", "properties": {"clase": "verde"}, "geometry": {"type": "Polygon", "coordinates": [[[-68.92512, -22.44542], [-68.92375, -22.44564], [-68.92413, -22.44577], [-68.92516, -22.44562], [-68.92512, -22.44542]]]}}, {"type": "Feature", "properties": {"clase": "verde"}, "geometry": {"type": "Polygon", "coordinates": [[[-68.92301, -22.44143], [-68.92263, -22.44149], [-68.92279, -22.44222], [-68.9232, -22.44216], [-68.92301, -22.44143]]]}}, {"type": "Feature", "properties": {"clase": "agua"}, "geometry": {"type": "Polygon", "coordinates": [[[-68.96874, -22.44431], [-68.96898, -22.44451], [-68.96863, -22.44446], [-68.96852, -22.4449], [-68.96864, -22.44506], [-68.96791, -22.44536], [-68.96598, -22.44546], [-68.96514, -22.44531], [-68.96369, -22.44537], [-68.96295, -22.4451], [-68.96341, -22.44434], [-68.96357, -22.44443], [-68.96435, -22.44424], [-68.96498, -22.44448], [-68.96581, -22.44439], [-68.96616, -22.44453], [-68.96649, -22.44447], [-68.96665, -22.44461], [-68.96729, -22.44438], [-68.96825, -22.44434], [-68.96847, -22.44444], [-68.96874, -22.44431]]]}}, {"type": "Feature", "properties": {"clase": "verde"}, "geometry": {"type": "Polygon", "coordinates": [[[-68.91998, -22.43935], [-68.91929, -22.43947], [-68.91909, -22.43849], [-68.91977, -22.43836], [-68.91998, -22.43935]]]}}, {"type": "Feature", "properties": {"clase": "verde"}, "geometry": {"type": "Polygon", "coordinates": [[[-68.91494, -22.44743], [-68.91459, -22.44736], [-68.91454, -22.44758], [-68.91489, -22.44765], [-68.91494, -22.44743]]]}}, {"type": "Feature", "properties": {"clase": "verde"}, "geometry": {"type": "Polygon", "coordinates": [[[-68.91537, -22.44759], [-68.91523, -22.4482], [-68.91622, -22.4484], [-68.91636, -22.44778], [-68.91537, -22.44759]]]}}, {"type": "Feature", "properties": {"clase": "verde"}, "geometry": {"type": "Polygon", "coordinates": [[[-68.91277, -22.45432], [-68.9116, -22.45412], [-68.91145, -22.45486], [-68.91264, -22.45506], [-68.91277, -22.45432]]]}}, {"type": "Feature", "properties": {"clase": "verde"}, "geometry": {"type": "Polygon", "coordinates": [[[-68.91446, -22.46624], [-68.91397, -22.46609], [-68.91368, -22.46686], [-68.91417, -22.46701], [-68.91446, -22.46624]]]}}, {"type": "Feature", "properties": {"clase": "verde"}, "geometry": {"type": "Polygon", "coordinates": [[[-68.91629, -22.46827], [-68.9159, -22.46906], [-68.91636, -22.46926], [-68.91675, -22.46846], [-68.91629, -22.46827]]]}}, {"type": "Feature", "properties": {"clase": "verde"}, "geometry": {"type": "Polygon", "coordinates": [[[-68.91572, -22.46799], [-68.91532, -22.46879], [-68.91579, -22.46899], [-68.91619, -22.46818], [-68.91572, -22.46799]]]}}, {"type": "Feature", "properties": {"clase": "verde"}, "geometry": {"type": "Polygon", "coordinates": [[[-68.92917, -22.4833], [-68.9297, -22.48266], [-68.92962, -22.48249], [-68.92984, -22.4818], [-68.92999, -22.48173], [-68.92983, -22.48081], [-68.92928, -22.4798], [-68.92862, -22.47969], [-68.92857, -22.48001], [-68.92672, -22.47963], [-68.92656, -22.47946], [-68.9259, -22.47932], [-68.92434, -22.47951], [-68.92355, -22.47948], [-68.92358, -22.48011], [-68.92596, -22.48031], [-68.92609, -22.4801], [-68.92818, -22.48081], [-68.92806, -22.48145], [-68.92861, -22.48165], [-68.92846, -22.48287], [-68.92917, -22.4833]]]}}, {"type": "Feature", "properties": {"clase": "verde"}, "geometry": {"type": "Polygon", "coordinates": [[[-68.928, -22.47809], [-68.92785, -22.47763], [-68.92765, -22.47768], [-68.92779, -22.47815], [-68.928, -22.47809]]]}}, {"type": "Feature", "properties": {"clase": "verde"}, "geometry": {"type": "Polygon", "coordinates": [[[-68.92869, -22.46952], [-68.92809, -22.46947], [-68.92801, -22.4703], [-68.9286, -22.47034], [-68.92869, -22.46952]]]}}, {"type": "Feature", "properties": {"clase": "verde"}, "geometry": {"type": "Polygon", "coordinates": [[[-68.90706, -22.44817], [-68.90736, -22.4483], [-68.90721, -22.44871], [-68.90683, -22.44861], [-68.90706, -22.44844], [-68.90706, -22.44817]]]}}, {"type": "Feature", "properties": {"clase": "verde"}, "geometry": {"type": "Polygon", "coordinates": [[[-68.90114, -22.45317], [-68.90017, -22.45249], [-68.90005, -22.45253], [-68.90111, -22.45332], [-68.90123, -22.45326], [-68.90114, -22.45317]]]}}, {"type": "Feature", "properties": {"clase": "verde"}, "geometry": {"type": "Polygon", "coordinates": [[[-68.89999, -22.45237], [-68.8998, -22.45242], [-68.89996, -22.45251], [-68.89999, -22.45237]]]}}, {"type": "Feature", "properties": {"clase": "verde"}, "geometry": {"type": "Polygon", "coordinates": [[[-68.89979, -22.45223], [-68.89939, -22.45196], [-68.89929, -22.45201], [-68.89971, -22.45235], [-68.89979, -22.45223]]]}}, {"type": "Feature", "properties": {"clase": "verde"}, "geometry": {"type": "Polygon", "coordinates": [[[-68.90035, -22.4521], [-68.90042, -22.45226], [-68.90013, -22.45235], [-68.89999, -22.45225], [-68.90035, -22.4521]]]}}, {"type": "Feature", "properties": {"clase": "verde"}, "geometry": {"type": "Polygon", "coordinates": [[[-68.90124, -22.45181], [-68.90044, -22.45207], [-68.90046, -22.45221], [-68.90144, -22.45193], [-68.90142, -22.45179], [-68.90124, -22.45181]]]}}, {"type": "Feature", "properties": {"clase": "verde"}, "geometry": {"type": "Polygon", "coordinates": [[[-68.90148, -22.45174], [-68.90152, -22.45188], [-68.90188, -22.45165], [-68.90148, -22.45174]]]}}, {"type": "Feature", "properties": {"clase": "verde"}, "geometry": {"type": "Polygon", "coordinates": [[[-68.90237, -22.44952], [-68.90189, -22.44975], [-68.90245, -22.44959], [-68.90237, -22.44952]]]}}, {"type": "Feature", "properties": {"clase": "verde"}, "geometry": {"type": "Polygon", "coordinates": [[[-68.93551, -22.48538], [-68.93515, -22.48582], [-68.93435, -22.48524], [-68.9347, -22.48481], [-68.93551, -22.48538]]]}}, {"type": "Feature", "properties": {"clase": "verde"}, "geometry": {"type": "Polygon", "coordinates": [[[-68.94384, -22.48577], [-68.94402, -22.48681], [-68.94331, -22.48691], [-68.94313, -22.48588], [-68.94384, -22.48577]]]}}, {"type": "Feature", "properties": {"clase": "verde"}, "geometry": {"type": "Polygon", "coordinates": [[[-68.93947, -22.44665], [-68.93903, -22.44672], [-68.93916, -22.44734], [-68.9396, -22.44726], [-68.93947, -22.44665]]]}}, {"type": "Feature", "properties": {"clase": "verde"}, "geometry": {"type": "Polygon", "coordinates": [[[-68.93973, -22.44856], [-68.93911, -22.44867], [-68.93892, -22.44775], [-68.93954, -22.44764], [-68.93973, -22.44856]]]}}, {"type": "Feature", "properties": {"clase": "verde"}, "geometry": {"type": "Polygon", "coordinates": [[[-68.92008, -22.46609], [-68.92043, -22.46516], [-68.92105, -22.46536], [-68.9207, -22.46629], [-68.92008, -22.46609]]]}}, {"type": "Feature", "properties": {"clase": "verde"}, "geometry": {"type": "Polygon", "coordinates": [[[-68.93877, -22.44729], [-68.93867, -22.44679], [-68.939, -22.44673], [-68.9391, -22.44723], [-68.93877, -22.44729]]]}}, {"type": "Feature", "properties": {"clase": "verde"}, "geometry": {"type": "Polygon", "coordinates": [[[-68.92201, -22.46565], [-68.92139, -22.46548], [-68.92109, -22.46638], [-68.92171, -22.46656], [-68.92201, -22.46565]]]}}, {"type": "Feature", "properties": {"clase": "verde"}, "geometry": {"type": "Polygon", "coordinates": [[[-68.92182, -22.46667], [-68.92213, -22.46584], [-68.92273, -22.46602], [-68.92242, -22.46686], [-68.92182, -22.46667]]]}}, {"type": "Feature", "properties": {"clase": "verde"}, "geometry": {"type": "Polygon", "coordinates": [[[-68.92981, -22.45447], [-68.92941, -22.45447], [-68.92941, -22.4533], [-68.92977, -22.45319], [-68.92981, -22.45447]]]}}, {"type": "Feature", "properties": {"clase": "verde"}, "geometry": {"type": "Polygon", "coordinates": [[[-68.92935, -22.45323], [-68.92927, -22.45277], [-68.92954, -22.45287], [-68.92959, -22.45305], [-68.92954, -22.45319], [-68.92935, -22.45323]]]}}, {"type": "Feature", "properties": {"clase": "verde"}, "geometry": {"type": "Polygon", "coordinates": [[[-68.9286, -22.45325], [-68.92853, -22.45291], [-68.92906, -22.45281], [-68.92914, -22.45324], [-68.9286, -22.45325]]]}}, {"type": "Feature", "properties": {"clase": "verde"}, "geometry": {"type": "Polygon", "coordinates": [[[-68.93209, -22.45274], [-68.93209, -22.45309], [-68.93141, -22.45307], [-68.93138, -22.45285], [-68.93209, -22.45274]]]}}, {"type": "Feature", "properties": {"clase": "verde"}, "geometry": {"type": "Polygon", "coordinates": [[[-68.93784, -22.45979], [-68.93782, -22.46004], [-68.93767, -22.46003], [-68.93769, -22.45978], [-68.93784, -22.45979]]]}}, {"type": "Feature", "properties": {"clase": "verde"}, "geometry": {"type": "Polygon", "coordinates": [[[-68.92586, -22.43554], [-68.92591, -22.43579], [-68.92606, -22.43576], [-68.926, -22.43551], [-68.92586, -22.43554]]]}}, {"type": "Feature", "properties": {"clase": "verde"}, "geometry": {"type": "Polygon", "coordinates": [[[-68.92604, -22.4355], [-68.9261, -22.43575], [-68.92624, -22.43572], [-68.92619, -22.43547], [-68.92604, -22.4355]]]}}, {"type": "Feature", "properties": {"clase": "verde"}, "geometry": {"type": "Polygon", "coordinates": [[[-68.94743, -22.45091], [-68.94703, -22.45089], [-68.94702, -22.45109], [-68.94741, -22.45112], [-68.94743, -22.45091]]]}}, {"type": "Feature", "properties": {"clase": "verde"}, "geometry": {"type": "Polygon", "coordinates": [[[-68.94625, -22.45048], [-68.94586, -22.45047], [-68.94585, -22.451], [-68.94624, -22.45101], [-68.94625, -22.45048]]]}}, {"type": "Feature", "properties": {"clase": "verde"}, "geometry": {"type": "Polygon", "coordinates": [[[-68.94845, -22.45019], [-68.94843, -22.45049], [-68.94825, -22.45048], [-68.94827, -22.45019], [-68.94845, -22.45019]]]}}, {"type": "Feature", "properties": {"clase": "verde"}, "geometry": {"type": "Polygon", "coordinates": [[[-68.94887, -22.45198], [-68.94864, -22.45197], [-68.94863, -22.45218], [-68.94886, -22.45219], [-68.94887, -22.45198]]]}}, {"type": "Feature", "properties": {"clase": "verde"}, "geometry": {"type": "Polygon", "coordinates": [[[-68.94728, -22.45155], [-68.94708, -22.45153], [-68.94705, -22.45197], [-68.94725, -22.45198], [-68.94728, -22.45155]]]}}, {"type": "Feature", "properties": {"clase": "verde"}, "geometry": {"type": "Polygon", "coordinates": [[[-68.89389, -22.44602], [-68.89415, -22.44597], [-68.89405, -22.44552], [-68.89379, -22.44557], [-68.89389, -22.44602]]]}}, {"type": "Feature", "properties": {"clase": "agua"}, "geometry": {"type": "Polygon", "coordinates": [[[-68.87415, -22.43662], [-68.87443, -22.43651], [-68.87431, -22.43624], [-68.87402, -22.43636], [-68.87415, -22.43662]]]}}, {"type": "Feature", "properties": {"clase": "agua"}, "geometry": {"type": "Polygon", "coordinates": [[[-68.87405, -22.43666], [-68.87393, -22.4364], [-68.87364, -22.43652], [-68.87376, -22.43678], [-68.87405, -22.43666]]]}}, {"type": "Feature", "properties": {"clase": "verde"}, "geometry": {"type": "Polygon", "coordinates": [[[-68.9041, -22.4789], [-68.90383, -22.47911], [-68.90354, -22.47881], [-68.90369, -22.47868], [-68.90386, -22.47888], [-68.90398, -22.47878], [-68.9041, -22.4789]]]}}, {"type": "Feature", "properties": {"clase": "verde"}, "geometry": {"type": "Polygon", "coordinates": [[[-68.92371, -22.43241], [-68.92344, -22.43247], [-68.92347, -22.4326], [-68.92374, -22.43255], [-68.92371, -22.43241]]]}}, {"type": "Feature", "properties": {"clase": "verde"}, "geometry": {"type": "Polygon", "coordinates": [[[-68.90735, -22.47354], [-68.90749, -22.4734], [-68.90727, -22.47325], [-68.90735, -22.47354]]]}}, {"type": "Feature", "properties": {"clase": "verde"}, "geometry": {"type": "Polygon", "coordinates": [[[-68.90725, -22.47354], [-68.90709, -22.47342], [-68.90719, -22.47329], [-68.90725, -22.47354]]]}}, {"type": "Feature", "properties": {"clase": "verde"}, "geometry": {"type": "Polygon", "coordinates": [[[-68.90717, -22.47358], [-68.90696, -22.47353], [-68.90717, -22.47358]]]}}, {"type": "Feature", "properties": {"clase": "verde"}, "geometry": {"type": "Polygon", "coordinates": [[[-68.92597, -22.48177], [-68.92576, -22.48171], [-68.9256, -22.48213], [-68.92581, -22.4822], [-68.92597, -22.48177]]]}}, {"type": "Feature", "properties": {"clase": "verde"}, "geometry": {"type": "Polygon", "coordinates": [[[-68.92564, -22.48171], [-68.92544, -22.48164], [-68.92529, -22.48199], [-68.92548, -22.48206], [-68.92564, -22.48171]]]}}, {"type": "Feature", "properties": {"clase": "verde"}, "geometry": {"type": "Polygon", "coordinates": [[[-68.92537, -22.48164], [-68.92517, -22.48157], [-68.92504, -22.48191], [-68.92524, -22.48198], [-68.92537, -22.48164]]]}}, {"type": "Feature", "properties": {"clase": "verde"}, "geometry": {"type": "Polygon", "coordinates": [[[-68.91996, -22.48727], [-68.91985, -22.48739], [-68.91967, -22.48722], [-68.91978, -22.48711], [-68.91996, -22.48727]]]}}, {"type": "Feature", "properties": {"clase": "verde"}, "geometry": {"type": "Polygon", "coordinates": [[[-68.91375, -22.47778], [-68.91331, -22.47776], [-68.91328, -22.47859], [-68.91372, -22.47861], [-68.91375, -22.47778]]]}}, {"type": "Feature", "properties": {"clase": "verde"}, "geometry": {"type": "Polygon", "coordinates": [[[-68.91228, -22.47739], [-68.91215, -22.47734], [-68.91203, -22.47757], [-68.91217, -22.47763], [-68.91228, -22.47739]]]}}, {"type": "Feature", "properties": {"clase": "verde"}, "geometry": {"type": "Polygon", "coordinates": [[[-68.91206, -22.4773], [-68.91193, -22.47725], [-68.91183, -22.47748], [-68.91196, -22.47753], [-68.91206, -22.4773]]]}}, {"type": "Feature", "properties": {"clase": "verde"}, "geometry": {"type": "Polygon", "coordinates": [[[-68.91122, -22.48017], [-68.91098, -22.48015], [-68.91096, -22.48031], [-68.91121, -22.48032], [-68.91122, -22.48017]]]}}, {"type": "Feature", "properties": {"clase": "verde"}, "geometry": {"type": "Polygon", "coordinates": [[[-68.9037, -22.47874], [-68.90361, -22.47881], [-68.90374, -22.47895], [-68.90383, -22.47888], [-68.9037, -22.47874]]]}}, {"type": "Feature", "properties": {"clase": "verde"}, "geometry": {"type": "Polygon", "coordinates": [[[-68.9096, -22.47482], [-68.90896, -22.47481], [-68.90895, -22.47573], [-68.90959, -22.47574], [-68.9096, -22.47482]]]}}, {"type": "Feature", "properties": {"clase": "verde"}, "geometry": {"type": "Polygon", "coordinates": [[[-68.90858, -22.4761], [-68.90847, -22.4761], [-68.90847, -22.47631], [-68.90857, -22.47632], [-68.90858, -22.4761]]]}}, {"type": "Feature", "properties": {"clase": "verde"}, "geometry": {"type": "Polygon", "coordinates": [[[-68.90841, -22.47611], [-68.90831, -22.47611], [-68.90831, -22.47631], [-68.9084, -22.47632], [-68.90841, -22.47611]]]}}, {"type": "Feature", "properties": {"clase": "verde"}, "geometry": {"type": "Polygon", "coordinates": [[[-68.90857, -22.4764], [-68.90848, -22.4764], [-68.90848, -22.47661], [-68.90857, -22.47662], [-68.90857, -22.4764]]]}}, {"type": "Feature", "properties": {"clase": "verde"}, "geometry": {"type": "Polygon", "coordinates": [[[-68.9084, -22.47641], [-68.90831, -22.47641], [-68.90831, -22.47661], [-68.9084, -22.47641]]]}}, {"type": "Feature", "properties": {"clase": "verde"}, "geometry": {"type": "Polygon", "coordinates": [[[-68.94245, -22.46327], [-68.94232, -22.46326], [-68.9423, -22.46351], [-68.94244, -22.46352], [-68.94245, -22.46327]]]}}, {"type": "Feature", "properties": {"clase": "verde"}, "geometry": {"type": "Polygon", "coordinates": [[[-68.94951, -22.45827], [-68.94903, -22.45823], [-68.949, -22.45854], [-68.94948, -22.45858], [-68.94951, -22.45827]]]}}, {"type": "Feature", "properties": {"clase": "verde"}, "geometry": {"type": "Polygon", "coordinates": [[[-68.94822, -22.45609], [-68.9481, -22.45607], [-68.94808, -22.45622], [-68.9482, -22.45624], [-68.94822, -22.45609]]]}}, {"type": "Feature", "properties": {"clase": "verde"}, "geometry": {"type": "Polygon", "coordinates": [[[-68.94998, -22.45612], [-68.94982, -22.45611], [-68.9498, -22.45635], [-68.94996, -22.45636], [-68.94998, -22.45612]]]}}, {"type": "Feature", "properties": {"clase": "verde"}, "geometry": {"type": "Polygon", "coordinates": [[[-68.94545, -22.45554], [-68.94533, -22.45553], [-68.94532, -22.45573], [-68.94544, -22.45573], [-68.94545, -22.45554]]]}}, {"type": "Feature", "properties": {"clase": "verde"}, "geometry": {"type": "Polygon", "coordinates": [[[-68.95027, -22.45065], [-68.95012, -22.45065], [-68.95011, -22.45086], [-68.95026, -22.45086], [-68.95027, -22.45065]]]}}, {"type": "Feature", "properties": {"clase": "verde"}, "geometry": {"type": "Polygon", "coordinates": [[[-68.9461, -22.45054], [-68.94593, -22.45054], [-68.94593, -22.4508], [-68.94609, -22.4508], [-68.9461, -22.45054]]]}}, {"type": "Feature", "properties": {"clase": "verde"}, "geometry": {"type": "Polygon", "coordinates": [[[-68.94141, -22.44769], [-68.94124, -22.4477], [-68.94124, -22.44797], [-68.94141, -22.44797], [-68.94141, -22.44769]]]}}, {"type": "Feature", "properties": {"clase": "verde"}, "geometry": {"type": "Polygon", "coordinates": [[[-68.93393, -22.44267], [-68.93379, -22.44269], [-68.93384, -22.44294], [-68.93398, -22.44291], [-68.93393, -22.44267]]]}}, {"type": "Feature", "properties": {"clase": "verde"}, "geometry": {"type": "Polygon", "coordinates": [[[-68.93495, -22.4388], [-68.93479, -22.43882], [-68.93483, -22.43907], [-68.93499, -22.43905], [-68.93495, -22.4388]]]}}, {"type": "Feature", "properties": {"clase": "verde"}, "geometry": {"type": "Polygon", "coordinates": [[[-68.92714, -22.43286], [-68.92689, -22.43291], [-68.92692, -22.43303], [-68.92717, -22.43298], [-68.92714, -22.43286]]]}}, {"type": "Feature", "properties": {"clase": "verde"}, "geometry": {"type": "Polygon", "coordinates": [[[-68.93014, -22.43606], [-68.92998, -22.43607], [-68.92999, -22.43634], [-68.93015, -22.43633], [-68.93014, -22.43606]]]}}, {"type": "Feature", "properties": {"clase": "verde"}, "geometry": {"type": "Polygon", "coordinates": [[[-68.92025, -22.43863], [-68.92012, -22.43865], [-68.92015, -22.43884], [-68.92029, -22.43882], [-68.92025, -22.43863]]]}}, {"type": "Feature", "properties": {"clase": "verde"}, "geometry": {"type": "Polygon", "coordinates": [[[-68.91907, -22.43881], [-68.91886, -22.43884], [-68.91892, -22.43918], [-68.91912, -22.43916], [-68.91907, -22.43881]]]}}, {"type": "Feature", "properties": {"clase": "verde"}, "geometry": {"type": "Polygon", "coordinates": [[[-68.91912, -22.43919], [-68.91893, -22.43922], [-68.91899, -22.43952], [-68.91918, -22.43948], [-68.91912, -22.43919]]]}}, {"type": "Feature", "properties": {"clase": "verde"}, "geometry": {"type": "Polygon", "coordinates": [[[-68.91879, -22.43929], [-68.91868, -22.43931], [-68.91872, -22.43952], [-68.91883, -22.43951], [-68.91879, -22.43929]]]}}, {"type": "Feature", "properties": {"clase": "verde"}, "geometry": {"type": "Polygon", "coordinates": [[[-68.91861, -22.43934], [-68.91851, -22.43935], [-68.91854, -22.43956], [-68.91864, -22.43954], [-68.91861, -22.43934]]]}}, {"type": "Feature", "properties": {"clase": "verde"}, "geometry": {"type": "Polygon", "coordinates": [[[-68.91362, -22.43445], [-68.91347, -22.43449], [-68.91355, -22.43473], [-68.9137, -22.43469], [-68.91362, -22.43445]]]}}, {"type": "Feature", "properties": {"clase": "verde"}, "geometry": {"type": "Polygon", "coordinates": [[[-68.91555, -22.45278], [-68.9154, -22.45276], [-68.91537, -22.45299], [-68.91553, -22.45301], [-68.91555, -22.45278]]]}}, {"type": "Feature", "properties": {"clase": "verde"}, "geometry": {"type": "Polygon", "coordinates": [[[-68.901, -22.44815], [-68.90087, -22.44811], [-68.90081, -22.4483], [-68.90094, -22.44833], [-68.901, -22.44815]]]}}, {"type": "Feature", "properties": {"clase": "verde"}, "geometry": {"type": "Polygon", "coordinates": [[[-68.91685, -22.43263], [-68.91849, -22.43215], [-68.91851, -22.43203], [-68.9168, -22.43249], [-68.91685, -22.43263]]]}}, {"type": "Feature", "properties": {"clase": "verde"}, "geometry": {"type": "Polygon", "coordinates": [[[-68.91858, -22.43199], [-68.92224, -22.43096], [-68.92227, -22.43108], [-68.91863, -22.43213], [-68.91858, -22.43199]]]}}, {"type": "Feature", "properties": {"clase": "verde"}, "geometry": {"type": "Polygon", "coordinates": [[[-68.91676, -22.43251], [-68.91679, -22.43265], [-68.91623, -22.43281], [-68.91618, -22.43264], [-68.91676, -22.43251]]]}}, {"type": "Feature", "properties": {"clase": "verde"}, "geometry": {"type": "Polygon", "coordinates": [[[-68.92235, -22.43106], [-68.92231, -22.43092], [-68.92302, -22.43076], [-68.92383, -22.43029], [-68.92381, -22.42975], [-68.92394, -22.42973], [-68.92405, -22.43026], [-68.92382, -22.4305], [-68.92305, -22.43089], [-68.92235, -22.43106]]]}}, {"type": "Feature", "properties": {"clase": "verde"}, "geometry": {"type": "Polygon", "coordinates": [[[-68.92383, -22.42922], [-68.92267, -22.42966], [-68.92198, -22.42963], [-68.92163, -22.42981], [-68.92086, -22.42976], [-68.92004, -22.43006], [-68.9198, -22.42994], [-68.91976, -22.42979], [-68.91939, -22.42983], [-68.91942, -22.42998], [-68.91894, -22.4302], [-68.91811, -22.43014], [-68.91806, -22.43001], [-68.9177, -22.43012], [-68.91769, -22.43039], [-68.91674, -22.43035], [-68.91652, -22.43057], [-68.91605, -22.43045], [-68.916, -22.43083], [-68.92392, -22.42962], [-68.92383, -22.42922]]]}}, {"type": "Feature", "properties": {"clase": "verde"}, "geometry": {"type": "Polygon", "coordinates": [[[-68.90223, -22.47651], [-68.90213, -22.47641], [-68.90194, -22.47658], [-68.90203, -22.47667], [-68.90223, -22.47651]]]}}, {"type": "Feature", "properties": {"clase": "verde"}, "geometry": {"type": "Polygon", "coordinates": [[[-68.92019, -22.48774], [-68.92027, -22.48844], [-68.92014, -22.48846], [-68.91958, -22.48794], [-68.91986, -22.48766], [-68.92019, -22.48774]]]}}, {"type": "Feature", "properties": {"clase": "verde"}, "geometry": {"type": "Polygon", "coordinates": [[[-68.94525, -22.46472], [-68.94506, -22.46482], [-68.94331, -22.46424], [-68.94541, -22.46429], [-68.94525, -22.46472]]]}}, {"type": "Feature", "properties": {"clase": "verde"}, "geometry": {"type": "Polygon", "coordinates": [[[-68.92412, -22.48225], [-68.92394, -22.48218], [-68.92379, -22.48253], [-68.92397, -22.48259], [-68.92412, -22.48225]]]}}, {"type": "Feature", "properties": {"clase": "verde"}, "geometry": {"type": "Polygon", "coordinates": [[[-68.92396, -22.48264], [-68.92378, -22.48257], [-68.92362, -22.48289], [-68.92381, -22.48297], [-68.92396, -22.48264]]]}}, {"type": "Feature", "properties": {"clase": "verde"}, "geometry": {"type": "Polygon", "coordinates": [[[-68.93299, -22.44137], [-68.9328, -22.4414], [-68.93287, -22.44171], [-68.93305, -22.44168], [-68.93299, -22.44137]]]}}, {"type": "Feature", "properties": {"clase": "verde"}, "geometry": {"type": "Polygon", "coordinates": [[[-68.93885, -22.44525], [-68.93871, -22.44527], [-68.93876, -22.44553], [-68.9389, -22.44551], [-68.93885, -22.44525]]]}}, {"type": "Feature", "properties": {"clase": "verde"}, "geometry": {"type": "Polygon", "coordinates": [[[-68.92506, -22.43279], [-68.92452, -22.43286], [-68.92465, -22.43351], [-68.9252, -22.43342], [-68.92506, -22.43279]]]}}, {"type": "Feature", "properties": {"clase": "verde"}, "geometry": {"type": "Polygon", "coordinates": [[[-68.9246, -22.43084], [-68.9245, -22.43037], [-68.92428, -22.43029], [-68.92401, -22.43044], [-68.92421, -22.43054], [-68.92427, -22.43088], [-68.9246, -22.43084]]]}}, {"type": "Feature", "properties": {"clase": "verde"}, "geometry": {"type": "Polygon", "coordinates": [[[-68.92469, -22.43098], [-68.92438, -22.43098], [-68.92477, -22.43273], [-68.92504, -22.43262], [-68.92469, -22.43098]]]}}, {"type": "Feature", "properties": {"clase": "verde"}, "geometry": {"type": "Polygon", "coordinates": [[[-68.92452, -22.4342], [-68.92422, -22.43425], [-68.92425, -22.43438], [-68.92455, -22.43434], [-68.92452, -22.4342]]]}}, {"type": "Feature", "properties": {"clase": "verde"}, "geometry": {"type": "Polygon", "coordinates": [[[-68.92523, -22.43358], [-68.92508, -22.43355], [-68.9253, -22.43468], [-68.92541, -22.43469], [-68.92523, -22.43358]]]}}, {"type": "Feature", "properties": {"clase": "verde"}, "geometry": {"type": "Polygon", "coordinates": [[[-68.92547, -22.43475], [-68.92532, -22.43477], [-68.92558, -22.43586], [-68.92569, -22.43582], [-68.92547, -22.43475]]]}}, {"type": "Feature", "properties": {"clase": "verde"}, "geometry": {"type": "Polygon", "coordinates": [[[-68.92431, -22.43544], [-68.92427, -22.43557], [-68.92431, -22.43544]]]}}, {"type": "Feature", "properties": {"clase": "verde"}, "geometry": {"type": "Polygon", "coordinates": [[[-68.92572, -22.43598], [-68.92557, -22.43591], [-68.92577, -22.437], [-68.92591, -22.43697], [-68.92572, -22.43598]]]}}, {"type": "Feature", "properties": {"clase": "verde"}, "geometry": {"type": "Polygon", "coordinates": [[[-68.92378, -22.44017], [-68.92348, -22.44022], [-68.92351, -22.44036], [-68.92381, -22.4403], [-68.92378, -22.44017]]]}}, {"type": "Feature", "properties": {"clase": "verde"}, "geometry": {"type": "Polygon", "coordinates": [[[-68.92413, -22.44012], [-68.92403, -22.44014], [-68.92407, -22.44034], [-68.92417, -22.44032], [-68.92413, -22.44012]]]}}, {"type": "Feature", "properties": {"clase": "verde"}, "geometry": {"type": "Polygon", "coordinates": [[[-68.92204, -22.44149], [-68.9219, -22.44151], [-68.92206, -22.44236], [-68.92221, -22.44234], [-68.92204, -22.44149]]]}}, {"type": "Feature", "properties": {"clase": "verde"}, "geometry": {"type": "Polygon", "coordinates": [[[-68.93034, -22.43607], [-68.93018, -22.43607], [-68.93018, -22.43634], [-68.93034, -22.43634], [-68.93034, -22.43607]]]}}, {"type": "Feature", "properties": {"clase": "verde"}, "geometry": {"type": "Polygon", "coordinates": [[[-68.93013, -22.43783], [-68.92998, -22.43786], [-68.93005, -22.43812], [-68.93019, -22.4381], [-68.93013, -22.43783]]]}}, {"type": "Feature", "properties": {"clase": "verde"}, "geometry": {"type": "Polygon", "coordinates": [[[-68.9299, -22.43829], [-68.92963, -22.43834], [-68.92972, -22.43882], [-68.92999, -22.43877], [-68.9299, -22.43829]]]}}, {"type": "Feature", "properties": {"clase": "verde"}, "geometry": {"type": "Polygon", "coordinates": [[[-68.93773, -22.4427], [-68.93754, -22.44273], [-68.9376, -22.44301], [-68.93779, -22.44298], [-68.93773, -22.4427]]]}}, {"type": "Feature", "properties": {"clase": "verde"}, "geometry": {"type": "Polygon", "coordinates": [[[-68.92923, -22.44432], [-68.92909, -22.44435], [-68.92914, -22.44459], [-68.92928, -22.44456], [-68.92923, -22.44432]]]}}, {"type": "Feature", "properties": {"clase": "verde"}, "geometry": {"type": "Polygon", "coordinates": [[[-68.92953, -22.44441], [-68.92928, -22.44445], [-68.92931, -22.44458], [-68.92955, -22.44454], [-68.92953, -22.44441]]]}}, {"type": "Feature", "properties": {"clase": "verde"}, "geometry": {"type": "Polygon", "coordinates": [[[-68.93708, -22.45163], [-68.93679, -22.45169], [-68.93682, -22.45184], [-68.9371, -22.45179], [-68.93708, -22.45163]]]}}, {"type": "Feature", "properties": {"clase": "verde"}, "geometry": {"type": "Polygon", "coordinates": [[[-68.94736, -22.45892], [-68.94723, -22.45891], [-68.94721, -22.45915], [-68.94734, -22.45916], [-68.94736, -22.45892]]]}}, {"type": "Feature", "properties": {"clase": "verde"}, "geometry": {"type": "Polygon", "coordinates": [[[-68.94119, -22.459], [-68.9409, -22.45898], [-68.94089, -22.45912], [-68.94118, -22.45914], [-68.94119, -22.459]]]}}, {"type": "Feature", "properties": {"clase": "verde"}, "geometry": {"type": "Polygon", "coordinates": [[[-68.9312, -22.46401], [-68.93104, -22.464], [-68.93102, -22.46428], [-68.93118, -22.46429], [-68.9312, -22.46401]]]}}, {"type": "Feature", "properties": {"clase": "verde"}, "geometry": {"type": "Polygon", "coordinates": [[[-68.93579, -22.47587], [-68.93576, -22.47599], [-68.93551, -22.47593], [-68.93554, -22.47581], [-68.93579, -22.47587]]]}}, {"type": "Feature", "properties": {"clase": "verde"}, "geometry": {"type": "Polygon", "coordinates": [[[-68.93611, -22.47583], [-68.93597, -22.4758], [-68.9357, -22.47662], [-68.93585, -22.47666], [-68.93611, -22.47583]]]}}, {"type": "Feature", "properties": {"clase": "verde"}, "geometry": {"type": "Polygon", "coordinates": [[[-68.93426, -22.47722], [-68.93422, -22.47734], [-68.93391, -22.47726], [-68.93395, -22.47713], [-68.93426, -22.47722]]]}}, {"type": "Feature", "properties": {"clase": "verde"}, "geometry": {"type": "Polygon", "coordinates": [[[-68.93281, -22.47678], [-68.93239, -22.47667], [-68.93234, -22.47681], [-68.93276, -22.47693], [-68.93281, -22.47678]]]}}, {"type": "Feature", "properties": {"clase": "verde"}, "geometry": {"type": "Polygon", "coordinates": [[[-68.92915, -22.47758], [-68.92904, -22.47761], [-68.92912, -22.47782], [-68.92923, -22.47779], [-68.92915, -22.47758]]]}}, {"type": "Feature", "properties": {"clase": "verde"}, "geometry": {"type": "Polygon", "coordinates": [[[-68.93083, -22.47745], [-68.93063, -22.47739], [-68.9306, -22.47749], [-68.9308, -22.47755], [-68.93083, -22.47745]]]}}, {"type": "Feature", "properties": {"clase": "verde"}, "geometry": {"type": "Polygon", "coordinates": [[[-68.93451, -22.48076], [-68.93439, -22.48073], [-68.93431, -22.48097], [-68.93443, -22.481], [-68.93451, -22.48076]]]}}, {"type": "Feature", "properties": {"clase": "verde"}, "geometry": {"type": "Polygon", "coordinates": [[[-68.93169, -22.48002], [-68.93145, -22.47994], [-68.93141, -22.48005], [-68.93165, -22.48013], [-68.93169, -22.48002]]]}}, {"type": "Feature", "properties": {"clase": "verde"}, "geometry": {"type": "Polygon", "coordinates": [[[-68.93553, -22.48272], [-68.93513, -22.48261], [-68.93507, -22.48279], [-68.93546, -22.48291], [-68.93553, -22.48272]]]}}, {"type": "Feature", "properties": {"clase": "verde"}, "geometry": {"type": "Polygon", "coordinates": [[[-68.93451, -22.48864], [-68.93443, -22.48859], [-68.9343, -22.48877], [-68.93438, -22.48882], [-68.93451, -22.48864]]]}}, {"type": "Feature", "properties": {"clase": "verde"}, "geometry": {"type": "Polygon", "coordinates": [[[-68.91413, -22.48254], [-68.91395, -22.48271], [-68.91405, -22.48281], [-68.91424, -22.48264], [-68.91413, -22.48254]]]}}, {"type": "Feature", "properties": {"clase": "verde"}, "geometry": {"type": "Polygon", "coordinates": [[[-68.90855, -22.47931], [-68.90817, -22.47925], [-68.9089, -22.47842], [-68.90855, -22.47931]]]}}, {"type": "Feature", "properties": {"clase": "verde"}, "geometry": {"type": "Polygon", "coordinates": [[[-68.90961, -22.47889], [-68.90945, -22.47883], [-68.90928, -22.47937], [-68.90942, -22.47937], [-68.90961, -22.47889]]]}}, {"type": "Feature", "properties": {"clase": "verde"}, "geometry": {"type": "Polygon", "coordinates": [[[-68.90758, -22.47758], [-68.90737, -22.47753], [-68.90683, -22.47816], [-68.90691, -22.47837], [-68.90758, -22.47758]]]}}, {"type": "Feature", "properties": {"clase": "verde"}, "geometry": {"type": "Polygon", "coordinates": [[[-68.90833, -22.47801], [-68.9082, -22.47792], [-68.90748, -22.47879], [-68.90761, -22.47888], [-68.90833, -22.47801]]]}}, {"type": "Feature", "properties": {"clase": "verde"}, "geometry": {"type": "Polygon", "coordinates": [[[-68.9105, -22.47944], [-68.91012, -22.47942], [-68.9102, -22.47926], [-68.9105, -22.47944]]]}}, {"type": "Feature", "properties": {"clase": "verde"}, "geometry": {"type": "Polygon", "coordinates": [[[-68.90151, -22.48076], [-68.90156, -22.48091], [-68.90151, -22.48076]]]}}, {"type": "Feature", "properties": {"clase": "verde"}, "geometry": {"type": "Polygon", "coordinates": [[[-68.91909, -22.48512], [-68.91898, -22.48522], [-68.91914, -22.48537], [-68.91925, -22.48527], [-68.91909, -22.48512]]]}}, {"type": "Feature", "properties": {"clase": "verde"}, "geometry": {"type": "Polygon", "coordinates": [[[-68.90811, -22.44512], [-68.90785, -22.44507], [-68.90782, -22.44521], [-68.90808, -22.44525], [-68.90811, -22.44512]]]}}, {"type": "Feature", "properties": {"clase": "verde"}, "geometry": {"type": "Polygon", "coordinates": [[[-68.90595, -22.44474], [-68.90565, -22.44484], [-68.90572, -22.44504], [-68.90603, -22.44494], [-68.90595, -22.44474]]]}}, {"type": "Feature", "properties": {"clase": "verde"}, "geometry": {"type": "Polygon", "coordinates": [[[-68.90635, -22.44534], [-68.90604, -22.44543], [-68.90611, -22.44562], [-68.90642, -22.44553], [-68.90635, -22.44534]]]}}, {"type": "Feature", "properties": {"clase": "verde"}, "geometry": {"type": "Polygon", "coordinates": [[[-68.90499, -22.44575], [-68.90468, -22.44584], [-68.90474, -22.44602], [-68.90505, -22.44593], [-68.90499, -22.44575]]]}}, {"type": "Feature", "properties": {"clase": "verde"}, "geometry": {"type": "Polygon", "coordinates": [[[-68.90669, -22.44591], [-68.90636, -22.44601], [-68.90643, -22.44621], [-68.90676, -22.4461], [-68.90669, -22.44591]]]}}, {"type": "Feature", "properties": {"clase": "verde"}, "geometry": {"type": "Polygon", "coordinates": [[[-68.90829, -22.44686], [-68.90819, -22.44696], [-68.90839, -22.44713], [-68.90849, -22.44702], [-68.90829, -22.44686]]]}}, {"type": "Feature", "properties": {"clase": "verde"}, "geometry": {"type": "Polygon", "coordinates": [[[-68.91835, -22.45469], [-68.9182, -22.45469], [-68.9182, -22.45492], [-68.91834, -22.45492], [-68.91835, -22.45469]]]}}, {"type": "Feature", "properties": {"clase": "verde"}, "geometry": {"type": "Polygon", "coordinates": [[[-68.90278, -22.44419], [-68.90257, -22.4443], [-68.90282, -22.4447], [-68.90303, -22.44459], [-68.90278, -22.44419]]]}}, {"type": "Feature", "properties": {"clase": "verde"}, "geometry": {"type": "Polygon", "coordinates": [[[-68.90156, -22.44816], [-68.9011, -22.44795], [-68.90097, -22.44835], [-68.90156, -22.44816]]]}}, {"type": "Feature", "properties": {"clase": "verde"}, "geometry": {"type": "Polygon", "coordinates": [[[-68.90034, -22.44798], [-68.90014, -22.44793], [-68.90004, -22.44821], [-68.90028, -22.44814], [-68.90034, -22.44798]]]}}, {"type": "Feature", "properties": {"clase": "verde"}, "geometry": {"type": "Polygon", "coordinates": [[[-68.8992, -22.44753], [-68.89904, -22.44746], [-68.89897, -22.44761], [-68.89915, -22.44767], [-68.8992, -22.44753]]]}}, {"type": "Feature", "properties": {"clase": "verde"}, "geometry": {"type": "Polygon", "coordinates": [[[-68.89897, -22.44842], [-68.89878, -22.44838], [-68.89872, -22.44863], [-68.89897, -22.44842]]]}}, {"type": "Feature", "properties": {"clase": "verde"}, "geometry": {"type": "Polygon", "coordinates": [[[-68.90092, -22.44693], [-68.90078, -22.44678], [-68.90054, -22.44709], [-68.90074, -22.44718], [-68.90092, -22.44693]]]}}, {"type": "Feature", "properties": {"clase": "verde"}, "geometry": {"type": "Polygon", "coordinates": [[[-68.90133, -22.44725], [-68.90122, -22.44738], [-68.90156, -22.44755], [-68.90133, -22.44725]]]}}, {"type": "Feature", "properties": {"clase": "verde"}, "geometry": {"type": "Polygon", "coordinates": [[[-68.89978, -22.44645], [-68.89961, -22.44637], [-68.89948, -22.44658], [-68.89967, -22.44666], [-68.89978, -22.44645]]]}}, {"type": "Feature", "properties": {"clase": "verde"}, "geometry": {"type": "Polygon", "coordinates": [[[-68.90042, -22.44571], [-68.90026, -22.44557], [-68.90006, -22.44579], [-68.90024, -22.4459], [-68.90042, -22.44571]]]}}, {"type": "Feature", "properties": {"clase": "verde"}, "geometry": {"type": "Polygon", "coordinates": [[[-68.90743, -22.44201], [-68.90725, -22.44218], [-68.90734, -22.44226], [-68.90752, -22.4421], [-68.90743, -22.44201]]]}}, {"type": "Feature", "properties": {"clase": "verde"}, "geometry": {"type": "Polygon", "coordinates": [[[-68.90774, -22.44172], [-68.90751, -22.44193], [-68.90761, -22.44203], [-68.90784, -22.44182], [-68.90774, -22.44172]]]}}, {"type": "Feature", "properties": {"clase": "verde"}, "geometry": {"type": "Polygon", "coordinates": [[[-68.90669, -22.44119], [-68.90676, -22.44127], [-68.90653, -22.44147], [-68.90646, -22.4414], [-68.90669, -22.44119]]]}}, {"type": "Feature", "properties": {"clase": "verde"}, "geometry": {"type": "Polygon", "coordinates": [[[-68.90791, -22.44008], [-68.90799, -22.44014], [-68.9078, -22.44032], [-68.90773, -22.44025], [-68.90791, -22.44008]]]}}, {"type": "Feature", "properties": {"clase": "verde"}, "geometry": {"type": "Polygon", "coordinates": [[[-68.90718, -22.43932], [-68.90727, -22.4394], [-68.90707, -22.43959], [-68.90698, -22.43951], [-68.90718, -22.43932]]]}}, {"type": "Feature", "properties": {"clase": "verde"}, "geometry": {"type": "Polygon", "coordinates": [[[-68.90909, -22.43899], [-68.90917, -22.43907], [-68.90902, -22.43921], [-68.90894, -22.43913], [-68.90909, -22.43899]]]}}, {"type": "Feature", "properties": {"clase": "verde"}, "geometry": {"type": "Polygon", "coordinates": [[[-68.9085, -22.46568], [-68.90832, -22.46578], [-68.90853, -22.46611], [-68.90871, -22.46601], [-68.9085, -22.46568]]]}}, {"type": "Feature", "properties": {"clase": "verde"}, "geometry": {"type": "Polygon", "coordinates": [[[-68.90878, -22.46605], [-68.90861, -22.46615], [-68.90882, -22.46647], [-68.90899, -22.46638], [-68.90878, -22.46605]]]}}, {"type": "Feature", "properties": {"clase": "verde"}, "geometry": {"type": "Polygon", "coordinates": [[[-68.90858, -22.46617], [-68.90841, -22.46625], [-68.9086, -22.46658], [-68.90877, -22.4665], [-68.90858, -22.46617]]]}}, {"type": "Feature", "properties": {"clase": "verde"}, "geometry": {"type": "Polygon", "coordinates": [[[-68.90666, -22.4703], [-68.90654, -22.47038], [-68.90674, -22.47063], [-68.90686, -22.47054], [-68.90666, -22.4703]]]}}, {"type": "Feature", "properties": {"clase": "verde"}, "geometry": {"type": "Polygon", "coordinates": [[[-68.90638, -22.46977], [-68.90624, -22.46971], [-68.9062, -22.4698], [-68.90634, -22.46986], [-68.90638, -22.46977]]]}}, {"type": "Feature", "properties": {"clase": "verde"}, "geometry": {"type": "Polygon", "coordinates": [[[-68.90656, -22.46992], [-68.90656, -22.47002], [-68.90656, -22.46992]]]}}, {"type": "Feature", "properties": {"clase": "verde"}, "geometry": {"type": "Polygon", "coordinates": [[[-68.90917, -22.46471], [-68.90896, -22.46483], [-68.90918, -22.46515], [-68.90939, -22.46503], [-68.90917, -22.46471]]]}}, {"type": "Feature", "properties": {"clase": "verde"}, "geometry": {"type": "Polygon", "coordinates": [[[-68.95, -22.45653], [-68.94998, -22.45676], [-68.94922, -22.45671], [-68.94925, -22.45652], [-68.95, -22.45653]]]}}, {"type": "Feature", "properties": {"clase": "verde"}, "geometry": {"type": "Polygon", "coordinates": [[[-68.94912, -22.45651], [-68.9491, -22.4567], [-68.94796, -22.45661], [-68.94797, -22.45647], [-68.94912, -22.45651]]]}}, {"type": "Feature", "properties": {"clase": "verde"}, "geometry": {"type": "Polygon", "coordinates": [[[-68.92094, -22.45989], [-68.9203, -22.45979], [-68.92013, -22.46072], [-68.92076, -22.46082], [-68.92094, -22.45989]]]}}, {"type": "Feature", "properties": {"clase": "verde"}, "geometry": {"type": "Polygon", "coordinates": [[[-68.93674, -22.46696], [-68.93674, -22.46723], [-68.93658, -22.46723], [-68.93659, -22.46696], [-68.93674, -22.46696]]]}}, {"type": "Feature", "properties": {"clase": "verde"}, "geometry": {"type": "Polygon", "coordinates": [[[-68.93433, -22.46516], [-68.93431, -22.46551], [-68.9337, -22.46508], [-68.93433, -22.46516]]]}}, {"type": "Feature", "properties": {"clase": "verde"}, "geometry": {"type": "Polygon", "coordinates": [[[-68.93751, -22.47398], [-68.93736, -22.4741], [-68.93762, -22.47436], [-68.93776, -22.47424], [-68.93751, -22.47398]]]}}, {"type": "Feature", "properties": {"clase": "verde"}, "geometry": {"type": "Polygon", "coordinates": [[[-68.93767, -22.47386], [-68.93754, -22.47397], [-68.93778, -22.47421], [-68.93791, -22.4741], [-68.93767, -22.47386]]]}}, {"type": "Feature", "properties": {"clase": "verde"}, "geometry": {"type": "Polygon", "coordinates": [[[-68.92559, -22.48252], [-68.92509, -22.48233], [-68.92498, -22.48257], [-68.92549, -22.48276], [-68.92559, -22.48252]]]}}, {"type": "Feature", "properties": {"clase": "verde"}, "geometry": {"type": "Polygon", "coordinates": [[[-68.92495, -22.48262], [-68.92486, -22.48285], [-68.92538, -22.48305], [-68.92549, -22.4828], [-68.92495, -22.48262]]]}}, {"type": "Feature", "properties": {"clase": "verde"}, "geometry": {"type": "Polygon", "coordinates": [[[-68.92484, -22.48288], [-68.92472, -22.48313], [-68.92522, -22.48333], [-68.92534, -22.48308], [-68.92484, -22.48288]]]}}, {"type": "Feature", "properties": {"clase": "verde"}, "geometry": {"type": "Polygon", "coordinates": [[[-68.91978, -22.48242], [-68.91968, -22.48257], [-68.92, -22.48275], [-68.9201, -22.4826], [-68.91978, -22.48242]]]}}, {"type": "Feature", "properties": {"clase": "verde"}, "geometry": {"type": "Polygon", "coordinates": [[[-68.91967, -22.48261], [-68.91957, -22.48277], [-68.91989, -22.48294], [-68.91999, -22.48278], [-68.91967, -22.48261]]]}}, {"type": "Feature", "properties": {"clase": "verde"}, "geometry": {"type": "Polygon", "coordinates": [[[-68.90957, -22.47587], [-68.90895, -22.47588], [-68.90895, -22.47679], [-68.90957, -22.47678], [-68.90957, -22.47587]]]}}, {"type": "Feature", "properties": {"clase": "verde"}, "geometry": {"type": "Polygon", "coordinates": [[[-68.91029, -22.47588], [-68.90971, -22.47587], [-68.9097, -22.4768], [-68.91028, -22.47679], [-68.91029, -22.47588]]]}}, {"type": "Feature", "properties": {"clase": "verde"}, "geometry": {"type": "Polygon", "coordinates": [[[-68.89932, -22.45391], [-68.89932, -22.454], [-68.89881, -22.45404], [-68.8988, -22.45395], [-68.89932, -22.45391]]]}}, {"type": "Feature", "properties": {"clase": "verde"}, "geometry": {"type": "Polygon", "coordinates": [[[-68.90175, -22.44968], [-68.90179, -22.44978], [-68.90016, -22.45027], [-68.90175, -22.44968]]]}}, {"type": "Feature", "properties": {"clase": "verde"}, "geometry": {"type": "Polygon", "coordinates": [[[-68.89666, -22.44907], [-68.89646, -22.4491], [-68.8965, -22.44941], [-68.89671, -22.44939], [-68.89666, -22.44907]]]}}, {"type": "Feature", "properties": {"clase": "verde"}, "geometry": {"type": "Polygon", "coordinates": [[[-68.90908, -22.44585], [-68.90896, -22.44598], [-68.90918, -22.44616], [-68.9093, -22.44604], [-68.90908, -22.44585]]]}}, {"type": "Feature", "properties": {"clase": "verde"}, "geometry": {"type": "Polygon", "coordinates": [[[-68.91093, -22.44137], [-68.91081, -22.44148], [-68.91097, -22.44163], [-68.91109, -22.44153], [-68.91093, -22.44137]]]}}, {"type": "Feature", "properties": {"clase": "verde"}, "geometry": {"type": "Polygon", "coordinates": [[[-68.91831, -22.4353], [-68.91805, -22.43534], [-68.91807, -22.43546], [-68.91833, -22.43541], [-68.91831, -22.4353]]]}}, {"type": "Feature", "properties": {"clase": "verde"}, "geometry": {"type": "Polygon", "coordinates": [[[-68.94367, -22.44841], [-68.94367, -22.44854], [-68.9434, -22.44854], [-68.9434, -22.44841], [-68.94367, -22.44841]]]}}, {"type": "Feature", "properties": {"clase": "verde"}, "geometry": {"type": "Polygon", "coordinates": [[[-68.9627, -22.50673], [-68.96179, -22.5071], [-68.96203, -22.50761], [-68.96295, -22.50724], [-68.9627, -22.50673]]]}}, {"type": "Feature", "properties": {"clase": "verde"}, "geometry": {"type": "Polygon", "coordinates": [[[-68.96527, -22.50797], [-68.96518, -22.50807], [-68.96543, -22.50824], [-68.96552, -22.50813], [-68.96527, -22.50797]]]}}, {"type": "Feature", "properties": {"clase": "verde"}, "geometry": {"type": "Polygon", "coordinates": [[[-68.96543, -22.50786], [-68.96537, -22.50794], [-68.96553, -22.50805], [-68.96559, -22.50797], [-68.96543, -22.50786]]]}}, {"type": "Feature", "properties": {"clase": "verde"}, "geometry": {"type": "Polygon", "coordinates": [[[-68.96518, -22.50816], [-68.96504, -22.50832], [-68.96512, -22.50837], [-68.96525, -22.50821], [-68.96518, -22.50816]]]}}, {"type": "Feature", "properties": {"clase": "verde"}, "geometry": {"type": "Polygon", "coordinates": [[[-68.96537, -22.50827], [-68.96516, -22.50841], [-68.96524, -22.50846], [-68.96537, -22.50827]]]}}, {"type": "Feature", "properties": {"clase": "verde"}, "geometry": {"type": "Polygon", "coordinates": [[[-68.90031, -22.43758], [-68.90006, -22.43753], [-68.90003, -22.43767], [-68.90028, -22.43772], [-68.90031, -22.43758]]]}}, {"type": "Feature", "properties": {"clase": "verde"}, "geometry": {"type": "Polygon", "coordinates": [[[-68.94597, -22.47835], [-68.94581, -22.47824], [-68.94555, -22.47857], [-68.94571, -22.47868], [-68.94597, -22.47835]]]}}, {"type": "Feature", "properties": {"clase": "verde"}, "geometry": {"type": "Polygon", "coordinates": [[[-68.94602, -22.47838], [-68.94623, -22.47852], [-68.94596, -22.47886], [-68.94575, -22.47872], [-68.94602, -22.47838]]]}}, {"type": "Feature", "properties": {"clase": "verde"}, "geometry": {"type": "Polygon", "coordinates": [[[-68.92936, -22.45783], [-68.92932, -22.45801], [-68.92887, -22.45806], [-68.92899, -22.45757], [-68.92921, -22.45761], [-68.92916, -22.45779], [-68.92936, -22.45783]]]}}, {"type": "Feature", "properties": {"clase": "verde"}, "geometry": {"type": "Polygon", "coordinates": [[[-68.94245, -22.46417], [-68.94232, -22.46449], [-68.94186, -22.4644], [-68.94195, -22.46415], [-68.94245, -22.46417]]]}}, {"type": "Feature", "properties": {"clase": "agua"}, "geometry": {"type": "Polygon", "coordinates": [[[-68.8993, -22.44326], [-68.90102, -22.44451], [-68.90088, -22.44463], [-68.89941, -22.4434], [-68.89885, -22.44329], [-68.8993, -22.44326]]]}}, {"type": "Feature", "properties": {"clase": "agua"}, "geometry": {"type": "Polygon", "coordinates": [[[-68.90102, -22.44451], [-68.90132, -22.44477], [-68.9018, -22.44622], [-68.90166, -22.44624], [-68.90088, -22.44463], [-68.90102, -22.44451]]]}}, {"type": "Feature", "properties": {"clase": "agua"}, "geometry": {"type": "Polygon", "coordinates": [[[-68.9018, -22.44622], [-68.90228, -22.44676], [-68.90331, -22.44846], [-68.90355, -22.44924], [-68.90372, -22.45052], [-68.90329, -22.45144], [-68.90247, -22.4522], [-68.90208, -22.45335], [-68.90105, -22.45415], [-68.90039, -22.45502], [-68.9003, -22.45488], [-68.90082, -22.45427], [-68.90201, -22.45327], [-68.90232, -22.45219], [-68.90315, -22.45145], [-68.90349, -22.45098], [-68.90363, -22.45052], [-68.90347, -22.4491], [-68.90329, -22.44858], [-68.90224, -22.44682], [-68.90166, -22.44624], [-68.9018, -22.44622]]]}}, {"type": "Feature", "properties": {"clase": "verde"}, "geometry": {"type": "Polygon", "coordinates": [[[-68.94787, -22.45651], [-68.9474, -22.45641], [-68.94737, -22.45688], [-68.94784, -22.4569], [-68.94787, -22.45651]]]}}, {"type": "Feature", "properties": {"clase": "verde"}, "geometry": {"type": "Polygon", "coordinates": [[[-68.94779, -22.4565], [-68.94778, -22.45663], [-68.9475, -22.45662], [-68.94751, -22.45648], [-68.94779, -22.4565]]]}}, {"type": "Feature", "properties": {"clase": "verde"}, "geometry": {"type": "Polygon", "coordinates": [[[-68.91765, -22.45476], [-68.91765, -22.45406], [-68.91726, -22.45396], [-68.9175, -22.45425], [-68.91765, -22.45476]]]}}, {"type": "Feature", "properties": {"clase": "verde"}, "geometry": {"type": "Polygon", "coordinates": [[[-68.92788, -22.44363], [-68.9279, -22.44371], [-68.92754, -22.4437], [-68.92788, -22.44363]]]}}, {"type": "Feature", "properties": {"clase": "verde"}, "geometry": {"type": "Polygon", "coordinates": [[[-68.92863, -22.4435], [-68.928, -22.44369], [-68.92863, -22.4435]]]}}, {"type": "Feature", "properties": {"clase": "verde"}, "geometry": {"type": "Polygon", "coordinates": [[[-68.92934, -22.44338], [-68.92878, -22.44355], [-68.92934, -22.44338]]]}}, {"type": "Feature", "properties": {"clase": "verde"}, "geometry": {"type": "Polygon", "coordinates": [[[-68.93011, -22.44325], [-68.92951, -22.44342], [-68.93011, -22.44325]]]}}, {"type": "Feature", "properties": {"clase": "verde"}, "geometry": {"type": "Polygon", "coordinates": [[[-68.93088, -22.44311], [-68.93029, -22.44328], [-68.93088, -22.44311]]]}}, {"type": "Feature", "properties": {"clase": "verde"}, "geometry": {"type": "Polygon", "coordinates": [[[-68.93162, -22.44299], [-68.93104, -22.44316], [-68.93162, -22.44299]]]}}, {"type": "Feature", "properties": {"clase": "verde"}, "geometry": {"type": "Polygon", "coordinates": [[[-68.9324, -22.44285], [-68.93181, -22.44296], [-68.9324, -22.44285]]]}}, {"type": "Feature", "properties": {"clase": "verde"}, "geometry": {"type": "Polygon", "coordinates": [[[-68.92096, -22.4498], [-68.9208, -22.44998], [-68.92074, -22.44976], [-68.92091, -22.44956], [-68.92096, -22.4498]]]}}, {"type": "Feature", "properties": {"clase": "verde"}, "geometry": {"type": "Polygon", "coordinates": [[[-68.91711, -22.44693], [-68.9172, -22.44776], [-68.91692, -22.44772], [-68.91711, -22.44693]]]}}, {"type": "Feature", "properties": {"clase": "verde"}, "geometry": {"type": "Polygon", "coordinates": [[[-68.92722, -22.45313], [-68.92724, -22.45326], [-68.92661, -22.45327], [-68.92722, -22.45313]]]}}, {"type": "Feature", "properties": {"clase": "verde"}, "geometry": {"type": "Polygon", "coordinates": [[[-68.92963, -22.45297], [-68.92961, -22.45317], [-68.92981, -22.45312], [-68.92963, -22.45297]]]}}, {"type": "Feature", "properties": {"clase": "verde"}, "geometry": {"type": "Polygon", "coordinates": [[[-68.9269, -22.47157], [-68.92721, -22.47242], [-68.92741, -22.47244], [-68.92704, -22.47149], [-68.9269, -22.47157]]]}}, {"type": "Feature", "properties": {"clase": "verde"}, "geometry": {"type": "Polygon", "coordinates": [[[-68.93101, -22.47262], [-68.93103, -22.47291], [-68.93086, -22.47293], [-68.93083, -22.47264], [-68.93101, -22.47262]]]}}, {"type": "Feature", "properties": {"clase": "verde"}, "geometry": {"type": "Polygon", "coordinates": [[[-68.90546, -22.44652], [-68.90511, -22.44662], [-68.90504, -22.44641], [-68.90538, -22.44631], [-68.90546, -22.44652]]]}}, {"type": "Feature", "properties": {"clase": "verde"}, "geometry": {"type": "Polygon", "coordinates": [[[-68.9047, -22.44534], [-68.90462, -22.44514], [-68.90431, -22.44524], [-68.90439, -22.44544], [-68.9047, -22.44534]]]}}, {"type": "Feature", "properties": {"clase": "verde"}, "geometry": {"type": "Polygon", "coordinates": [[[-68.90374, -22.44441], [-68.90347, -22.44443], [-68.90334, -22.44415], [-68.90354, -22.44409], [-68.90374, -22.44441]]]}}, {"type": "Feature", "properties": {"clase": "verde"}, "geometry": {"type": "Polygon", "coordinates": [[[-68.90689, -22.44496], [-68.90686, -22.44511], [-68.90664, -22.44477], [-68.90685, -22.44481], [-68.90689, -22.44496]]]}}, {"type": "Feature", "properties": {"clase": "verde"}, "geometry": {"type": "Polygon", "coordinates": [[[-68.90716, -22.44525], [-68.90711, -22.44551], [-68.90692, -22.44521], [-68.90716, -22.44525]]]}}, {"type": "Feature", "properties": {"clase": "verde"}, "geometry": {"type": "Polygon", "coordinates": [[[-68.90823, -22.44544], [-68.90819, -22.44575], [-68.90855, -22.44551], [-68.90823, -22.44544]]]}}, {"type": "Feature", "properties": {"clase": "verde"}, "geometry": {"type": "Polygon", "coordinates": [[[-68.90601, -22.44427], [-68.90573, -22.44422], [-68.90566, -22.44436], [-68.90601, -22.44427]]]}}, {"type": "Feature", "properties": {"clase": "verde"}, "geometry": {"type": "Polygon", "coordinates": [[[-68.91884, -22.44788], [-68.91883, -22.44805], [-68.91958, -22.44811], [-68.91943, -22.4478], [-68.91884, -22.44788]]]}}, {"type": "Feature", "properties": {"clase": "verde"}, "geometry": {"type": "Polygon", "coordinates": [[[-68.92003, -22.45231], [-68.91998, -22.45265], [-68.9196, -22.4526], [-68.91964, -22.45226], [-68.92003, -22.45231]]]}}, {"type": "Feature", "properties": {"clase": "verde"}, "geometry": {"type": "Polygon", "coordinates": [[[-68.94016, -22.45885], [-68.94015, -22.45912], [-68.94085, -22.45916], [-68.94089, -22.45894], [-68.94016, -22.45885]]]}}, {"type": "Feature", "properties": {"clase": "verde"}, "geometry": {"type": "Polygon", "coordinates": [[[-68.94254, -22.46302], [-68.94244, -22.46354], [-68.94246, -22.46326], [-68.94229, -22.46325], [-68.9423, -22.46301], [-68.94254, -22.46302]]]}}, {"type": "Feature", "properties": {"clase": "verde"}, "geometry": {"type": "Polygon", "coordinates": [[[-68.92136, -22.45442], [-68.92134, -22.45453], [-68.91772, -22.45395], [-68.91773, -22.45387], [-68.92136, -22.45442]]]}}, {"type": "Feature", "properties": {"clase": "verde"}, "geometry": {"type": "Polygon", "coordinates": [[[-68.92285, -22.45644], [-68.92273, -22.45678], [-68.92261, -22.45679], [-68.92252, -22.45643], [-68.92285, -22.45644]]]}}, {"type": "Feature", "properties": {"clase": "verde"}, "geometry": {"type": "Polygon", "coordinates": [[[-68.92975, -22.4528], [-68.92962, -22.45287], [-68.92981, -22.45301], [-68.92975, -22.4528]]]}}, {"type": "Feature", "properties": {"clase": "verde"}, "geometry": {"type": "Polygon", "coordinates": [[[-68.93253, -22.4669], [-68.93214, -22.46679], [-68.93208, -22.46696], [-68.93244, -22.46708], [-68.93253, -22.4669]]]}}, {"type": "Feature", "properties": {"clase": "verde"}, "geometry": {"type": "Polygon", "coordinates": [[[-68.91729, -22.43546], [-68.91731, -22.43558], [-68.91845, -22.43541], [-68.91842, -22.43527], [-68.91729, -22.43546]]]}}, {"type": "Feature", "properties": {"clase": "verde"}, "geometry": {"type": "Polygon", "coordinates": [[[-68.92467, -22.441], [-68.92462, -22.44076], [-68.92438, -22.441], [-68.92467, -22.441]]]}}, {"type": "Feature", "properties": {"clase": "verde"}, "geometry": {"type": "Polygon", "coordinates": [[[-68.91929, -22.45063], [-68.9189, -22.45058], [-68.91883, -22.45091], [-68.91922, -22.45098], [-68.91929, -22.45063]]]}}, {"type": "Feature", "properties": {"clase": "verde"}, "geometry": {"type": "Polygon", "coordinates": [[[-68.91901, -22.45216], [-68.91864, -22.4521], [-68.91858, -22.45242], [-68.91895, -22.45247], [-68.91901, -22.45216]]]}}, {"type": "Feature", "properties": {"clase": "verde"}, "geometry": {"type": "Polygon", "coordinates": [[[-68.89945, -22.4536], [-68.89949, -22.45435], [-68.89977, -22.45383], [-68.89945, -22.4536]]]}}, {"type": "Feature", "properties": {"clase": "agua"}, "geometry": {"type": "Polygon", "coordinates": [[[-68.92297, -22.47965], [-68.92296, -22.47983], [-68.92263, -22.47971], [-68.92078, -22.47847], [-68.918, -22.47738], [-68.91554, -22.47709], [-68.91471, -22.47654], [-68.9141, -22.47674], [-68.91343, -22.47674], [-68.91317, -22.47667], [-68.91198, -22.47578], [-68.91054, -22.47438], [-68.90894, -22.4718], [-68.90878, -22.47125], [-68.90866, -22.46962], [-68.90842, -22.46902], [-68.90779, -22.46852], [-68.90708, -22.46762], [-68.90675, -22.46706], [-68.90656, -22.46632], [-68.90567, -22.46582], [-68.9051, -22.46501], [-68.90524, -22.46494], [-68.90535, -22.46506], [-68.9058, -22.4658], [-68.90647, -22.46607], [-68.9067, -22.46629], [-68.90742, -22.46791], [-68.9085, -22.46892], [-68.90886, -22.46978], [-68.90896, -22.47147], [-68.90921, -22.47205], [-68.91043, -22.47378], [-68.91055, -22.47418], [-68.91237, -22.47598], [-68.91345, -22.4766], [-68.91399, -22.47655], [-68.91441, -22.47617], [-68.91465, -22.47615], [-68.91509, -22.47631], [-68.91591, -22.47695], [-68.918, -22.47726], [-68.92087, -22.47839], [-68.92259, -22.47957], [-68.92297, -22.47965]]]}}, {"type": "Feature", "properties": {"clase": "verde"}, "geometry": {"type": "Polygon", "coordinates": [[[-68.92078, -22.45005], [-68.92075, -22.45019], [-68.92078, -22.45005]]]}}, {"type": "Feature", "properties": {"clase": "agua"}, "geometry": {"type": "Polygon", "coordinates": [[[-68.9051, -22.46501], [-68.90403, -22.46409], [-68.90342, -22.46378], [-68.90339, -22.46281], [-68.90326, -22.46241], [-68.90242, -22.46236], [-68.902, -22.46214], [-68.90096, -22.46009], [-68.90099, -22.45958], [-68.90043, -22.45878], [-68.9002, -22.45781], [-68.90022, -22.45738], [-68.89992, -22.457], [-68.89981, -22.45638], [-68.89996, -22.45538], [-68.90027, -22.45496], [-68.90039, -22.45502], [-68.90001, -22.45565], [-68.90001, -22.4568], [-68.9005, -22.45726], [-68.90035, -22.45784], [-68.90057, -22.45885], [-68.90103, -22.4593], [-68.90103, -22.45999], [-68.90198, -22.46169], [-68.90229, -22.46193], [-68.90317, -22.46218], [-68.90341, -22.46237], [-68.90358, -22.46272], [-68.9035, -22.46367], [-68.90422, -22.46408], [-68.90524, -22.46494], [-68.9051, -22.46501]]]}}, {"type": "Feature", "properties": {"clase": "verde"}, "geometry": {"type": "Polygon", "coordinates": [[[-68.92702, -22.46203], [-68.92697, -22.46275], [-68.92742, -22.4628], [-68.92743, -22.46261], [-68.92772, -22.46263], [-68.92774, -22.46251], [-68.9274, -22.46247], [-68.92744, -22.46221], [-68.92778, -22.46225], [-68.92781, -22.46204], [-68.92702, -22.46203]]]}}, {"type": "Feature", "properties": {"clase": "verde"}, "geometry": {"type": "Polygon", "coordinates": [[[-68.91766, -22.45386], [-68.91766, -22.45399], [-68.91726, -22.45393], [-68.91766, -22.45386]]]}}, {"type": "Feature", "properties": {"clase": "verde"}, "geometry": {"type": "Polygon", "coordinates": [[[-68.91289, -22.44126], [-68.91315, -22.4415], [-68.91299, -22.44165], [-68.91273, -22.44142], [-68.91289, -22.44126]]]}}, {"type": "Feature", "properties": {"clase": "verde"}, "geometry": {"type": "Polygon", "coordinates": [[[-68.91224, -22.44066], [-68.9125, -22.44091], [-68.91235, -22.44105], [-68.91209, -22.4408], [-68.91224, -22.44066]]]}}, {"type": "Feature", "properties": {"clase": "verde"}, "geometry": {"type": "Polygon", "coordinates": [[[-68.91175, -22.44113], [-68.91182, -22.44119], [-68.91156, -22.44144], [-68.91146, -22.44135], [-68.91175, -22.44113]]]}}, {"type": "Feature", "properties": {"clase": "verde"}, "geometry": {"type": "Polygon", "coordinates": [[[-68.91219, -22.44151], [-68.91226, -22.44157], [-68.912, -22.44182], [-68.9119, -22.44174], [-68.91219, -22.44151]]]}}, {"type": "Feature", "properties": {"clase": "verde"}, "geometry": {"type": "Polygon", "coordinates": [[[-68.91258, -22.44192], [-68.91265, -22.44198], [-68.91235, -22.44226], [-68.91223, -22.4422], [-68.91258, -22.44192]]]}}, {"type": "Feature", "properties": {"clase": "agua"}, "geometry": {"type": "Polygon", "coordinates": [[[-68.87932, -22.45318], [-68.87931, -22.45332], [-68.8794, -22.45326], [-68.87932, -22.45318]]]}}, {"type": "Feature", "properties": {"clase": "verde"}, "geometry": {"type": "Polygon", "coordinates": [[[-68.934, -22.48019], [-68.9338, -22.48013], [-68.93358, -22.4809], [-68.93377, -22.48095], [-68.934, -22.48019]]]}}, {"type": "Feature", "properties": {"clase": "verde"}, "geometry": {"type": "Polygon", "coordinates": [[[-68.9337, -22.47937], [-68.93323, -22.47925], [-68.93318, -22.47937], [-68.93365, -22.47949], [-68.9337, -22.47937]]]}}, {"type": "Feature", "properties": {"clase": "verde"}, "geometry": {"type": "Polygon", "coordinates": [[[-68.93221, -22.47895], [-68.93216, -22.4791], [-68.93163, -22.47896], [-68.93168, -22.4788], [-68.93221, -22.47895]]]}}, {"type": "Feature", "properties": {"clase": "verde"}, "geometry": {"type": "Polygon", "coordinates": [[[-68.93069, -22.47851], [-68.93064, -22.47868], [-68.93008, -22.47853], [-68.93013, -22.47836], [-68.93069, -22.47851]]]}}, {"type": "Feature", "properties": {"clase": "verde"}, "geometry": {"type": "Polygon", "coordinates": [[[-68.93402, -22.47829], [-68.93398, -22.47843], [-68.93357, -22.47832], [-68.93361, -22.47819], [-68.93402, -22.47829]]]}}, {"type": "Feature", "properties": {"clase": "verde"}, "geometry": {"type": "Polygon", "coordinates": [[[-68.93255, -22.47788], [-68.9325, -22.47802], [-68.93199, -22.47789], [-68.93202, -22.47773], [-68.93255, -22.47788]]]}}, {"type": "Feature", "properties": {"clase": "verde"}, "geometry": {"type": "Polygon", "coordinates": [[[-68.93556, -22.47751], [-68.93549, -22.47773], [-68.93537, -22.47769], [-68.93544, -22.47747], [-68.93556, -22.47751]]]}}, {"type": "Feature", "properties": {"clase": "verde"}, "geometry": {"type": "Polygon", "coordinates": [[[-68.90924, -22.43884], [-68.90875, -22.4393], [-68.90886, -22.4394], [-68.90934, -22.43893], [-68.90924, -22.43884]]]}}, {"type": "Feature", "properties": {"clase": "verde"}, "geometry": {"type": "Polygon", "coordinates": [[[-68.91979, -22.48298], [-68.91975, -22.48306], [-68.91953, -22.48296], [-68.91958, -22.48288], [-68.91979, -22.48298]]]}}, {"type": "Feature", "properties": {"clase": "verde"}, "geometry": {"type": "Polygon", "coordinates": [[[-68.93135, -22.47639], [-68.9308, -22.47623], [-68.93074, -22.47641], [-68.93129, -22.47657], [-68.93135, -22.47639]]]}}, {"type": "Feature", "properties": {"clase": "agua"}, "geometry": {"type": "Polygon", "coordinates": [[[-68.90218, -22.46384], [-68.90206, -22.46392], [-68.90219, -22.46411], [-68.90231, -22.464], [-68.90218, -22.46384]]]}}, {"type": "Feature", "properties": {"clase": "agua"}, "geometry": {"type": "Polygon", "coordinates": [[[-68.90202, -22.46396], [-68.90213, -22.46414], [-68.90187, -22.46427], [-68.90178, -22.4641], [-68.90202, -22.46396]]]}}, {"type": "Feature", "properties": {"clase": "verde"}, "geometry": {"type": "Polygon", "coordinates": [[[-68.94732, -22.47129], [-68.94714, -22.47172], [-68.94692, -22.47164], [-68.94709, -22.47122], [-68.94732, -22.47129]]]}}, {"type": "Feature", "properties": {"clase": "verde"}, "geometry": {"type": "Polygon", "coordinates": [[[-68.94709, -22.47122], [-68.94687, -22.47114], [-68.94668, -22.47156], [-68.94692, -22.47164], [-68.94709, -22.47122]]]}}, {"type": "Feature", "properties": {"clase": "verde"}, "geometry": {"type": "Polygon", "coordinates": [[[-68.94687, -22.47114], [-68.9469, -22.47106], [-68.94662, -22.47096], [-68.9464, -22.47145], [-68.94668, -22.47156], [-68.94687, -22.47114]]]}}, {"type": "Feature", "properties": {"clase": "verde"}, "geometry": {"type": "Polygon", "coordinates": [[[-68.94662, -22.47096], [-68.94635, -22.47087], [-68.94613, -22.47136], [-68.9464, -22.47145], [-68.94662, -22.47096]]]}}, {"type": "Feature", "properties": {"clase": "verde"}, "geometry": {"type": "Polygon", "coordinates": [[[-68.94635, -22.47087], [-68.94604, -22.47077], [-68.94583, -22.47126], [-68.94613, -22.47136], [-68.94635, -22.47087]]]}}, {"type": "Feature", "properties": {"clase": "verde"}, "geometry": {"type": "Polygon", "coordinates": [[[-68.94719, -22.47048], [-68.94696, -22.47098], [-68.94669, -22.47087], [-68.94692, -22.47037], [-68.94719, -22.47048]]]}}, {"type": "Feature", "properties": {"clase": "verde"}, "geometry": {"type": "Polygon", "coordinates": [[[-68.94692, -22.47037], [-68.94667, -22.47027], [-68.94642, -22.47076], [-68.94669, -22.47087], [-68.94692, -22.47037]]]}}, {"type": "Feature", "properties": {"clase": "verde"}, "geometry": {"type": "Polygon", "coordinates": [[[-68.94667, -22.47027], [-68.9464, -22.47016], [-68.94616, -22.47066], [-68.94642, -22.47076], [-68.94667, -22.47027]]]}}, {"type": "Feature", "properties": {"clase": "verde"}, "geometry": {"type": "Polygon", "coordinates": [[[-68.94742, -22.47013], [-68.94738, -22.47037], [-68.94687, -22.4703], [-68.94692, -22.47006], [-68.94742, -22.47013]]]}}, {"type": "Feature", "properties": {"clase": "verde"}, "geometry": {"type": "Polygon", "coordinates": [[[-68.94788, -22.4709], [-68.94771, -22.47118], [-68.94755, -22.47109], [-68.94771, -22.47082], [-68.94788, -22.4709]]]}}, {"type": "Feature", "properties": {"clase": "verde"}, "geometry": {"type": "Polygon", "coordinates": [[[-68.94771, -22.47082], [-68.94756, -22.47074], [-68.94738, -22.471], [-68.94755, -22.47109], [-68.94771, -22.47082]]]}}, {"type": "Feature", "properties": {"clase": "verde"}, "geometry": {"type": "Polygon", "coordinates": [[[-68.94873, -22.47029], [-68.94872, -22.47073], [-68.94848, -22.47073], [-68.9485, -22.47027], [-68.94873, -22.47029]]]}}, {"type": "Feature", "properties": {"clase": "verde"}, "geometry": {"type": "Polygon", "coordinates": [[[-68.89897, -22.45228], [-68.89882, -22.45221], [-68.89871, -22.45242], [-68.89886, -22.45249], [-68.89897, -22.45228]]]}}, {"type": "Feature", "properties": {"clase": "verde"}, "geometry": {"type": "Polygon", "coordinates": [[[-68.91233, -22.43761], [-68.91219, -22.43774], [-68.9123, -22.43784], [-68.91244, -22.43772], [-68.91233, -22.43761]]]}}, {"type": "Feature", "properties": {"clase": "verde"}, "geometry": {"type": "Polygon", "coordinates": [[[-68.94316, -22.47684], [-68.94304, -22.4769], [-68.94316, -22.47684]]]}}, {"type": "Feature", "properties": {"clase": "agua"}, "geometry": {"type": "Polygon", "coordinates": [[[-68.95233, -22.47152], [-68.95216, -22.47157], [-68.95233, -22.47152]]]}}, {"type": "Feature", "properties": {"clase": "agua"}, "geometry": {"type": "Polygon", "coordinates": [[[-68.9421, -22.46945], [-68.94215, -22.46958], [-68.942, -22.46952], [-68.9421, -22.46945]]]}}, {"type": "Feature", "properties": {"clase": "verde"}, "geometry": {"type": "Polygon", "coordinates": [[[-68.94985, -22.48066], [-68.94945, -22.48152], [-68.94889, -22.4813], [-68.9493, -22.48044], [-68.94985, -22.48066]]]}}, {"type": "Feature", "properties": {"clase": "verde"}, "geometry": {"type": "Polygon", "coordinates": [[[-68.9499, -22.47912], [-68.94971, -22.47947], [-68.94952, -22.47939], [-68.9497, -22.47904], [-68.9499, -22.47912]]]}}, {"type": "Feature", "properties": {"clase": "verde"}, "geometry": {"type": "Polygon", "coordinates": [[[-68.93166, -22.4568], [-68.93151, -22.45679], [-68.93148, -22.45704], [-68.93162, -22.45705], [-68.93166, -22.4568]]]}}, {"type": "Feature", "properties": {"clase": "verde"}, "geometry": {"type": "Polygon", "coordinates": [[[-68.93104, -22.43408], [-68.93062, -22.43415], [-68.9307, -22.43457], [-68.93113, -22.4345], [-68.93104, -22.43408]]]}}, {"type": "Feature", "properties": {"clase": "verde"}, "geometry": {"type": "Polygon", "coordinates": [[[-68.93883, -22.44876], [-68.93874, -22.44878], [-68.93878, -22.449], [-68.93888, -22.44898], [-68.93883, -22.44876]]]}}, {"type": "Feature", "properties": {"clase": "verde"}, "geometry": {"type": "Polygon", "coordinates": [[[-68.93876, -22.44841], [-68.93867, -22.44842], [-68.93871, -22.44864], [-68.9388, -22.44862], [-68.93876, -22.44841]]]}}, {"type": "Feature", "properties": {"clase": "verde"}, "geometry": {"type": "Polygon", "coordinates": [[[-68.94049, -22.46165], [-68.94037, -22.46164], [-68.94037, -22.46186], [-68.94049, -22.46186], [-68.94049, -22.46165]]]}}, {"type": "Feature", "properties": {"clase": "verde"}, "geometry": {"type": "Polygon", "coordinates": [[[-68.93307, -22.46609], [-68.93289, -22.4661], [-68.9329, -22.46637], [-68.93307, -22.46637], [-68.93307, -22.46609]]]}}, {"type": "Feature", "properties": {"clase": "verde"}, "geometry": {"type": "Polygon", "coordinates": [[[-68.92558, -22.47374], [-68.92554, -22.47387], [-68.9253, -22.47381], [-68.92534, -22.47368], [-68.92558, -22.47374]]]}}, {"type": "Feature", "properties": {"clase": "verde"}, "geometry": {"type": "Polygon", "coordinates": [[[-68.92956, -22.46792], [-68.92937, -22.46787], [-68.92928, -22.46814], [-68.92946, -22.46819], [-68.92956, -22.46792]]]}}, {"type": "Feature", "properties": {"clase": "verde"}, "geometry": {"type": "Polygon", "coordinates": [[[-68.92099, -22.4306], [-68.92078, -22.43066], [-68.92082, -22.43078], [-68.92103, -22.43072], [-68.92099, -22.4306]]]}}, {"type": "Feature", "properties": {"clase": "verde"}, "geometry": {"type": "Polygon", "coordinates": [[[-68.92239, -22.43794], [-68.92221, -22.43797], [-68.92228, -22.43829], [-68.92246, -22.43826], [-68.92239, -22.43794]]]}}, {"type": "Feature", "properties": {"clase": "verde"}, "geometry": {"type": "Polygon", "coordinates": [[[-68.92376, -22.44148], [-68.92362, -22.44151], [-68.92367, -22.44175], [-68.92381, -22.44173], [-68.92376, -22.44148]]]}}, {"type": "Feature", "properties": {"clase": "verde"}, "geometry": {"type": "Polygon", "coordinates": [[[-68.93072, -22.4755], [-68.93054, -22.4756], [-68.93072, -22.4755]]]}}, {"type": "Feature", "properties": {"clase": "verde"}, "geometry": {"type": "Polygon", "coordinates": [[[-68.94334, -22.46444], [-68.94314, -22.46506], [-68.94301, -22.46502], [-68.94323, -22.4644], [-68.94334, -22.46444]]]}}, {"type": "Feature", "properties": {"clase": "agua"}, "geometry": {"type": "Polygon", "coordinates": [[[-68.96898, -22.44451], [-68.96863, -22.44446], [-68.96852, -22.4449], [-68.96864, -22.44506], [-68.96885, -22.44491], [-68.96898, -22.44451]]]}}, {"type": "Feature", "properties": {"clase": "agua"}, "geometry": {"type": "Polygon", "coordinates": [[[-68.95836, -22.45602], [-68.95836, -22.45614], [-68.95794, -22.45614], [-68.95794, -22.45603], [-68.95836, -22.45602]]]}}, {"type": "Feature", "properties": {"clase": "agua"}, "geometry": {"type": "Polygon", "coordinates": [[[-68.95835, -22.45616], [-68.95835, -22.45642], [-68.95794, -22.45642], [-68.95794, -22.45616], [-68.95835, -22.45616]]]}}, {"type": "Feature", "properties": {"clase": "agua"}, "geometry": {"type": "Polygon", "coordinates": [[[-68.95835, -22.45642], [-68.95835, -22.4568], [-68.95794, -22.4568], [-68.95794, -22.45642], [-68.95835, -22.45642]]]}}, {"type": "Feature", "properties": {"clase": "verde"}, "geometry": {"type": "Polygon", "coordinates": [[[-68.93369, -22.44291], [-68.93351, -22.44294], [-68.93356, -22.44325], [-68.93375, -22.44322], [-68.93369, -22.44291]]]}}, {"type": "Feature", "properties": {"clase": "agua"}, "geometry": {"type": "Polygon", "coordinates": [[[-68.92922, -22.48338], [-68.92907, -22.48356], [-68.9299, -22.48392], [-68.93202, -22.48536], [-68.93306, -22.48544], [-68.93477, -22.48593], [-68.93553, -22.48703], [-68.93651, -22.48715], [-68.93666, -22.48753], [-68.93604, -22.48784], [-68.93566, -22.48845], [-68.93594, -22.48903], [-68.93667, -22.48961], [-68.93786, -22.48991], [-68.93886, -22.48989], [-68.94111, -22.49097], [-68.94121, -22.4908], [-68.93898, -22.48977], [-68.93833, -22.48969], [-68.93798, -22.48981], [-68.9378, -22.48967], [-68.93725, -22.48968], [-68.93635, -22.48921], [-68.93595, -22.48871], [-68.93589, -22.48826], [-68.93681, -22.48764], [-68.9369, -22.4874], [-68.93667, -22.48705], [-68.9362, -22.48707], [-68.93553, -22.48685], [-68.93523, -22.48628], [-68.93475, -22.48581], [-68.9332, -22.48534], [-68.93211, -22.48528], [-68.92922, -22.48338]]]}}, {"type": "Feature", "properties": {"clase": "verde"}, "geometry": {"type": "Polygon", "coordinates": [[[-68.91097, -22.44257], [-68.91105, -22.44266], [-68.91085, -22.44286], [-68.91076, -22.44281], [-68.91097, -22.44257]]]}}, {"type": "Feature", "properties": {"clase": "verde"}, "geometry": {"type": "Polygon", "coordinates": [[[-68.91146, -22.44289], [-68.91158, -22.44298], [-68.91129, -22.44325], [-68.91121, -22.44315], [-68.91146, -22.44289]]]}}, {"type": "Feature", "properties": {"clase": "verde"}, "geometry": {"type": "Polygon", "coordinates": [[[-68.91016, -22.44179], [-68.91021, -22.44189], [-68.90995, -22.44203], [-68.91016, -22.44179]]]}}, {"type": "Feature", "properties": {"clase": "verde"}, "geometry": {"type": "Polygon", "coordinates": [[[-68.90984, -22.44134], [-68.90961, -22.44166], [-68.90951, -22.44161], [-68.90984, -22.44134]]]}}, {"type": "Feature", "properties": {"clase": "verde"}, "geometry": {"type": "Polygon", "coordinates": [[[-68.93729, -22.47523], [-68.93792, -22.47522], [-68.93792, -22.47619], [-68.9373, -22.4762], [-68.93729, -22.47523]]]}}, {"type": "Feature", "properties": {"clase": "verde"}, "geometry": {"type": "Polygon", "coordinates": [[[-68.92206, -22.4603], [-68.92186, -22.4603], [-68.92188, -22.46066], [-68.92207, -22.46065], [-68.92206, -22.4603]]]}}, {"type": "Feature", "properties": {"clase": "verde"}, "geometry": {"type": "Polygon", "coordinates": [[[-68.92211, -22.46014], [-68.92189, -22.46016], [-68.9219, -22.46025], [-68.92212, -22.46023], [-68.92211, -22.46014]]]}}, {"type": "Feature", "properties": {"clase": "verde"}, "geometry": {"type": "Polygon", "coordinates": [[[-68.93914, -22.44752], [-68.93914, -22.44766], [-68.93897, -22.44771], [-68.93897, -22.44756], [-68.93914, -22.44752]]]}}, {"type": "Feature", "properties": {"clase": "verde"}, "geometry": {"type": "Polygon", "coordinates": [[[-68.93212, -22.48383], [-68.93233, -22.48387], [-68.9321, -22.48429], [-68.93212, -22.48383]]]}}, {"type": "Feature", "properties": {"clase": "verde"}, "geometry": {"type": "Polygon", "coordinates": [[[-68.93453, -22.48475], [-68.93422, -22.48518], [-68.9334, -22.48468], [-68.93371, -22.48425], [-68.93453, -22.48475]]]}}, {"type": "Feature", "properties": {"clase": "verde"}, "geometry": {"type": "Polygon", "coordinates": [[[-68.94444, -22.44729], [-68.94388, -22.44746], [-68.94388, -22.44861], [-68.94435, -22.44862], [-68.94444, -22.44729]]]}}, {"type": "Feature", "properties": {"clase": "verde"}, "geometry": {"type": "Polygon", "coordinates": [[[-68.94435, -22.4487], [-68.94419, -22.45072], [-68.94407, -22.45072], [-68.94389, -22.45061], [-68.94389, -22.44868], [-68.94435, -22.4487]]]}}, {"type": "Feature", "properties": {"clase": "verde"}, "geometry": {"type": "Polygon", "coordinates": [[[-68.93796, -22.47523], [-68.93859, -22.47522], [-68.93859, -22.47619], [-68.93796, -22.4762], [-68.93796, -22.47523]]]}}, {"type": "Feature", "properties": {"clase": "verde"}, "geometry": {"type": "Polygon", "coordinates": [[[-68.9373, -22.47625], [-68.93793, -22.47624], [-68.93793, -22.47721], [-68.9373, -22.47722], [-68.9373, -22.47625]]]}}, {"type": "Feature", "properties": {"clase": "verde"}, "geometry": {"type": "Polygon", "coordinates": [[[-68.93796, -22.47624], [-68.93859, -22.47623], [-68.9386, -22.4772], [-68.93797, -22.47721], [-68.93796, -22.47624]]]}}, {"type": "Feature", "properties": {"clase": "verde"}, "geometry": {"type": "Polygon", "coordinates": [[[-68.9372, -22.47411], [-68.93731, -22.47414], [-68.93754, -22.47477], [-68.93836, -22.47478], [-68.93856, -22.47494], [-68.9387, -22.47483], [-68.93931, -22.47537], [-68.93898, -22.47725], [-68.93728, -22.47732], [-68.93728, -22.47819], [-68.93605, -22.47844], [-68.93564, -22.48008], [-68.93525, -22.48022], [-68.9372, -22.47411]]]}}, {"type": "Feature", "properties": {"clase": "verde"}, "geometry": {"type": "Polygon", "coordinates": [[[-68.93702, -22.47652], [-68.93702, -22.47692], [-68.93679, -22.47692], [-68.93679, -22.47652], [-68.93702, -22.47652]]]}}, {"type": "Feature", "properties": {"clase": "verde"}, "geometry": {"type": "Polygon", "coordinates": [[[-68.93565, -22.47328], [-68.9355, -22.47384], [-68.93451, -22.47388], [-68.93454, -22.47426], [-68.9344, -22.47426], [-68.93439, -22.47378], [-68.93547, -22.47374], [-68.93543, -22.47328], [-68.93565, -22.47328]]]}}, {"type": "Feature", "properties": {"clase": "verde"}, "geometry": {"type": "Polygon", "coordinates": [[[-68.93536, -22.47433], [-68.93517, -22.4747], [-68.93514, -22.47434], [-68.93536, -22.47433]]]}}, {"type": "Feature", "properties": {"clase": "verde"}, "geometry": {"type": "Polygon", "coordinates": [[[-68.93599, -22.47226], [-68.93582, -22.47278], [-68.93454, -22.47283], [-68.93454, -22.4732], [-68.93438, -22.4732], [-68.93436, -22.47276], [-68.93573, -22.4727], [-68.93572, -22.47226], [-68.93599, -22.47226]]]}}, {"type": "Feature", "properties": {"clase": "verde"}, "geometry": {"type": "Polygon", "coordinates": [[[-68.93659, -22.4686], [-68.93643, -22.46908], [-68.93629, -22.46904], [-68.9362, -22.46863], [-68.93659, -22.4686]]]}}, {"type": "Feature", "properties": {"clase": "verde"}, "geometry": {"type": "Polygon", "coordinates": [[[-68.93887, -22.44333], [-68.93894, -22.44367], [-68.93861, -22.44373], [-68.93853, -22.44339], [-68.93887, -22.44333]]]}}, {"type": "Feature", "properties": {"clase": "verde"}, "geometry": {"type": "Polygon", "coordinates": [[[-68.93564, -22.44154], [-68.93573, -22.44159], [-68.93546, -22.4418], [-68.93493, -22.44189], [-68.93511, -22.44165], [-68.93564, -22.44154]]]}}, {"type": "Feature", "properties": {"clase": "verde"}, "geometry": {"type": "Polygon", "coordinates": [[[-68.93039, -22.4357], [-68.93051, -22.4365], [-68.92994, -22.43659], [-68.92979, -22.43579], [-68.93039, -22.4357]]]}}, {"type": "Feature", "properties": {"clase": "verde"}, "geometry": {"type": "Polygon", "coordinates": [[[-68.92957, -22.43439], [-68.92962, -22.43467], [-68.92931, -22.43473], [-68.92925, -22.43443], [-68.92957, -22.43439]]]}}, {"type": "Feature", "properties": {"clase": "verde"}, "geometry": {"type": "Polygon", "coordinates": [[[-68.93763, -22.47487], [-68.93763, -22.47517], [-68.93778, -22.47517], [-68.93778, -22.47487], [-68.93763, -22.47487]]]}}, {"type": "Feature", "properties": {"clase": "verde"}, "geometry": {"type": "Polygon", "coordinates": [[[-68.93788, -22.47487], [-68.93788, -22.47516], [-68.93804, -22.47516], [-68.93804, -22.47487], [-68.93788, -22.47487]]]}}, {"type": "Feature", "properties": {"clase": "verde"}, "geometry": {"type": "Polygon", "coordinates": [[[-68.93815, -22.47487], [-68.93815, -22.47516], [-68.93831, -22.47516], [-68.93831, -22.47487], [-68.93815, -22.47487]]]}}, {"type": "Feature", "properties": {"clase": "verde"}, "geometry": {"type": "Polygon", "coordinates": [[[-68.93925, -22.44329], [-68.93947, -22.44444], [-68.93923, -22.44449], [-68.93898, -22.44334], [-68.93925, -22.44329]]]}}, {"type": "Feature", "properties": {"clase": "verde"}, "geometry": {"type": "Polygon", "coordinates": [[[-68.93922, -22.44316], [-68.93894, -22.44314], [-68.93865, -22.44168], [-68.9383, -22.44125], [-68.93884, -22.4412], [-68.93922, -22.44316]]]}}, {"type": "Feature", "properties": {"clase": "verde"}, "geometry": {"type": "Polygon", "coordinates": [[[-68.94191, -22.44217], [-68.94197, -22.44243], [-68.94219, -22.44249], [-68.94224, -22.44264], [-68.94257, -22.44252], [-68.94068, -22.44089], [-68.94092, -22.44156], [-68.9413, -22.44158], [-68.94142, -22.44191], [-68.9416, -22.44187], [-68.94176, -22.44217], [-68.94191, -22.44217]]]}}, {"type": "Feature", "properties": {"clase": "verde"}, "geometry": {"type": "Polygon", "coordinates": [[[-68.92292, -22.48985], [-68.92306, -22.49007], [-68.92267, -22.4902], [-68.92262, -22.49], [-68.92292, -22.48985]]]}}, {"type": "Feature", "properties": {"clase": "verde"}, "geometry": {"type": "Polygon", "coordinates": [[[-68.92253, -22.49004], [-68.9226, -22.4903], [-68.92238, -22.4904], [-68.92223, -22.4902], [-68.92253, -22.49004]]]}}, {"type": "Feature", "properties": {"clase": "verde"}, "geometry": {"type": "Polygon", "coordinates": [[[-68.92211, -22.49038], [-68.92136, -22.49079], [-68.92057, -22.49099], [-68.92028, -22.49074], [-68.92036, -22.49056], [-68.92121, -22.49076], [-68.92211, -22.49038]]]}}, {"type": "Feature", "properties": {"clase": "verde"}, "geometry": {"type": "Polygon", "coordinates": [[[-68.94337, -22.45555], [-68.94323, -22.45555], [-68.94322, -22.45579], [-68.94335, -22.4558], [-68.94337, -22.45555]]]}}, {"type": "Feature", "properties": {"clase": "verde"}, "geometry": {"type": "Polygon", "coordinates": [[[-68.90294, -22.44931], [-68.90267, -22.4494], [-68.90263, -22.44953], [-68.90293, -22.44944], [-68.90294, -22.44931]]]}}, {"type": "Feature", "properties": {"clase": "verde"}, "geometry": {"type": "Polygon", "coordinates": [[[-68.93421, -22.46502], [-68.93477, -22.46505], [-68.93476, -22.46516], [-68.93422, -22.46512], [-68.93421, -22.46502]]]}}], "_meta": {"ciudad": "Calama", "fuente": "OpenStreetMap (ODbL) — extracción puntual Overpass"}}