{"type": "FeatureCollection", "features": [{"type": "Feature", "properties": {"clase": "verde"}, "geometry": {"type": "Polygon", "coordinates": [[[-70.47821, -25.40338], [-70.47786, -25.40393], [-70.47699, -25.40347], [-70.47734, -25.40292], [-70.47821, -25.40338]]]}}, {"type": "Feature", "properties": {"clase": "agua"}, "geometry": {"type": "Polygon", "coordinates": [[[-70.45424, -25.3858], [-70.45299, -25.38721], [-70.45265, -25.38703], [-70.45386, -25.38567], [-70.45424, -25.3858]]]}}, {"type": "Feature", "properties": {"clase": "agua"}, "geometry": {"type": "Polygon", "coordinates": [[[-70.45791, -25.38719], [-70.45657, -25.38644], [-70.45694, -25.38568], [-70.45822, -25.38651], [-70.45791, -25.38719]]]}}, {"type": "Feature", "properties": {"clase": "agua"}, "geometry": {"type": "Polygon", "coordinates": [[[-70.45682, -25.38559], [-70.45644, -25.38634], [-70.45568, -25.38614], [-70.45606, -25.38525], [-70.45682, -25.38559]]]}}, {"type": "Feature", "properties": {"clase": "agua"}, "geometry": {"type": "Polygon", "coordinates": [[[-70.45584, -25.38517], [-70.45548, -25.38605], [-70.45464, -25.38575], [-70.45511, -25.38485], [-70.45584, -25.38517]]]}}, {"type": "Feature", "properties": {"clase": "agua"}, "geometry": {"type": "Polygon", "coordinates": [[[-70.45482, -25.38477], [-70.45437, -25.38568], [-70.45327, -25.38542], [-70.45392, -25.38436], [-70.45482, -25.38477]]]}}, {"type": "Feature", "properties": {"clase": "verde"}, "geometry": {"type": "Polygon", "coordinates": [[[-70.48551, -25.40728], [-70.48666, -25.40787], [-70.48613, -25.40869], [-70.48503, -25.40812], [-70.48551, -25.40728]]]}}, {"type": "Feature", "properties": {"clase": "verde"}, "geometry": {"type": "Polygon", "coordinates": [[[-70.48735, -25.4068], [-70.48714, -25.40654], [-70.48732, -25.40642], [-70.48695, -25.40607], [-70.48675, -25.40622], [-70.48643, -25.40579], [-70.48618, -25.40613], [-70.48735, -25.4068]]]}}, {"type": "Feature", "properties": {"clase": "verde"}, "geometry": {"type": "Polygon", "coordinates": [[[-70.48261, -25.40384], [-70.48262, -25.40432], [-70.48152, -25.4043], [-70.48126, -25.40461], [-70.48246, -25.40536], [-70.48301, -25.40453], [-70.48261, -25.40384]]]}}, {"type": "Feature", "properties": {"clase": "verde"}, "geometry": {"type": "Polygon", "coordinates": [[[-70.47364, -25.406], [-70.47345, -25.40608], [-70.4736, -25.40634], [-70.47378, -25.40626], [-70.47364, -25.406]]]}}, {"type": "Feature", "properties": {"clase": "verde"}, "geometry": {"type": "Polygon", "coordinates": [[[-70.47445, -25.40758], [-70.47413, -25.4077], [-70.47421, -25.40788], [-70.47454, -25.40776], [-70.47445, -25.40758]]]}}, {"type": "Feature", "properties": {"clase": "verde"}, "geometry": {"type": "Polygon", "coordinates": [[[-70.49112, -25.4097], [-70.49104, -25.40983], [-70.49077, -25.40968], [-70.49086, -25.40955], [-70.49112, -25.4097]]]}}, {"type": "Feature", "properties": {"clase": "verde"}, "geometry": {"type": "Polygon", "coordinates": [[[-70.47783, -25.41279], [-70.47768, -25.41271], [-70.47754, -25.41293], [-70.47769, -25.413], [-70.47783, -25.41279]]]}}, {"type": "Feature", "properties": {"clase": "verde"}, "geometry": {"type": "Polygon", "coordinates": [[[-70.47884, -25.40468], [-70.47872, -25.40462], [-70.47859, -25.40484], [-70.47871, -25.4049], [-70.47884, -25.40468]]]}}, {"type": "Feature", "properties": {"clase": "verde"}, "geometry": {"type": "Polygon", "coordinates": [[[-70.47908, -25.403], [-70.47889, -25.40335], [-70.4787, -25.40326], [-70.47889, -25.40292], [-70.47908, -25.403]]]}}, {"type": "Feature", "properties": {"clase": "verde"}, "geometry": {"type": "Polygon", "coordinates": [[[-70.47212, -25.40427], [-70.47193, -25.40434], [-70.47207, -25.40464], [-70.47226, -25.40457], [-70.47212, -25.40427]]]}}, {"type": "Feature", "properties": {"clase": "verde"}, "geometry": {"type": "Polygon", "coordinates": [[[-70.47144, -25.4024], [-70.47128, -25.40245], [-70.47137, -25.40271], [-70.47154, -25.40266], [-70.47144, -25.4024]]]}}, {"type": "Feature", "properties": {"clase": "verde"}, "geometry": {"type": "Polygon", "coordinates": [[[-70.47242, -25.40105], [-70.47216, -25.40114], [-70.47227, -25.40141], [-70.47252, -25.40132], [-70.47242, -25.40105]]]}}, {"type": "Feature", "properties": {"clase": "verde"}, "geometry": {"type": "Polygon", "coordinates": [[[-70.47196, -25.4001], [-70.47179, -25.40015], [-70.4719, -25.40043], [-70.47207, -25.40038], [-70.47196, -25.4001]]]}}, {"type": "Feature", "properties": {"clase": "verde"}, "geometry": {"type": "Polygon", "coordinates": [[[-70.4721, -25.40041], [-70.47193, -25.40047], [-70.47197, -25.40057], [-70.47214, -25.40051], [-70.4721, -25.40041]]]}}, {"type": "Feature", "properties": {"clase": "verde"}, "geometry": {"type": "Polygon", "coordinates": [[[-70.48391, -25.41089], [-70.48374, -25.41117], [-70.48328, -25.41089], [-70.48346, -25.41063], [-70.48391, -25.41089]]]}}, {"type": "Feature", "properties": {"clase": "verde"}, "geometry": {"type": "Polygon", "coordinates": [[[-70.47484, -25.41168], [-70.47472, -25.41165], [-70.47465, -25.41187], [-70.47477, -25.4119], [-70.47484, -25.41168]]]}}, {"type": "Feature", "properties": {"clase": "verde"}, "geometry": {"type": "Polygon", "coordinates": [[[-70.47919, -25.40749], [-70.47879, -25.40762], [-70.47835, -25.40755], [-70.47868, -25.40738], [-70.47919, -25.40749]]]}}, {"type": "Feature", "properties": {"clase": "verde"}, "geometry": {"type": "Polygon", "coordinates": [[[-70.472, -25.40405], [-70.47179, -25.40412], [-70.47188, -25.4043], [-70.47208, -25.40423], [-70.472, -25.40405]]]}}, {"type": "Feature", "properties": {"clase": "verde"}, "geometry": {"type": "Polygon", "coordinates": [[[-70.47162, -25.40233], [-70.47149, -25.40237], [-70.47159, -25.40263], [-70.47172, -25.40259], [-70.47162, -25.40233]]]}}, {"type": "Feature", "properties": {"clase": "verde"}, "geometry": {"type": "Polygon", "coordinates": [[[-70.48817, -25.40748], [-70.48811, -25.40757], [-70.48787, -25.40744], [-70.48793, -25.40735], [-70.48817, -25.40748]]]}}, {"type": "Feature", "properties": {"clase": "verde"}, "geometry": {"type": "Polygon", "coordinates": [[[-70.48808, -25.40758], [-70.48802, -25.40768], [-70.48779, -25.40756], [-70.48785, -25.40747], [-70.48808, -25.40758]]]}}, {"type": "Feature", "properties": {"clase": "verde"}, "geometry": {"type": "Polygon", "coordinates": [[[-70.4817, -25.40449], [-70.48153, -25.40468], [-70.48139, -25.40458], [-70.48155, -25.40438], [-70.4817, -25.40449]]]}}, {"type": "Feature", "properties": {"clase": "verde"}, "geometry": {"type": "Polygon", "coordinates": [[[-70.48142, -25.40426], [-70.48134, -25.40421], [-70.4812, -25.40439], [-70.48128, -25.40444], [-70.48142, -25.40426]]]}}, {"type": "Feature", "properties": {"clase": "verde"}, "geometry": {"type": "Polygon", "coordinates": [[[-70.48125, -25.40414], [-70.48117, -25.40409], [-70.48103, -25.40427], [-70.48111, -25.40432], [-70.48125, -25.40414]]]}}, {"type": "Feature", "properties": {"clase": "verde"}, "geometry": {"type": "Polygon", "coordinates": [[[-70.48423, -25.41084], [-70.48411, -25.41077], [-70.48397, -25.41096], [-70.48409, -25.41103], [-70.48423, -25.41084]]]}}, {"type": "Feature", "properties": {"clase": "verde"}, "geometry": {"type": "Polygon", "coordinates": [[[-70.48397, -25.41057], [-70.48383, -25.41078], [-70.48346, -25.41057], [-70.48361, -25.41037], [-70.48397, -25.41057]]]}}, {"type": "Feature", "properties": {"clase": "verde"}, "geometry": {"type": "Polygon", "coordinates": [[[-70.48552, -25.40622], [-70.48533, -25.40637], [-70.48552, -25.40622]]]}}, {"type": "Feature", "properties": {"clase": "verde"}, "geometry": {"type": "Polygon", "coordinates": [[[-70.47437, -25.39159], [-70.47405, -25.39156], [-70.47404, -25.39169], [-70.47435, -25.39172], [-70.47437, -25.39159]]]}}, {"type": "Feature", "properties": {"clase": "verde"}, "geometry": {"type": "Polygon", "coordinates": [[[-70.4727, -25.40627], [-70.47312, -25.40712], [-70.4727, -25.40627]]]}}, {"type": "Feature", "properties": {"clase": "verde"}, "geometry": {"type": "Polygon", "coordinates": [[[-70.4758, -25.40566], [-70.47545, -25.4058], [-70.47606, -25.40619], [-70.4758, -25.40566]]]}}, {"type": "Feature", "properties": {"clase": "verde"}, "geometry": {"type": "Polygon", "coordinates": [[[-70.47386, -25.40634], [-70.47371, -25.4064], [-70.47385, -25.40667], [-70.474, -25.4066], [-70.47386, -25.40634]]]}}, {"type": "Feature", "properties": {"clase": "verde"}, "geometry": {"type": "Polygon", "coordinates": [[[-70.47367, -25.40192], [-70.47303, -25.40214], [-70.4734, -25.40301], [-70.47404, -25.40279], [-70.47367, -25.40192]]]}}, {"type": "Feature", "properties": {"clase": "verde"}, "geometry": {"type": "Polygon", "coordinates": [[[-70.48928, -25.4091], [-70.48948, -25.40887], [-70.4898, -25.40907], [-70.48972, -25.4092], [-70.48928, -25.4091]]]}}, {"type": "Feature", "properties": {"clase": "verde"}, "geometry": {"type": "Polygon", "coordinates": [[[-70.48002, -25.40082], [-70.47986, -25.40121], [-70.48013, -25.40169], [-70.48056, -25.40209], [-70.48076, -25.40205], [-70.48128, -25.40229], [-70.48163, -25.40224], [-70.48202, -25.40245], [-70.48253, -25.40322], [-70.48293, -25.40436], [-70.48307, -25.40446], [-70.48353, -25.40374], [-70.48306, -25.40303], [-70.48304, -25.40269], [-70.48267, -25.40259], [-70.4827, -25.40222], [-70.48223, -25.40198], [-70.48199, -25.40167], [-70.48178, -25.40177], [-70.48091, -25.4013], [-70.48082, -25.40114], [-70.48055, -25.40112], [-70.48002, -25.40082]]]}}, {"type": "Feature", "properties": {"clase": "verde"}, "geometry": {"type": "Polygon", "coordinates": [[[-70.47303, -25.40543], [-70.47288, -25.40549], [-70.47295, -25.40562], [-70.4731, -25.40556], [-70.47303, -25.40543]]]}}], "_meta": {"ciudad": "Taltal", "fuente": "OpenStreetMap (ODbL) — extracción puntual Overpass"}}