{"type": "FeatureCollection", "features": [{"type": "Feature", "properties": {"clase": "verde"}, "geometry": {"type": "Polygon", "coordinates": [[[-69.32047, -22.8918], [-69.32011, -22.8921], [-69.31974, -22.89173], [-69.32003, -22.89144], [-69.32047, -22.8918]]]}}, {"type": "Feature", "properties": {"clase": "verde"}, "geometry": {"type": "Polygon", "coordinates": [[[-69.31677, -22.89189], [-69.31635, -22.89217], [-69.31577, -22.89144], [-69.31619, -22.89116], [-69.31677, -22.89189]]]}}, {"type": "Feature", "properties": {"clase": "verde"}, "geometry": {"type": "Polygon", "coordinates": [[[-69.3177, -22.89084], [-69.31749, -22.89066], [-69.31735, -22.89078], [-69.31756, -22.89097], [-69.3177, -22.89084]]]}}], "_meta": {"ciudad": "Sierra Gorda", "fuente": "OpenStreetMap (ODbL) — extracción puntual Overpass"}}