{"type": "FeatureCollection", "features": [{"type": "Feature", "properties": {"provincia": "Antofagasta"}, "geometry": {"type": "MultiPolygon", "coordinates": [[[[-70.70164, -25.89174], [-70.7013, -25.89196], [-70.70092, -25.8919], [-70.70039, -25.89194], [-70.69986, -25.89208], [-70.69984, -25.89228], [-70.69989, -25.89257], [-70.69991, -25.89289], [-70.69982, -25.8932], [-70.69997, -25.89342], [-70.7002, -25.89348], [-70.70039, -25.89329], [-70.70065, -25.89337], [-70.70069, -25.89361], [-70.70059, -25.89388], [-70.70084, -25.89391], [-70.70109, -25.89359], [-70.70134, -25.89339], [-70.70168, -25.89325], [-70.70167, -25.89299], [-70.70143, -25.89274], [-70.70151, -25.89261], [-70.70197, -25.89259], [-70.7022, -25.89268], [-70.70253, -25.89278], [-70.70292, -25.893], [-70.70316, -25.89317], [-70.70342, -25.89337], [-70.70361, -25.8936], [-70.70396, -25.89372], [-70.70444, -25.89379], [-70.70465, -25.89357], [-70.70462, -25.89316], [-70.70484, -25.89297], [-70.70493, -25.8928], [-70.70485, -25.89243], [-70.70461, -25.89237], [-70.70466, -25.8921], [-70.7046, -25.89176], [-70.70449, -25.89133], [-70.70427, -25.8911], [-70.70385, -25.89119], [-70.70323, -25.89138], [-70.70254, -25.89152], [-70.70211, -25.8916], [-70.70164, -25.89174]]], [[[-70.73937, -25.82706], [-70.73958, -25.82718], [-70.73992, -25.82713], [-70.73992, -25.82687], [-70.73983, -25.82656], [-70.73982, -25.82635], [-70.73973, -25.82596], [-70.73936, -25.82594], [-70.73933, -25.82614], [-70.73928, -25.82672], [-70.73943, -25.8269], [-70.73963, -25.82692], [-70.73937, -25.82706]]], [[[-70.51237, -25.09948], [-70.51284, -25.09952], [-70.5132, -25.09928], [-70.5132, -25.09885], [-70.51293, -25.09852], [-70.51256, -25.09823], [-70.51199, -25.09838], [-70.51157, -25.09853], [-70.51141, -25.09891], [-70.512, -25.09924], [-70.51237, -25.09948]]], [[[-70.51242, -25.0957], [-70.51306, -25.09603], [-70.51353, -25.09598], [-70.51384, -25.09564], [-70.51384, -25.09521], [-70.51341, -25.09507], [-70.51309, -25.09474], [-70.51267, -25.09455], [-70.5122, -25.09461], [-70.51199, -25.0948], [-70.51174, -25.09514], [-70.51205, -25.09547], [-70.51242, -25.0957]]], [[[-70.56371, -24.4733], [-70.56376, -24.47371], [-70.56369, -24.47412], [-70.56379, -24.47452], [-70.56394, -24.47461], [-70.56414, -24.47439], [-70.56415, -24.47415], [-70.56406, -24.47387], [-70.5641, -24.47359], [-70.56438, -24.47358], [-70.56443, -24.47345], [-70.5645, -24.47329], [-70.5643, -24.47318], [-70.56402, -24.47319], [-70.56395, -24.47304], [-70.56425, -24.47278], [-70.56424, -24.47277], [-70.56389, -24.4725], [-70.56364, -24.47289], [-70.56371, -24.4733]]], [[[-70.52431, -24.20958], [-70.52457, -24.20966], [-70.52499, -24.20964], [-70.52527, -24.2096], [-70.52525, -24.20929], [-70.52515, -24.20903], [-70.52487, -24.20884], [-70.52457, -24.20879], [-70.52448, -24.20856], [-70.52463, -24.20835], [-70.52471, -24.20805], [-70.52456, -24.20776], [-70.52418, -24.20745], [-70.52374, -24.20719], [-70.52349, -24.20733], [-70.52334, -24.20744], [-70.52331, -24.20762], [-70.52338, -24.20787], [-70.5234, -24.20825], [-70.52343, -24.2086], [-70.52348, -24.20887], [-70.52366, -24.20915], [-70.52387, -24.20921], [-70.52407, -24.20933], [-70.52431, -24.20958]]], [[[-70.51817, -23.92796], [-70.51842, -23.92805], [-70.51881, -23.92794], [-70.51913, -23.92779], [-70.51946, -23.92774], [-70.51967, -23.92754], [-70.51986, -23.92728], [-70.52002, -23.92697], [-70.52021, -23.9267], [-70.5205, -23.92663], [-70.52054, -23.92632], [-70.52034, -23.92609], [-70.52018, -23.92584], [-70.51987, -23.92581], [-70.51954, -23.92601], [-70.51922, -23.92612], [-70.51872, -23.92625], [-70.51839, -23.92656], [-70.51806, -23.92687], [-70.51755, -23.92736], [-70.51783, -23.92761], [-70.51799, -23.92773], [-70.51817, -23.92796]]], [[[-70.60711, -23.43041], [-70.60174, -23.43854], [-70.61015, -23.44777], [-70.61697, -23.43658], [-70.60711, -23.43041]]], [[[-69.93026, -22.47253], [-69.91759, -22.47695], [-69.92222, -22.54049], [-69.90854, -22.56377], [-69.89373, -22.63514], [-69.92104, -22.68309], [-69.93379, -22.77209], [-69.95162, -22.79933], [-69.94583, -22.83708], [-69.96229, -22.84883], [-69.96947, -22.87089], [-69.53614, -22.88021], [-69.19076, -22.57634], [-69.18798, -22.61688], [-69.15089, -22.66307], [-68.98644, -22.74506], [-68.86847, -22.90515], [-68.86495, -22.92723], [-68.80954, -22.97661], [-68.8018, -22.99919], [-68.83267, -23.03821], [-68.82644, -23.06088], [-68.84498, -23.10491], [-68.77005, -23.14123], [-68.73777, -23.11379], [-68.6779, -23.10034], [-68.65674, -23.11279], [-68.65687, -23.12632], [-68.61977, -23.17304], [-68.64868, -23.21712], [-68.64674, -23.23609], [-68.67916, -23.27091], [-68.68981, -23.33251], [-68.7178, -23.38703], [-68.70299, -23.41893], [-68.70253, -23.50754], [-68.69382, -23.53139], [-68.70535, -23.53875], [-68.70867, -23.56731], [-68.68545, -23.59829], [-68.68694, -23.64057], [-68.6741, -23.65594], [-68.67796, -23.68179], [-68.66517, -23.69871], [-68.68984, -23.79353], [-68.69327, -23.84702], [-68.68433, -23.86187], [-68.69855, -23.92313], [-68.46183, -23.98453], [-68.34559, -23.99786], [-68.11781, -24.23812], [-68.06504, -24.32642], [-68.26045, -24.40301], [-68.26782, -24.43537], [-68.29632, -24.454], [-68.31059, -24.49061], [-68.38724, -24.48576], [-68.43278, -24.58276], [-68.43325, -24.60574], [-68.45056, -24.60253], [-68.45615, -24.61869], [-68.46775, -24.62283], [-68.49512, -24.59997], [-68.5017, -24.61666], [-68.4866, -24.63904], [-68.4918, -24.66433], [-68.51546, -24.703], [-68.54285, -24.72511], [-68.54555, -24.75417], [-68.5615, -24.76301], [-68.56809, -24.79555], [-68.53929, -24.81651], [-68.53324, -24.85584], [-68.51963, -24.87334], [-68.49262, -24.87522], [-68.4837, -24.89705], [-68.43141, -24.90603], [-68.43902, -24.91834], [-68.42677, -24.96135], [-68.40809, -24.97188], [-68.41272, -25.01954], [-68.38802, -25.03788], [-68.37435, -25.03583], [-68.36435, -25.04923], [-68.37147, -25.06422], [-68.36614, -25.0808], [-68.34327, -25.11064], [-68.40855, -25.14451], [-68.43674, -25.12247], [-68.44402, -25.13368], [-68.4571, -25.12557], [-68.46496, -25.13079], [-68.47221, -25.15106], [-68.50731, -25.16808], [-68.50898, -25.23255], [-68.52718, -25.2313], [-68.54989, -25.26096], [-68.53009, -25.29131], [-68.55731, -25.30166], [-68.57959, -25.28599], [-68.58924, -25.30066], [-68.6006, -25.29331], [-68.63689, -25.31339], [-68.65741, -25.30352], [-68.67178, -25.32617], [-68.672, -25.36062], [-68.68297, -25.36964], [-68.69902, -25.36546], [-68.72491, -25.39034], [-68.74808, -25.38082], [-68.78276, -25.40296], [-68.82175, -25.37017], [-68.847, -25.38148], [-68.91078, -25.37552], [-68.96013, -25.39054], [-68.97088, -25.3779], [-68.98742, -25.37685], [-68.99013, -25.4048], [-69.03586, -25.44226], [-69.00281, -25.46179], [-68.99583, -25.5055], [-69.02267, -25.50881], [-69.03004, -25.53091], [-69.05213, -25.54365], [-69.0573, -25.56959], [-69.08482, -25.58411], [-69.07053, -25.58581], [-69.05067, -25.63482], [-69.07072, -25.6898], [-69.09472, -25.71996], [-69.05822, -25.72765], [-69.08013, -25.74442], [-69.09824, -25.80176], [-69.1476, -25.82015], [-69.17136, -25.81645], [-69.21632, -25.83397], [-69.21598, -25.84122], [-69.22975, -25.83912], [-69.24586, -25.85931], [-69.26663, -25.86663], [-69.27376, -25.85687], [-69.29631, -25.86913], [-69.34957, -25.86641], [-69.38027, -25.88023], [-69.4269, -25.85642], [-69.43907, -25.85964], [-69.45176, -25.89394], [-69.46821, -25.89792], [-69.47674, -25.91197], [-69.50265, -25.91479], [-69.50299, -25.94872], [-69.51211, -25.95121], [-69.67296, -25.94331], [-69.729, -25.91933], [-69.75655, -25.91736], [-69.81936, -25.9239], [-69.8543, -25.94527], [-69.86784, -25.92384], [-69.90843, -25.89448], [-70.02297, -25.91988], [-70.07594, -25.96502], [-70.07835, -25.95263], [-70.12788, -25.95507], [-70.16597, -25.9399], [-70.19965, -25.94178], [-70.24047, -25.91607], [-70.25279, -25.9318], [-70.26478, -25.93078], [-70.2734, -25.90854], [-70.30103, -25.89617], [-70.31508, -25.90461], [-70.32433, -25.9311], [-70.33237, -25.92308], [-70.34184, -25.93326], [-70.39319, -25.92879], [-70.39278, -25.93876], [-70.4069, -25.9394], [-70.42014, -25.95336], [-70.48321, -25.9679], [-70.52606, -26.00961], [-70.60516, -26.00413], [-70.61464, -26.05817], [-70.65819, -26.06168], [-70.6353, -26.05111], [-70.62787, -25.99472], [-70.64734, -25.95029], [-70.69341, -25.90407], [-70.71168, -25.83875], [-70.73721, -25.82464], [-70.72351, -25.80366], [-70.73066, -25.77912], [-70.70506, -25.77411], [-70.69927, -25.7516], [-70.68524, -25.74471], [-70.69563, -25.71122], [-70.68359, -25.66239], [-70.63639, -25.64478], [-70.63392, -25.62445], [-70.64554, -25.61746], [-70.63831, -25.5499], [-70.65154, -25.53908], [-70.64691, -25.53005], [-70.63374, -25.52877], [-70.62965, -25.50703], [-70.5758, -25.50674], [-70.55752, -25.4875], [-70.52823, -25.4782], [-70.51714, -25.39592], [-70.49231, -25.40932], [-70.47768, -25.38928], [-70.45078, -25.37757], [-70.44603, -25.34135], [-70.45633, -25.29675], [-70.43442, -25.25659], [-70.44383, -25.22574], [-70.43808, -25.18995], [-70.45741, -25.16426], [-70.46385, -25.13597], [-70.48353, -25.11621], [-70.50296, -25.11444], [-70.50795, -25.09667], [-70.48826, -25.07414], [-70.4666, -24.99482], [-70.48954, -24.95152], [-70.52898, -24.91562], [-70.52151, -24.86653], [-70.54452, -24.84269], [-70.54793, -24.77169], [-70.56064, -24.74453], [-70.57771, -24.73224], [-70.58059, -24.72044], [-70.56493, -24.70173], [-70.57404, -24.65314], [-70.55932, -24.64433], [-70.56178, -24.62023], [-70.55024, -24.59536], [-70.5705, -24.55421], [-70.58033, -24.55098], [-70.56476, -24.51755], [-70.57288, -24.50908], [-70.55454, -24.49541], [-70.56352, -24.47281], [-70.54225, -24.42539], [-70.54645, -24.3876], [-70.55705, -24.37242], [-70.54082, -24.36097], [-70.54983, -24.33374], [-70.53354, -24.31045], [-70.52766, -24.27914], [-70.53505, -24.248], [-70.52108, -24.24279], [-70.52134, -24.20989], [-70.51066, -24.19922], [-70.52046, -24.18424], [-70.50294, -24.1782], [-70.52151, -24.12302], [-70.50422, -24.11889], [-70.49818, -24.08041], [-70.51093, -24.06478], [-70.50869, -24.03128], [-70.51985, -24.02083], [-70.50767, -23.98515], [-70.51556, -23.97038], [-70.5076, -23.94319], [-70.51668, -23.9261], [-70.50005, -23.92048], [-70.49503, -23.90531], [-70.52638, -23.86207], [-70.50392, -23.84954], [-70.50639, -23.79809], [-70.47433, -23.77353], [-70.468, -23.75778], [-70.44707, -23.74945], [-70.40415, -23.66438], [-70.40896, -23.6462], [-70.40444, -23.65429], [-70.40635, -23.64581], [-70.39699, -23.64193], [-70.39234, -23.57978], [-70.40909, -23.55703], [-70.39878, -23.5456], [-70.42008, -23.50856], [-70.48628, -23.46516], [-70.5134, -23.46762], [-70.51557, -23.4934], [-70.5332, -23.50826], [-70.53095, -23.52608], [-70.54676, -23.53768], [-70.57588, -23.52936], [-70.599, -23.5063], [-70.61573, -23.5081], [-70.61868, -23.52119], [-70.62895, -23.51566], [-70.62043, -23.49821], [-70.62364, -23.47656], [-70.61572, -23.46234], [-70.60523, -23.47299], [-70.58951, -23.42768], [-70.59112, -23.41511], [-70.60704, -23.40445], [-70.59853, -23.37313], [-70.60642, -23.35937], [-70.58232, -23.32583], [-70.60148, -23.30289], [-70.60479, -23.2735], [-70.59604, -23.2605], [-70.60448, -23.25159], [-70.59745, -23.22166], [-70.57005, -23.20894], [-70.56072, -23.18972], [-70.57381, -23.15631], [-70.56418, -23.12936], [-70.58215, -23.10535], [-70.5732, -23.09487], [-70.57946, -23.08311], [-70.55909, -23.07362], [-70.54423, -23.04944], [-70.5243, -23.04528], [-70.51651, -23.02496], [-70.50179, -23.034], [-70.50176, -23.07153], [-70.48444, -23.09803], [-70.4289, -23.09363], [-70.38181, -23.06684], [-70.33997, -23.0152], [-70.32363, -22.97134], [-70.30921, -22.95979], [-70.30337, -22.92147], [-70.28889, -22.9101], [-70.3161, -22.80463], [-70.30682, -22.7832], [-70.31274, -22.76425], [-70.29123, -22.74805], [-70.28045, -22.71783], [-70.28613, -22.64646], [-70.2686, -22.64168], [-69.96519, -22.42512], [-69.96236, -22.45385], [-69.93026, -22.47253]]]]}}, {"type": "Feature", "properties": {"provincia": "El Loa"}, "geometry": {"type": "MultiPolygon", "coordinates": [[[[-68.41249, -20.93454], [-68.29482, -21.09764], [-68.17911, -21.30193], [-68.18065, -21.60401], [-68.11782, -21.67829], [-68.0929, -21.73852], [-68.06057, -21.77003], [-68.0713, -21.98166], [-68.0146, -22.02404], [-68.00738, -22.03957], [-67.96461, -22.05391], [-67.96379, -22.0797], [-67.94857, -22.08776], [-67.93923, -22.10743], [-67.95764, -22.16604], [-67.93197, -22.20269], [-67.92452, -22.26166], [-67.91543, -22.2724], [-67.93727, -22.27323], [-67.93223, -22.30473], [-67.94311, -22.32808], [-67.93099, -22.34296], [-67.94086, -22.35864], [-67.93217, -22.37332], [-67.942, -22.38224], [-67.90005, -22.4071], [-67.90478, -22.41937], [-67.8839, -22.4418], [-67.89248, -22.44738], [-67.8929, -22.49911], [-67.86816, -22.5326], [-67.84096, -22.53307], [-67.85289, -22.55754], [-67.832, -22.58129], [-67.86298, -22.59962], [-67.85716, -22.62229], [-67.88338, -22.62804], [-67.86805, -22.68057], [-67.88969, -22.71819], [-67.86758, -22.74385], [-67.87706, -22.75516], [-67.88245, -22.83349], [-67.84222, -22.84816], [-67.82609, -22.84528], [-67.8298, -22.85624], [-67.79906, -22.88118], [-67.56851, -22.89804], [-67.1803, -22.81417], [-66.99018, -22.99996], [-67.32262, -24.03416], [-68.06504, -24.32642], [-68.11781, -24.23812], [-68.34559, -23.99786], [-68.46183, -23.98453], [-68.69855, -23.92313], [-68.68433, -23.86187], [-68.69327, -23.84702], [-68.68984, -23.79353], [-68.66517, -23.69871], [-68.67796, -23.68179], [-68.6741, -23.65594], [-68.68694, -23.64057], [-68.68545, -23.59829], [-68.70867, -23.56731], [-68.70535, -23.53875], [-68.69382, -23.53139], [-68.70253, -23.50754], [-68.70299, -23.41893], [-68.7178, -23.38703], [-68.68981, -23.33251], [-68.67916, -23.27091], [-68.64674, -23.23609], [-68.64868, -23.21712], [-68.61977, -23.17304], [-68.65687, -23.12632], [-68.65674, -23.11279], [-68.6779, -23.10034], [-68.73777, -23.11379], [-68.77005, -23.14123], [-68.84498, -23.10491], [-68.82644, -23.06088], [-68.83267, -23.03821], [-68.8018, -22.99919], [-68.81482, -22.96785], [-68.86495, -22.92723], [-68.86847, -22.90515], [-68.98644, -22.74506], [-69.15089, -22.66307], [-69.18037, -22.62919], [-69.19401, -22.59667], [-69.147, -22.45506], [-69.15582, -22.35652], [-69.17177, -22.32711], [-69.17671, -22.22804], [-68.93244, -21.82869], [-68.99264, -21.63608], [-68.93625, -21.43487], [-68.85968, -21.28498], [-68.53576, -21.06468], [-68.48082, -20.94128], [-68.42782, -20.94611], [-68.41249, -20.93454]]]]}}, {"type": "Feature", "properties": {"provincia": "Tocopilla"}, "geometry": {"type": "MultiPolygon", "coordinates": [[[[-70.28983, -22.57093], [-70.28947, -22.57122], [-70.28906, -22.57137], [-70.2889, -22.57094], [-70.28864, -22.57061], [-70.28839, -22.57095], [-70.28845, -22.57138], [-70.2885, -22.57181], [-70.28866, -22.57219], [-70.28892, -22.57257], [-70.28928, -22.57304], [-70.2897, -22.5729], [-70.29005, -22.57265], [-70.29052, -22.57275], [-70.29067, -22.57236], [-70.29036, -22.57203], [-70.29082, -22.57203], [-70.29128, -22.57207], [-70.29195, -22.57154], [-70.29194, -22.57106], [-70.29158, -22.57083], [-70.29112, -22.57097], [-70.29066, -22.57102], [-70.2904, -22.57069], [-70.29029, -22.57026], [-70.28993, -22.5705], [-70.28983, -22.57093]]], [[[-70.21901, -22.09385], [-70.21898, -22.09387], [-70.21896, -22.09387], [-70.21893, -22.09387], [-70.2189, -22.09388], [-70.21884, -22.0939], [-70.21879, -22.0939], [-70.21878, -22.0939], [-70.21873, -22.09393], [-70.21871, -22.09393], [-70.2187, -22.09394], [-70.2187, -22.09396], [-70.21868, -22.09396], [-70.21867, -22.09397], [-70.21865, -22.09398], [-70.21865, -22.094], [-70.21865, -22.09401], [-70.21864, -22.09403], [-70.21864, -22.09404], [-70.21864, -22.09406], [-70.21862, -22.09407], [-70.21861, -22.09409], [-70.21861, -22.0941], [-70.21861, -22.09412], [-70.21861, -22.09413], [-70.21857, -22.09416], [-70.21858, -22.09419], [-70.21858, -22.0942], [-70.21858, -22.09422], [-70.21858, -22.09423], [-70.21858, -22.09425], [-70.21858, -22.09426], [-70.21858, -22.09428], [-70.21856, -22.09429], [-70.21856, -22.0943], [-70.21855, -22.09433], [-70.21855, -22.09435], [-70.21855, -22.09438], [-70.21853, -22.09439], [-70.21851, -22.09441], [-70.21851, -22.09442], [-70.21852, -22.09444], [-70.21852, -22.09445], [-70.21852, -22.09446], [-70.2185, -22.09448], [-70.21848, -22.09449], [-70.21833, -22.09474], [-70.21846, -22.09484], [-70.21847, -22.09486], [-70.21849, -22.09487], [-70.2185, -22.09491], [-70.21852, -22.09494], [-70.21853, -22.09494], [-70.21855, -22.09497], [-70.21855, -22.09499], [-70.21857, -22.095], [-70.21861, -22.09503], [-70.21863, -22.09504], [-70.21864, -22.09504], [-70.21866, -22.09507], [-70.21868, -22.09507], [-70.21871, -22.0951], [-70.21874, -22.09512], [-70.21875, -22.09512], [-70.21877, -22.09513], [-70.21877, -22.09514], [-70.2188, -22.09516], [-70.21882, -22.09517], [-70.21885, -22.09519], [-70.21886, -22.0952], [-70.21888, -22.0952], [-70.2189, -22.09523], [-70.21891, -22.09526], [-70.21894, -22.09529], [-70.21896, -22.09529], [-70.21896, -22.09532], [-70.21899, -22.09533], [-70.21899, -22.09535], [-70.21901, -22.09535], [-70.21904, -22.09536], [-70.21907, -22.0954], [-70.2191, -22.09543], [-70.21913, -22.09545], [-70.21915, -22.09548], [-70.21916, -22.09549], [-70.21921, -22.09553], [-70.21923, -22.09555], [-70.21924, -22.09556], [-70.21929, -22.09559], [-70.21932, -22.09562], [-70.21932, -22.09563], [-70.21934, -22.09566], [-70.21934, -22.09568], [-70.21938, -22.09571], [-70.2194, -22.09575], [-70.21941, -22.09575], [-70.21943, -22.09578], [-70.21943, -22.09579], [-70.21945, -22.09581], [-70.21946, -22.09582], [-70.21948, -22.09585], [-70.21948, -22.09586], [-70.21949, -22.09589], [-70.21949, -22.09591], [-70.21951, -22.09592], [-70.21951, -22.09594], [-70.21951, -22.09598], [-70.21954, -22.09601], [-70.21954, -22.09602], [-70.21957, -22.09607], [-70.21957, -22.09608], [-70.2196, -22.09611], [-70.21964, -22.09617], [-70.21964, -22.09618], [-70.21964, -22.0962], [-70.21962, -22.09636], [-70.21966, -22.09637], [-70.21967, -22.09637], [-70.21971, -22.09638], [-70.21971, -22.09638], [-70.21975, -22.09639], [-70.21976, -22.09639], [-70.21997, -22.09643], [-70.22045, -22.09649], [-70.22088, -22.09659], [-70.22136, -22.09653], [-70.22164, -22.09638], [-70.22153, -22.09621], [-70.22149, -22.09611], [-70.22146, -22.09607], [-70.22142, -22.09602], [-70.22114, -22.09574], [-70.22109, -22.09571], [-70.22108, -22.09569], [-70.22106, -22.09569], [-70.22105, -22.09568], [-70.22102, -22.09565], [-70.221, -22.09564], [-70.22098, -22.09564], [-70.22097, -22.09562], [-70.22095, -22.09562], [-70.22094, -22.09561], [-70.22094, -22.09559], [-70.22092, -22.09559], [-70.22091, -22.09558], [-70.22091, -22.09556], [-70.22089, -22.09555], [-70.22088, -22.09553], [-70.22084, -22.09552], [-70.22083, -22.09551], [-70.22083, -22.09549], [-70.22077, -22.09546], [-70.22075, -22.09546], [-70.22073, -22.0953], [-70.2207, -22.0953], [-70.22069, -22.0953], [-70.22055, -22.09531], [-70.21996, -22.09505], [-70.22024, -22.09483], [-70.21995, -22.09442], [-70.21995, -22.0944], [-70.21995, -22.09437], [-70.21993, -22.09432], [-70.21991, -22.09431], [-70.21991, -22.09427], [-70.21984, -22.09415], [-70.21984, -22.09412], [-70.2198, -22.09411], [-70.2198, -22.09409], [-70.21979, -22.09408], [-70.21976, -22.09408], [-70.21974, -22.09406], [-70.21973, -22.09405], [-70.21969, -22.09405], [-70.21968, -22.09405], [-70.21968, -22.09404], [-70.21966, -22.09404], [-70.21965, -22.09404], [-70.21962, -22.09404], [-70.21962, -22.09402], [-70.2196, -22.09402], [-70.2196, -22.09401], [-70.21957, -22.09401], [-70.21955, -22.09399], [-70.21954, -22.09399], [-70.21952, -22.09399], [-70.21951, -22.09398], [-70.21949, -22.09398], [-70.21946, -22.09396], [-70.21944, -22.09396], [-70.21944, -22.09395], [-70.21943, -22.09395], [-70.21941, -22.09394], [-70.2194, -22.09394], [-70.21938, -22.09392], [-70.21937, -22.09391], [-70.21934, -22.09391], [-70.21934, -22.09389], [-70.21932, -22.09389], [-70.2193, -22.09389], [-70.21929, -22.09389], [-70.21927, -22.09389], [-70.21927, -22.09388], [-70.21926, -22.09388], [-70.21923, -22.09386], [-70.21921, -22.09386], [-70.2192, -22.09386], [-70.21918, -22.09385], [-70.21915, -22.09385], [-70.21913, -22.09385], [-70.2191, -22.09385], [-70.21907, -22.09385], [-70.21905, -22.09385], [-70.21904, -22.09385], [-70.21902, -22.09385], [-70.21901, -22.09385]]], [[[-68.93625, -21.43487], [-68.99264, -21.63608], [-68.93244, -21.82869], [-69.17671, -22.22804], [-69.17177, -22.32711], [-69.15582, -22.35652], [-69.147, -22.45506], [-69.19076, -22.57634], [-69.53614, -22.88021], [-69.96947, -22.87089], [-69.96229, -22.84883], [-69.94583, -22.83708], [-69.95162, -22.79933], [-69.93379, -22.77209], [-69.92104, -22.68309], [-69.89373, -22.63514], [-69.90854, -22.56377], [-69.92222, -22.54049], [-69.91608, -22.53852], [-69.91823, -22.47495], [-69.96167, -22.45468], [-69.96519, -22.42512], [-70.26396, -22.63128], [-70.28438, -22.5715], [-70.27122, -22.56133], [-70.27541, -22.54959], [-70.25272, -22.53952], [-70.24961, -22.50775], [-70.23803, -22.49696], [-70.26855, -22.4606], [-70.25717, -22.4393], [-70.26174, -22.41305], [-70.24501, -22.38134], [-70.25782, -22.35617], [-70.25062, -22.32436], [-70.23716, -22.30958], [-70.24764, -22.2844], [-70.23319, -22.26873], [-70.24079, -22.24885], [-70.22494, -22.20991], [-70.22405, -22.18069], [-70.23201, -22.17036], [-70.21447, -22.13359], [-70.21663, -22.09402], [-70.19841, -22.08842], [-70.18884, -22.05879], [-70.1979, -22.01358], [-70.18346, -21.99749], [-70.18778, -21.97225], [-70.17425, -21.96292], [-70.16899, -21.92931], [-70.19022, -21.90162], [-70.15713, -21.88529], [-70.14306, -21.84873], [-70.1406, -21.80646], [-70.15964, -21.7613], [-70.14438, -21.71775], [-70.1539, -21.68907], [-70.15014, -21.65598], [-70.1456, -21.63634], [-70.12467, -21.63025], [-70.09427, -21.59298], [-70.09292, -21.55252], [-70.07103, -21.52857], [-70.08302, -21.48903], [-70.0615, -21.45477], [-70.05839, -21.43023], [-70.0393, -21.42456], [-70.00487, -21.43852], [-69.93914, -21.42314], [-69.90402, -21.42544], [-69.88012, -21.43748], [-69.78113, -21.4417], [-69.76563, -21.41958], [-69.73423, -21.44768], [-69.66653, -21.46322], [-69.66258, -21.48132], [-69.63949, -21.49993], [-69.62568, -21.54601], [-69.59823, -21.56141], [-69.57841, -21.60609], [-69.55086, -21.63021], [-69.31307, -21.39817], [-68.85968, -21.28498], [-68.93625, -21.43487]]]]}}]}