{"type": "FeatureCollection", "name": "Calles y caminos", "bbox": [-69.335, -22.903, -69.302, -22.879], "source": "https://www.openstreetmap.org/copyright", "license": "ODbL-1.0", "snapshot": "2026-09-23T23:18:34Z", "features": [{"type": "Feature", "id": "way/28357974", "properties": {"Nombre": "Sin nombre · unclassified", "Fuente": "© OpenStreetMap contributors", "Estado": "Por verificar en terreno", "Consulta": "2026-09-23", "Edicion_OSM": "2022-12-29T19:58:46Z", "Categoria": "unclassified", "OSM_ID": "way/28357974", "OSM_URL": "https://www.openstreetmap.org/way/28357974", "Geometria": "Geometría OSM recortada al área de consulta", "Licencia": "ODbL 1.0", "highway": "unclassified", "ref": "B-229", "source:ref": "Vialidad", "surface": "unpaved"}, "geometry": {"type": "LineString", "coordinates": [[-69.3182762, -22.8888014], [-69.3180087, -22.889051], [-69.3177491, -22.8892771], [-69.3177004, -22.8893247], [-69.3176473, -22.8893682], [-69.3175901, -22.889407], [-69.3175159, -22.8894476], [-69.3174372, -22.8894805], [-69.3173552, -22.8895053], [-69.3142261, -22.8899768]]}}, {"type": "Feature", "id": "way/30643293", "properties": {"Nombre": "Eleuterio Ramírez", "Fuente": "© OpenStreetMap contributors", "Estado": "Por verificar en terreno", "Consulta": "2026-09-23", "Edicion_OSM": "2025-09-08T07:38:21Z", "Categoria": "residential", "OSM_ID": "way/30643293", "OSM_URL": "https://www.openstreetmap.org/way/30643293", "Geometria": "Geometría OSM recortada al área de consulta", "Licencia": "ODbL 1.0", "highway": "residential", "lanes": "2", "lit": "yes", "maxspeed": "50", "name": "Eleuterio Ramírez", "sidewalk": "both", "surface": "asphalt"}, "geometry": {"type": "LineString", "coordinates": [[-69.3188491, -22.8886531], [-69.3185063, -22.8889553], [-69.3184793, -22.8889813], [-69.3184452, -22.8890139], [-69.3183908, -22.8890666], [-69.3183556, -22.8891005], [-69.317953, -22.8894883], [-69.3171386, -22.8902728]]}}, {"type": "Feature", "id": "way/30643325", "properties": {"Nombre": "Caracoles", "Fuente": "© OpenStreetMap contributors", "Estado": "Por verificar en terreno", "Consulta": "2026-09-23", "Edicion_OSM": "2020-04-08T17:07:01Z", "Categoria": "service", "OSM_ID": "way/30643325", "OSM_URL": "https://www.openstreetmap.org/way/30643325", "Geometria": "Geometría OSM recortada al área de consulta", "Licencia": "ODbL 1.0", "highway": "service", "name": "Caracoles"}, "geometry": {"type": "LineString", "coordinates": [[-69.3199297, -22.8896771], [-69.3199942, -22.8896403], [-69.3200344, -22.8896045], [-69.320084, -22.8895909], [-69.320143, -22.8895922], [-69.3201926, -22.8896132], [-69.3202248, -22.8896403]]}}, {"type": "Feature", "id": "way/30643327", "properties": {"Nombre": "Bolívar", "Fuente": "© OpenStreetMap contributors", "Estado": "Por verificar en terreno", "Consulta": "2026-09-23", "Edicion_OSM": "2022-12-29T19:58:46Z", "Categoria": "residential", "OSM_ID": "way/30643327", "OSM_URL": "https://www.openstreetmap.org/way/30643327", "Geometria": "Geometría OSM recortada al área de consulta", "Licencia": "ODbL 1.0", "highway": "residential", "lanes": "2", "lit": "yes", "maxspeed": "50", "name": "Bolívar", "sidewalk": "both", "surface": "asphalt"}, "geometry": {"type": "LineString", "coordinates": [[-69.3209823, -22.8904968], [-69.3206253, -22.8908408], [-69.3206016, -22.8908635], [-69.320569, -22.8908949], [-69.3205052, -22.8909564], [-69.3204712, -22.8909892], [-69.3203022, -22.8911519], [-69.3201073, -22.8913397], [-69.320082, -22.8913641], [-69.3200516, -22.8913933], [-69.3196989, -22.8917331], [-69.3196658, -22.891765], [-69.319636, -22.8917937], [-69.319613, -22.8918159], [-69.3195101, -22.8919149], [-69.3194627, -22.8919607]]}}, {"type": "Feature", "id": "way/30643328", "properties": {"Nombre": "Jaime Guzmán", "Fuente": "© OpenStreetMap contributors", "Estado": "Por verificar en terreno", "Consulta": "2026-09-23", "Edicion_OSM": "2025-09-08T07:38:21Z", "Categoria": "tertiary", "OSM_ID": "way/30643328", "OSM_URL": "https://www.openstreetmap.org/way/30643328", "Geometria": "Geometría OSM recortada al área de consulta", "Licencia": "ODbL 1.0", "highway": "tertiary", "lanes": "2", "maxspeed": "50", "name": "Jaime Guzmán", "surface": "unpaved"}, "geometry": {"type": "LineString", "coordinates": [[-69.3189346, -22.8886792], [-69.3189765, -22.888711], [-69.3194615, -22.889211], [-69.3199297, -22.8896771], [-69.3203961, -22.890115], [-69.3209823, -22.8904968], [-69.3211541, -22.8905911], [-69.3213822, -22.890737], [-69.3219766, -22.891271], [-69.3220934, -22.891442], [-69.3221923, -22.8916024], [-69.3224318, -22.8919909], [-69.3225865, -22.8923842], [-69.3226325, -22.8926336]]}}, {"type": "Feature", "id": "way/30643331", "properties": {"Nombre": "Arturo Prat", "Fuente": "© OpenStreetMap contributors", "Estado": "Por verificar en terreno", "Consulta": "2026-09-23", "Edicion_OSM": "2022-12-29T19:58:46Z", "Categoria": "residential", "OSM_ID": "way/30643331", "OSM_URL": "https://www.openstreetmap.org/way/30643331", "Geometria": "Geometría OSM recortada al área de consulta", "Licencia": "ODbL 1.0", "highway": "residential", "lanes": "2", "lit": "yes", "maxspeed": "50", "name": "Arturo Prat", "sidewalk": "both", "surface": "asphalt"}, "geometry": {"type": "LineString", "coordinates": [[-69.3171386, -22.8902728], [-69.3177761, -22.8908345], [-69.3182734, -22.8912726], [-69.3187623, -22.8917033]]}}, {"type": "Feature", "id": "way/30643336", "properties": {"Nombre": "Diego Portales", "Fuente": "© OpenStreetMap contributors", "Estado": "Por verificar en terreno", "Consulta": "2026-09-23", "Edicion_OSM": "2022-12-29T19:58:46Z", "Categoria": "residential", "OSM_ID": "way/30643336", "OSM_URL": "https://www.openstreetmap.org/way/30643336", "Geometria": "Geometría OSM recortada al área de consulta", "Licencia": "ODbL 1.0", "highway": "residential", "lanes": "2", "lit": "yes", "maxspeed": "50", "name": "Diego Portales", "sidewalk": "both", "surface": "asphalt"}, "geometry": {"type": "LineString", "coordinates": [[-69.3189564, -22.8915146], [-69.3194627, -22.8919607], [-69.3200338, -22.8924505]]}}, {"type": "Feature", "id": "way/30643339", "properties": {"Nombre": "Santa María", "Fuente": "© OpenStreetMap contributors", "Estado": "Por verificar en terreno", "Consulta": "2026-09-23", "Edicion_OSM": "2022-12-29T19:58:46Z", "Categoria": "residential", "OSM_ID": "way/30643339", "OSM_URL": "https://www.openstreetmap.org/way/30643339", "Geometria": "Geometría OSM recortada al área de consulta", "Licencia": "ODbL 1.0", "highway": "residential", "lanes": "2", "maxspeed": "50", "name": "Santa María", "surface": "asphalt"}, "geometry": {"type": "LineString", "coordinates": [[-69.319884, -22.8929978], [-69.3200338, -22.8924505], [-69.3201165, -22.8921622]]}}, {"type": "Feature", "id": "way/30643341", "properties": {"Nombre": "Jaime Guzmán", "Fuente": "© OpenStreetMap contributors", "Estado": "Por verificar en terreno", "Consulta": "2026-09-23", "Edicion_OSM": "2023-01-03T14:47:10Z", "Categoria": "residential", "OSM_ID": "way/30643341", "OSM_URL": "https://www.openstreetmap.org/way/30643341", "Geometria": "Geometría OSM recortada al área de consulta", "Licencia": "ODbL 1.0", "highway": "residential", "lanes": "2", "name": "Jaime Guzmán", "old_name": "Calle C", "surface": "asphalt"}, "geometry": {"type": "LineString", "coordinates": [[-69.3221923, -22.8916024], [-69.3221422, -22.8916792], [-69.3219291, -22.891847], [-69.3218529, -22.8918877], [-69.3217258, -22.8918888]]}}, {"type": "Feature", "id": "way/30643346", "properties": {"Nombre": "Diego Portales", "Fuente": "© OpenStreetMap contributors", "Estado": "Por verificar en terreno", "Consulta": "2026-09-23", "Edicion_OSM": "2022-12-29T19:58:46Z", "Categoria": "residential", "OSM_ID": "way/30643346", "OSM_URL": "https://www.openstreetmap.org/way/30643346", "Geometria": "Geometría OSM recortada al área de consulta", "Licencia": "ODbL 1.0", "highway": "residential", "lanes": "2", "lit": "yes", "maxspeed": "50", "name": "Diego Portales", "sidewalk": "both", "surface": "asphalt"}, "geometry": {"type": "LineString", "coordinates": [[-69.3191586, -22.8913181], [-69.3196309, -22.8917343], [-69.3196658, -22.891765], [-69.3197104, -22.8918044], [-69.3200669, -22.8921185], [-69.3201165, -22.8921622], [-69.3201554, -22.8921964], [-69.3208148, -22.8927774]]}}, {"type": "Feature", "id": "way/30643370", "properties": {"Nombre": "Eduardo Frei", "Fuente": "© OpenStreetMap contributors", "Estado": "Por verificar en terreno", "Consulta": "2026-09-23", "Edicion_OSM": "2022-12-29T19:58:46Z", "Categoria": "residential", "OSM_ID": "way/30643370", "OSM_URL": "https://www.openstreetmap.org/way/30643370", "Geometria": "Geometría OSM recortada al área de consulta", "Licencia": "ODbL 1.0", "highway": "residential", "lanes": "2", "lit": "yes", "maxspeed": "50", "name": "Eduardo Frei", "sidewalk": "both", "surface": "asphalt"}, "geometry": {"type": "LineString", "coordinates": [[-69.3212282, -22.8923741], [-69.3205744, -22.8917979], [-69.3205327, -22.8917612], [-69.3204887, -22.8917225], [-69.3201147, -22.891394], [-69.320082, -22.8913641], [-69.3200541, -22.8913395], [-69.319601, -22.8909403], [-69.3195727, -22.8909154], [-69.3195406, -22.8908871], [-69.3191253, -22.8905212], [-69.3190878, -22.8904881], [-69.3190526, -22.8904572], [-69.3186502, -22.8901026], [-69.3185905, -22.8900501], [-69.3185295, -22.8899963], [-69.317953, -22.8894883]]}}, {"type": "Feature", "id": "way/30643378", "properties": {"Nombre": "Colón", "Fuente": "© OpenStreetMap contributors", "Estado": "Por verificar en terreno", "Consulta": "2026-09-23", "Edicion_OSM": "2022-12-29T19:58:46Z", "Categoria": "residential", "OSM_ID": "way/30643378", "OSM_URL": "https://www.openstreetmap.org/way/30643378", "Geometria": "Geometría OSM recortada al área de consulta", "Licencia": "ODbL 1.0", "highway": "residential", "lanes": "2", "lit": "yes", "maxspeed": "50", "name": "Colón", "sidewalk": "both", "surface": "asphalt"}, "geometry": {"type": "LineString", "coordinates": [[-69.3177761, -22.8908345], [-69.3185314, -22.890107], [-69.3185905, -22.8900501], [-69.3186523, -22.8899906], [-69.3189938, -22.8896616], [-69.3190338, -22.889623], [-69.3190775, -22.8895809], [-69.3191264, -22.8895339], [-69.3191525, -22.8895087], [-69.3194615, -22.889211]]}}, {"type": "Feature", "id": "way/30770457", "properties": {"Nombre": "Avenida Salvador Allende", "Fuente": "© OpenStreetMap contributors", "Estado": "Por verificar en terreno", "Consulta": "2026-09-23", "Edicion_OSM": "2024-10-02T03:19:23Z", "Categoria": "tertiary", "OSM_ID": "way/30770457", "OSM_URL": "https://www.openstreetmap.org/way/30770457", "Geometria": "Geometría OSM recortada al área de consulta", "Licencia": "ODbL 1.0", "highway": "tertiary", "lanes": "3", "lanes:backward": "1", "lit": "yes", "maxspeed": "30", "name": "Avenida Salvador Allende", "official_name": "Cruce Ruta 5 (Carmen Alto) - Calama", "old_ref": "25", "oneway": "no", "parking:right": "yes", "parking:right:orientation": "parallel", "sidewalk": "both", "source:ref": "Vialidad", "surface": "asphalt"}, "geometry": {"type": "LineString", "coordinates": [[-69.3217258, -22.8918888], [-69.3216291, -22.8918086], [-69.3210689, -22.8913353], [-69.3210198, -22.8912921], [-69.3209812, -22.8912581], [-69.3206119, -22.8909327], [-69.320569, -22.8908949]]}}, {"type": "Feature", "id": "way/30770486", "properties": {"Nombre": "José Santos Ossa", "Fuente": "© OpenStreetMap contributors", "Estado": "Por verificar en terreno", "Consulta": "2026-09-23", "Edicion_OSM": "2022-12-29T19:58:46Z", "Categoria": "residential", "OSM_ID": "way/30770486", "OSM_URL": "https://www.openstreetmap.org/way/30770486", "Geometria": "Geometría OSM recortada al área de consulta", "Licencia": "ODbL 1.0", "highway": "residential", "lanes": "2", "maxspeed": "50", "name": "José Santos Ossa", "surface": "asphalt"}, "geometry": {"type": "LineString", "coordinates": [[-69.3204622, -22.8931214], [-69.319884, -22.8929978], [-69.319742, -22.8929564], [-69.3196106, -22.8928941], [-69.3185328, -22.8919264]]}}, {"type": "Feature", "id": "way/30770514", "properties": {"Nombre": "O'Higgins", "Fuente": "© OpenStreetMap contributors", "Estado": "Por verificar en terreno", "Consulta": "2026-09-23", "Edicion_OSM": "2022-12-29T19:58:46Z", "Categoria": "residential", "OSM_ID": "way/30770514", "OSM_URL": "https://www.openstreetmap.org/way/30770514", "Geometria": "Geometría OSM recortada al área de consulta", "Licencia": "ODbL 1.0", "highway": "residential", "lanes": "2", "lit": "yes", "maxspeed": "50", "name": "O'Higgins", "sidewalk": "both", "surface": "asphalt"}, "geometry": {"type": "LineString", "coordinates": [[-69.3203961, -22.890115], [-69.320382, -22.8901287], [-69.3201022, -22.8904008], [-69.320078, -22.8904243], [-69.3200574, -22.8904442], [-69.3200264, -22.8904744], [-69.3199951, -22.8905048], [-69.3196083, -22.8908809], [-69.3195727, -22.8909154], [-69.3195404, -22.8909469], [-69.3191586, -22.8913181], [-69.3189564, -22.8915146], [-69.3187623, -22.8917033], [-69.3185328, -22.8919264]]}}, {"type": "Feature", "id": "way/113653592", "properties": {"Nombre": "Sin nombre · track", "Fuente": "© OpenStreetMap contributors", "Estado": "Por verificar en terreno", "Consulta": "2026-09-23", "Edicion_OSM": "2021-02-17T16:40:27Z", "Categoria": "track", "OSM_ID": "way/113653592", "OSM_URL": "https://www.openstreetmap.org/way/113653592", "Geometria": "Geometría OSM recortada al área de consulta", "Licencia": "ODbL 1.0", "highway": "track", "surface": "unpaved"}, "geometry": {"type": "MultiLineString", "coordinates": [[[-69.3127025, -22.8816031], [-69.312369, -22.8813445], [-69.3119398, -22.8813149], [-69.3115965, -22.8813643], [-69.3115241, -22.8815323], [-69.3116099, -22.8817251], [-69.3118046, -22.8819229], [-69.3119479, -22.8820562], [-69.3121866, -22.8820957], [-69.3122753, -22.8820226], [-69.3125943, -22.8817597], [-69.3127025, -22.8816031]], [[-69.3127025, -22.8816031], [-69.3131409, -22.8809689], [-69.3141387, -22.8802869], [-69.3165726486983, -22.879]]]}}, {"type": "Feature", "id": "way/113653593", "properties": {"Nombre": "Sin nombre · track", "Fuente": "© OpenStreetMap contributors", "Estado": "Por verificar en terreno", "Consulta": "2026-09-23", "Edicion_OSM": "2022-12-28T16:00:48Z", "Categoria": "track", "OSM_ID": "way/113653593", "OSM_URL": "https://www.openstreetmap.org/way/113653593", "Geometria": "Geometría OSM recortada al área de consulta", "Licencia": "ODbL 1.0", "highway": "track", "surface": "ground"}, "geometry": {"type": "LineString", "coordinates": [[-69.335, -22.881940993020525], [-69.3348011, -22.8820253], [-69.3327142, -22.8820253], [-69.3320353, -22.8822405], [-69.3310259, -22.8830049], [-69.3298693, -22.8845106], [-69.3267854, -22.8870772], [-69.325988, -22.8874644], [-69.3255749, -22.8877456], [-69.3250564, -22.8876734], [-69.3242732, -22.8875548], [-69.3237045, -22.8873373], [-69.3232218, -22.8871891], [-69.3230179, -22.8868728], [-69.3228462, -22.8865268], [-69.3226424, -22.8860129], [-69.3224643, -22.8852785], [-69.3221301, -22.8847438], [-69.3215094, -22.8839738], [-69.3213378, -22.8835488], [-69.3213056, -22.8830644], [-69.3211125, -22.8827185], [-69.3211125, -22.8825307], [-69.3213592, -22.8810282], [-69.3212627, -22.8807613], [-69.3208335, -22.8802473], [-69.3203829, -22.8799903], [-69.3199001, -22.8793577], [-69.31973468577586, -22.879]]}}, {"type": "Feature", "id": "way/113653601", "properties": {"Nombre": "Sin nombre · track", "Fuente": "© OpenStreetMap contributors", "Estado": "Por verificar en terreno", "Consulta": "2026-09-23", "Edicion_OSM": "2020-03-22T23:17:56Z", "Categoria": "track", "OSM_ID": "way/113653601", "OSM_URL": "https://www.openstreetmap.org/way/113653601", "Geometria": "Geometría OSM recortada al área de consulta", "Licencia": "ODbL 1.0", "highway": "track", "surface": "unpaved"}, "geometry": {"type": "LineString", "coordinates": [[-69.3105997, -22.8814413], [-69.3109313, -22.8815521], [-69.3111593, -22.8815605], [-69.3115241, -22.8815323]]}}, {"type": "Feature", "id": "way/113653602", "properties": {"Nombre": "Sin nombre · track", "Fuente": "© OpenStreetMap contributors", "Estado": "Por verificar en terreno", "Consulta": "2026-09-23", "Edicion_OSM": "2022-12-28T16:00:48Z", "Categoria": "track", "OSM_ID": "way/113653602", "OSM_URL": "https://www.openstreetmap.org/way/113653602", "Geometria": "Geometría OSM recortada al área de consulta", "Licencia": "ODbL 1.0", "highway": "track", "surface": "ground"}, "geometry": {"type": "LineString", "coordinates": [[-69.3224023, -22.8841746], [-69.322357, -22.8846756], [-69.3224643, -22.8852785]]}}, {"type": "Feature", "id": "way/142670394", "properties": {"Nombre": "Ruta 25", "Fuente": "© OpenStreetMap contributors", "Estado": "Por verificar en terreno", "Consulta": "2026-09-23", "Edicion_OSM": "2026-03-13T07:12:29Z", "Categoria": "motorway", "OSM_ID": "way/142670394", "OSM_URL": "https://www.openstreetmap.org/way/142670394", "Geometria": "Geometría OSM recortada al área de consulta", "Licencia": "ODbL 1.0", "highway": "motorway", "lanes": "2", "maxspeed": "100", "maxspeed:coach": "100", "maxspeed:hgv:conditional": "90 @ (weight>=3.86)", "maxspeed:psv:conditional": "90 @ (weight>=3.86)", "name": "Ruta 25", "official_name": "Cruce Ruta 5 (Carmen Alto) - Calama", "oneway": "yes", "operator": "Ruta del Loa Sociedad Concesionaria S.A.", "ref": "25", "source:ref": "Vialidad", "surface": "asphalt"}, "geometry": {"type": "LineString", "coordinates": [[-69.302, -22.889718032834537], [-69.3020007, -22.8897195], [-69.3021226, -22.8899542], [-69.3022451, -22.8901719], [-69.3023748, -22.8903862], [-69.3025115, -22.8905966], [-69.3026649, -22.8908087], [-69.302824, -22.8910172], [-69.3029889, -22.8912218], [-69.3031296, -22.891388], [-69.303274, -22.8915515], [-69.3034222, -22.8917122], [-69.3035817, -22.8918593], [-69.3041557, -22.8923881], [-69.3064463, -22.8945106], [-69.3093324, -22.8971198], [-69.3106214, -22.8983118], [-69.31571444544048, -22.903]]}}, {"type": "Feature", "id": "way/170936313", "properties": {"Nombre": "Sin nombre · track", "Fuente": "© OpenStreetMap contributors", "Estado": "Por verificar en terreno", "Consulta": "2026-09-23", "Edicion_OSM": "2024-07-13T19:41:10Z", "Categoria": "track", "OSM_ID": "way/170936313", "OSM_URL": "https://www.openstreetmap.org/way/170936313", "Geometria": "Geometría OSM recortada al área de consulta", "Licencia": "ODbL 1.0", "highway": "track", "surface": "ground"}, "geometry": {"type": "LineString", "coordinates": [[-69.3239023, -22.899453], [-69.3240311, -22.8999217], [-69.3241974, -22.900555], [-69.3242671, -22.9008119], [-69.3242456, -22.900975], [-69.3241115, -22.901143], [-69.3232479, -22.9016421], [-69.3216656, -22.9025704], [-69.32092803765713, -22.903]]}}, {"type": "Feature", "id": "way/170936334", "properties": {"Nombre": "Sin nombre · track", "Fuente": "© OpenStreetMap contributors", "Estado": "Por verificar en terreno", "Consulta": "2026-09-23", "Edicion_OSM": "2022-12-28T16:00:48Z", "Categoria": "track", "OSM_ID": "way/170936334", "OSM_URL": "https://www.openstreetmap.org/way/170936334", "Geometria": "Geometría OSM recortada al área de consulta", "Licencia": "ODbL 1.0", "highway": "track", "surface": "ground"}, "geometry": {"type": "LineString", "coordinates": [[-69.3173008, -22.8931342], [-69.3175466, -22.8934319], [-69.3178794, -22.8938067], [-69.3182753, -22.8943029]]}}, {"type": "Feature", "id": "way/198022981", "properties": {"Nombre": "Sin nombre · track", "Fuente": "© OpenStreetMap contributors", "Estado": "Por verificar en terreno", "Consulta": "2026-09-23", "Edicion_OSM": "2024-01-26T14:09:22Z", "Categoria": "track", "OSM_ID": "way/198022981", "OSM_URL": "https://www.openstreetmap.org/way/198022981", "Geometria": "Geometría OSM recortada al área de consulta", "Licencia": "ODbL 1.0", "highway": "track", "surface": "ground"}, "geometry": {"type": "LineString", "coordinates": [[-69.335, -22.896827946286262], [-69.33407294973938, -22.903]]}}, {"type": "Feature", "id": "way/363389200", "properties": {"Nombre": "Camino a Oficina Lina", "Fuente": "© OpenStreetMap contributors", "Estado": "Por verificar en terreno", "Consulta": "2026-09-23", "Edicion_OSM": "2025-09-08T07:38:21Z", "Categoria": "tertiary", "OSM_ID": "way/363389200", "OSM_URL": "https://www.openstreetmap.org/way/363389200", "Geometria": "Geometría OSM recortada al área de consulta", "Licencia": "ODbL 1.0", "attribution": "Vialidad", "chile:region": "2", "chile:surface": "ripio", "highway": "tertiary", "lanes": "2", "name": "Camino a Oficina Lina", "noref": "yes", "official_name": "Cruce Ruta 5 - Termosolar Abengoa - Oficina Lina - Cruce Ruta 25 (Sierra Gorda)", "source:ref": "Vialidad", "surface": "paved"}, "geometry": {"type": "LineString", "coordinates": [[-69.3186628, -22.8884532], [-69.3187162, -22.8883909], [-69.3187445, -22.8883573], [-69.3188785, -22.8882012], [-69.3191294, -22.88796]]}}, {"type": "Feature", "id": "way/364946723", "properties": {"Nombre": "Sin nombre · unclassified", "Fuente": "© OpenStreetMap contributors", "Estado": "Por verificar en terreno", "Consulta": "2026-09-23", "Edicion_OSM": "2026-03-13T07:12:29Z", "Categoria": "unclassified", "OSM_ID": "way/364946723", "OSM_URL": "https://www.openstreetmap.org/way/364946723", "Geometria": "Geometría OSM recortada al área de consulta", "Licencia": "ODbL 1.0", "highway": "unclassified", "surface": "unpaved"}, "geometry": {"type": "LineString", "coordinates": [[-69.3073412, -22.8862266], [-69.3078116, -22.8830945], [-69.3078334, -22.8829247], [-69.3078462, -22.8827542], [-69.3078499, -22.8825833], [-69.3078447, -22.8824124], [-69.3078303, -22.882242], [-69.3078089, -22.8820838], [-69.3077796, -22.8819267], [-69.3077427, -22.8817709], [-69.307698, -22.8816169], [-69.3076459, -22.8814649], [-69.3075863, -22.8813153], [-69.3073046, -22.8806555], [-69.3072377, -22.8805119], [-69.3071639, -22.8803711], [-69.3070833, -22.8802336], [-69.3069962, -22.8800995], [-69.3069199, -22.8799922], [-69.3068394, -22.8798875], [-69.3067548, -22.8797856], [-69.3066683, -22.8796934], [-69.3065761, -22.879606], [-69.3064785, -22.8795237], [-69.30574506478114, -22.879]]}}, {"type": "Feature", "id": "way/503302468", "properties": {"Nombre": "Santa María", "Fuente": "© OpenStreetMap contributors", "Estado": "Por verificar en terreno", "Consulta": "2026-09-23", "Edicion_OSM": "2023-01-03T14:47:10Z", "Categoria": "residential", "OSM_ID": "way/503302468", "OSM_URL": "https://www.openstreetmap.org/way/503302468", "Geometria": "Geometría OSM recortada al área de consulta", "Licencia": "ODbL 1.0", "highway": "residential", "lanes": "2", "name": "Santa María", "surface": "asphalt"}, "geometry": {"type": "LineString", "coordinates": [[-69.319884, -22.8929978], [-69.3194578, -22.8934201], [-69.3193675, -22.8935118], [-69.3193711, -22.89359], [-69.3196542, -22.8938443]]}}, {"type": "Feature", "id": "way/503302469", "properties": {"Nombre": "Jaime Guzmán", "Fuente": "© OpenStreetMap contributors", "Estado": "Por verificar en terreno", "Consulta": "2026-09-23", "Edicion_OSM": "2023-01-03T14:47:10Z", "Categoria": "residential", "OSM_ID": "way/503302469", "OSM_URL": "https://www.openstreetmap.org/way/503302469", "Geometria": "Geometría OSM recortada al área de consulta", "Licencia": "ODbL 1.0", "highway": "residential", "lanes": "2", "name": "Jaime Guzmán", "old_name": "Calle C", "surface": "asphalt"}, "geometry": {"type": "LineString", "coordinates": [[-69.3204622, -22.8931214], [-69.319771, -22.8938541], [-69.3197144, -22.8938639], [-69.3196542, -22.8938443]]}}, {"type": "Feature", "id": "way/503302470", "properties": {"Nombre": "Sin nombre · residential", "Fuente": "© OpenStreetMap contributors", "Estado": "Por verificar en terreno", "Consulta": "2026-09-23", "Edicion_OSM": "2022-12-28T16:00:48Z", "Categoria": "residential", "OSM_ID": "way/503302470", "OSM_URL": "https://www.openstreetmap.org/way/503302470", "Geometria": "Geometría OSM recortada al área de consulta", "Licencia": "ODbL 1.0", "highway": "residential", "lanes": "2", "surface": "asphalt"}, "geometry": {"type": "LineString", "coordinates": [[-69.3194578, -22.8934201], [-69.3181668, -22.8922858]]}}, {"type": "Feature", "id": "way/503302632", "properties": {"Nombre": "Sin nombre · unclassified", "Fuente": "© OpenStreetMap contributors", "Estado": "Por verificar en terreno", "Consulta": "2026-09-23", "Edicion_OSM": "2023-09-25T07:23:07Z", "Categoria": "unclassified", "OSM_ID": "way/503302632", "OSM_URL": "https://www.openstreetmap.org/way/503302632", "Geometria": "Geometría OSM recortada al área de consulta", "Licencia": "ODbL 1.0", "highway": "unclassified", "lanes": "2", "surface": "paved"}, "geometry": {"type": "LineString", "coordinates": [[-69.3194192, -22.8876816], [-69.3194805, -22.8876907], [-69.3195409, -22.8877117], [-69.3196576, -22.8878144], [-69.3199338, -22.8880763], [-69.3202536, -22.8883765], [-69.320257, -22.8884024], [-69.3202498, -22.8884234]]}}, {"type": "Feature", "id": "way/503302633", "properties": {"Nombre": "Sin nombre · unclassified", "Fuente": "© OpenStreetMap contributors", "Estado": "Por verificar en terreno", "Consulta": "2026-09-23", "Edicion_OSM": "2022-12-29T19:58:46Z", "Categoria": "unclassified", "OSM_ID": "way/503302633", "OSM_URL": "https://www.openstreetmap.org/way/503302633", "Geometria": "Geometría OSM recortada al área de consulta", "Licencia": "ODbL 1.0", "highway": "unclassified", "lanes": "2", "surface": "paved"}, "geometry": {"type": "LineString", "coordinates": [[-69.3188785, -22.8882012], [-69.3191319, -22.8882419], [-69.3192981, -22.8882764], [-69.3195503, -22.8883802], [-69.3198507, -22.8885087], [-69.3199633, -22.8885334], [-69.3200545, -22.8885235], [-69.3201437, -22.888497], [-69.3202498, -22.8884234]]}}, {"type": "Feature", "id": "way/762528115", "properties": {"Nombre": "Sin nombre · tertiary_link", "Fuente": "© OpenStreetMap contributors", "Estado": "Por verificar en terreno", "Consulta": "2026-09-23", "Edicion_OSM": "2024-10-02T03:19:23Z", "Categoria": "tertiary_link", "OSM_ID": "way/762528115", "OSM_URL": "https://www.openstreetmap.org/way/762528115", "Geometria": "Geometría OSM recortada al área de consulta", "Licencia": "ODbL 1.0", "destination:to": "Mina el Tesoro;Mina Esperanza", "highway": "tertiary_link", "lanes": "1", "oneway": "yes", "surface": "asphalt"}, "geometry": {"type": "LineString", "coordinates": [[-69.3129261, -22.8833052], [-69.3128696, -22.8832943], [-69.3128142, -22.8832858], [-69.3127582, -22.8832823], [-69.3126958, -22.8832843], [-69.3126341, -22.8832924], [-69.3125736, -22.8833066]]}}, {"type": "Feature", "id": "way/762528116", "properties": {"Nombre": "Sin nombre · tertiary_link", "Fuente": "© OpenStreetMap contributors", "Estado": "Por verificar en terreno", "Consulta": "2026-09-23", "Edicion_OSM": "2024-10-02T03:19:23Z", "Categoria": "tertiary_link", "OSM_ID": "way/762528116", "OSM_URL": "https://www.openstreetmap.org/way/762528116", "Geometria": "Geometría OSM recortada al área de consulta", "Licencia": "ODbL 1.0", "destination": "Calama", "destination:ref": "25", "highway": "tertiary_link", "lanes": "1", "oneway": "yes", "surface": "asphalt"}, "geometry": {"type": "LineString", "coordinates": [[-69.3125736, -22.8833066], [-69.3125819, -22.8832563], [-69.3125854, -22.8832054], [-69.3125839, -22.8831544], [-69.3125776, -22.8831048], [-69.3125666, -22.8830559], [-69.312551, -22.883008]]}}, {"type": "Feature", "id": "way/762528117", "properties": {"Nombre": "Sin nombre · tertiary", "Fuente": "© OpenStreetMap contributors", "Estado": "Por verificar en terreno", "Consulta": "2026-09-23", "Edicion_OSM": "2024-10-02T03:19:23Z", "Categoria": "tertiary", "OSM_ID": "way/762528117", "OSM_URL": "https://www.openstreetmap.org/way/762528117", "Geometria": "Geometría OSM recortada al área de consulta", "Licencia": "ODbL 1.0", "highway": "tertiary", "lanes": "2", "maxspeed": "60", "official_name": "Cruce Ruta 5 (Carmen Alto) - Calama", "old_ref": "25", "oneway": "yes", "placement": "middle_of:1", "source:ref": "Vialidad", "surface": "asphalt"}, "geometry": {"type": "LineString", "coordinates": [[-69.3141294, -22.8842177], [-69.3138251, -22.8839952], [-69.3133168, -22.8836085], [-69.3130687, -22.883417], [-69.3129261, -22.8833052]]}}, {"type": "Feature", "id": "way/762528118", "properties": {"Nombre": "Ruta 25", "Fuente": "© OpenStreetMap contributors", "Estado": "Por verificar en terreno", "Consulta": "2026-09-23", "Edicion_OSM": "2024-10-02T03:19:23Z", "Categoria": "tertiary", "OSM_ID": "way/762528118", "OSM_URL": "https://www.openstreetmap.org/way/762528118", "Geometria": "Geometría OSM recortada al área de consulta", "Licencia": "ODbL 1.0", "highway": "tertiary", "lanes": "1", "maxspeed": "60", "name": "Ruta 25", "old_ref": "25", "oneway": "yes", "surface": "asphalt"}, "geometry": {"type": "LineString", "coordinates": [[-69.3136559, -22.8837428], [-69.3138827, -22.8839124], [-69.3144098, -22.8843115], [-69.3148188, -22.8846408], [-69.3149851, -22.8847835]]}}, {"type": "Feature", "id": "way/762528119", "properties": {"Nombre": "Sin nombre · tertiary", "Fuente": "© OpenStreetMap contributors", "Estado": "Por verificar en terreno", "Consulta": "2026-09-23", "Edicion_OSM": "2024-10-02T03:19:23Z", "Categoria": "tertiary", "OSM_ID": "way/762528119", "OSM_URL": "https://www.openstreetmap.org/way/762528119", "Geometria": "Geometría OSM recortada al área de consulta", "Licencia": "ODbL 1.0", "highway": "tertiary", "lanes": "2", "maxspeed": "60", "official_name": "Cruce Ruta 5 (Carmen Alto) - Calama", "old_ref": "25", "oneway": "no", "source:ref": "Vialidad", "surface": "asphalt"}, "geometry": {"type": "LineString", "coordinates": [[-69.3172918, -22.8872546], [-69.3172119, -22.8871214], [-69.3170893, -22.8869173], [-69.3168908, -22.8865985], [-69.3166414, -22.8862278], [-69.3165343, -22.8860955], [-69.3164221, -22.8859668], [-69.3163048, -22.8858421], [-69.3161827, -22.8857213], [-69.3160407, -22.8855913], [-69.3158931, -22.8854668], [-69.3155645, -22.8852147], [-69.3149851, -22.8847835]]}}, {"type": "Feature", "id": "way/783759353", "properties": {"Nombre": "Eleuterio Ramírez", "Fuente": "© OpenStreetMap contributors", "Estado": "Por verificar en terreno", "Consulta": "2026-09-23", "Edicion_OSM": "2023-01-03T14:47:10Z", "Categoria": "residential", "OSM_ID": "way/783759353", "OSM_URL": "https://www.openstreetmap.org/way/783759353", "Geometria": "Geometría OSM recortada al área de consulta", "Licencia": "ODbL 1.0", "highway": "residential", "lanes": "2", "maxspeed": "50", "name": "Eleuterio Ramírez", "surface": "asphalt"}, "geometry": {"type": "LineString", "coordinates": [[-69.3156517, -22.8914244], [-69.3159189, -22.8912331], [-69.3161826, -22.8910379], [-69.3164429, -22.8908388], [-69.3167942, -22.8905594], [-69.3171386, -22.8902728]]}}, {"type": "Feature", "id": "way/783759354", "properties": {"Nombre": "Sin nombre · residential", "Fuente": "© OpenStreetMap contributors", "Estado": "Por verificar en terreno", "Consulta": "2026-09-23", "Edicion_OSM": "2022-12-29T19:58:46Z", "Categoria": "residential", "OSM_ID": "way/783759354", "OSM_URL": "https://www.openstreetmap.org/way/783759354", "Geometria": "Geometría OSM recortada al área de consulta", "Licencia": "ODbL 1.0", "highway": "residential", "lanes": "2", "maxspeed": "50", "surface": "asphalt"}, "geometry": {"type": "LineString", "coordinates": [[-69.3163544, -22.8923559], [-69.3156517, -22.8914244]]}}, {"type": "Feature", "id": "way/783759355", "properties": {"Nombre": "O'Higgins", "Fuente": "© OpenStreetMap contributors", "Estado": "Por verificar en terreno", "Consulta": "2026-09-23", "Edicion_OSM": "2023-01-03T14:47:10Z", "Categoria": "residential", "OSM_ID": "way/783759355", "OSM_URL": "https://www.openstreetmap.org/way/783759355", "Geometria": "Geometría OSM recortada al área de consulta", "Licencia": "ODbL 1.0", "highway": "residential", "name": "O'Higgins", "surface": "asphalt"}, "geometry": {"type": "LineString", "coordinates": [[-69.3171543, -22.8923317], [-69.3170169, -22.8923584], [-69.3169606, -22.8923461], [-69.3168989, -22.8922868], [-69.3167862, -22.8921558], [-69.3167406, -22.8921385], [-69.3166763, -22.8921509], [-69.3163544, -22.8923559]]}}, {"type": "Feature", "id": "way/783759359", "properties": {"Nombre": "Sin nombre · service", "Fuente": "© OpenStreetMap contributors", "Estado": "Por verificar en terreno", "Consulta": "2026-09-23", "Edicion_OSM": "2020-03-22T22:55:51Z", "Categoria": "service", "OSM_ID": "way/783759359", "OSM_URL": "https://www.openstreetmap.org/way/783759359", "Geometria": "Geometría OSM recortada al área de consulta", "Licencia": "ODbL 1.0", "highway": "service"}, "geometry": {"type": "LineString", "coordinates": [[-69.3209437, -22.8890695], [-69.3203884, -22.8885061], [-69.3202498, -22.8884234]]}}, {"type": "Feature", "id": "way/783759373", "properties": {"Nombre": "O'Higgins", "Fuente": "© OpenStreetMap contributors", "Estado": "Por verificar en terreno", "Consulta": "2026-09-23", "Edicion_OSM": "2023-01-03T14:47:10Z", "Categoria": "residential", "OSM_ID": "way/783759373", "OSM_URL": "https://www.openstreetmap.org/way/783759373", "Geometria": "Geometría OSM recortada al área de consulta", "Licencia": "ODbL 1.0", "highway": "residential", "lanes": "2", "name": "O'Higgins", "surface": "asphalt"}, "geometry": {"type": "LineString", "coordinates": [[-69.3173008, -22.8931342], [-69.3178957, -22.8925507], [-69.3181668, -22.8922858], [-69.3183795, -22.8920761], [-69.3184507, -22.8920062], [-69.3185328, -22.8919264]]}}, {"type": "Feature", "id": "way/783761120", "properties": {"Nombre": "Camino a Oficina Lina", "Fuente": "© OpenStreetMap contributors", "Estado": "Por verificar en terreno", "Consulta": "2026-09-23", "Edicion_OSM": "2025-12-09T08:26:18Z", "Categoria": "tertiary", "OSM_ID": "way/783761120", "OSM_URL": "https://www.openstreetmap.org/way/783761120", "Geometria": "Geometría OSM recortada al área de consulta", "Licencia": "ODbL 1.0", "highway": "tertiary", "lanes": "2", "name": "Camino a Oficina Lina", "noref": "yes", "official_name": "Cruce Ruta 5 - Termosolar Abengoa - Oficina Lina - Cruce Ruta 25 (Sierra Gorda)", "source:ref": "Vialidad", "surface": "asphalt"}, "geometry": {"type": "LineString", "coordinates": [[-69.31946312996942, -22.879], [-69.3194827, -22.8790653], [-69.3195238, -22.8792307], [-69.319557, -22.8793976], [-69.3196488, -22.8797373], [-69.3202075, -22.8818055], [-69.32078, -22.8839248], [-69.3208209, -22.8841063], [-69.3208521, -22.8842894], [-69.3208735, -22.8844737], [-69.3208852, -22.8846588], [-69.320887, -22.8848441], [-69.320879, -22.8850293], [-69.3208613, -22.885214], [-69.3208337, -22.8853976], [-69.3208011, -22.8855596], [-69.3207609, -22.8857201], [-69.3207131, -22.8858788], [-69.3206579, -22.8860355], [-69.3205954, -22.8861898], [-69.3205257, -22.8863415], [-69.3204489, -22.8864903], [-69.3203652, -22.8866358], [-69.3202747, -22.8867779], [-69.3201776, -22.8869162], [-69.3200741, -22.8870505]]}}, {"type": "Feature", "id": "way/783761121", "properties": {"Nombre": "Camino a Oficina Lina", "Fuente": "© OpenStreetMap contributors", "Estado": "Por verificar en terreno", "Consulta": "2026-09-23", "Edicion_OSM": "2026-09-08T03:47:36Z", "Categoria": "tertiary", "OSM_ID": "way/783761121", "OSM_URL": "https://www.openstreetmap.org/way/783761121", "Geometria": "Geometría OSM recortada al área de consulta", "Licencia": "ODbL 1.0", "highway": "tertiary", "lanes": "2", "name": "Camino a Oficina Lina", "noref": "yes", "official_name": "Cruce Ruta 5 - Termosolar Abengoa - Oficina Lina - Cruce Ruta 25 (Sierra Gorda)", "source:ref": "Vialidad", "surface": "paved"}, "geometry": {"type": "LineString", "coordinates": [[-69.3191294, -22.88796], [-69.3192819, -22.8878082], [-69.3194192, -22.8876816], [-69.3195064, -22.8875975], [-69.3200741, -22.8870505]]}}, {"type": "Feature", "id": "way/783761122", "properties": {"Nombre": "Sin nombre · track", "Fuente": "© OpenStreetMap contributors", "Estado": "Por verificar en terreno", "Consulta": "2026-09-23", "Edicion_OSM": "2022-12-28T16:00:48Z", "Categoria": "track", "OSM_ID": "way/783761122", "OSM_URL": "https://www.openstreetmap.org/way/783761122", "Geometria": "Geometría OSM recortada al área de consulta", "Licencia": "ODbL 1.0", "highway": "track", "surface": "ground"}, "geometry": {"type": "LineString", "coordinates": [[-69.3228806, -22.8831746], [-69.324383, -22.881011], [-69.3254205350458, -22.879]]}}, {"type": "Feature", "id": "way/783761123", "properties": {"Nombre": "Sin nombre · track", "Fuente": "© OpenStreetMap contributors", "Estado": "Por verificar en terreno", "Consulta": "2026-09-23", "Edicion_OSM": "2020-03-22T23:17:56Z", "Categoria": "track", "OSM_ID": "way/783761123", "OSM_URL": "https://www.openstreetmap.org/way/783761123", "Geometria": "Geometría OSM recortada al área de consulta", "Licencia": "ODbL 1.0", "highway": "track", "surface": "unpaved"}, "geometry": {"type": "LineString", "coordinates": [[-69.3200741, -22.8870505], [-69.3216784, -22.8853878], [-69.3221301, -22.8847438], [-69.3224023, -22.8841746], [-69.3228806, -22.8831746]]}}, {"type": "Feature", "id": "way/783761125", "properties": {"Nombre": "Sin nombre · track", "Fuente": "© OpenStreetMap contributors", "Estado": "Por verificar en terreno", "Consulta": "2026-09-23", "Edicion_OSM": "2022-12-28T16:00:48Z", "Categoria": "track", "OSM_ID": "way/783761125", "OSM_URL": "https://www.openstreetmap.org/way/783761125", "Geometria": "Geometría OSM recortada al área de consulta", "Licencia": "ODbL 1.0", "highway": "track", "surface": "ground"}, "geometry": {"type": "LineString", "coordinates": [[-69.3121866, -22.8820957], [-69.3122989, -22.8823927], [-69.3123968, -22.8824829], [-69.3128166, -22.8828696], [-69.3137714, -22.8835665], [-69.3161184, -22.885363], [-69.3167635, -22.8859029], [-69.3168015, -22.8859549], [-69.3168526, -22.8860246], [-69.3168821, -22.8860512], [-69.316917, -22.8860584]]}}, {"type": "Feature", "id": "way/783902432", "properties": {"Nombre": "O'Higgins", "Fuente": "© OpenStreetMap contributors", "Estado": "Por verificar en terreno", "Consulta": "2026-09-23", "Edicion_OSM": "2023-01-03T14:47:10Z", "Categoria": "residential", "OSM_ID": "way/783902432", "OSM_URL": "https://www.openstreetmap.org/way/783902432", "Geometria": "Geometría OSM recortada al área de consulta", "Licencia": "ODbL 1.0", "highway": "residential", "name": "O'Higgins", "surface": "asphalt"}, "geometry": {"type": "LineString", "coordinates": [[-69.3184507, -22.8920062], [-69.3182749, -22.8918395], [-69.3181622, -22.891795], [-69.3180062, -22.8918346], [-69.3171543, -22.8923317], [-69.3170081, -22.8925799]]}}, {"type": "Feature", "id": "way/789456085", "properties": {"Nombre": "Caracoles", "Fuente": "© OpenStreetMap contributors", "Estado": "Por verificar en terreno", "Consulta": "2026-09-23", "Edicion_OSM": "2022-12-29T19:58:46Z", "Categoria": "residential", "OSM_ID": "way/789456085", "OSM_URL": "https://www.openstreetmap.org/way/789456085", "Geometria": "Geometría OSM recortada al área de consulta", "Licencia": "ODbL 1.0", "highway": "residential", "lanes": "2", "lit": "yes", "maxspeed": "50", "name": "Caracoles", "sidewalk": "both", "surface": "asphalt"}, "geometry": {"type": "LineString", "coordinates": [[-69.3182734, -22.8912726], [-69.3190556, -22.8905191], [-69.3190878, -22.8904881], [-69.3191231, -22.890454], [-69.3195047, -22.8900864], [-69.3195369, -22.8900555], [-69.3195748, -22.890019]]}}, {"type": "Feature", "id": "way/959700188", "properties": {"Nombre": "Sin nombre · track", "Fuente": "© OpenStreetMap contributors", "Estado": "Por verificar en terreno", "Consulta": "2026-09-23", "Edicion_OSM": "2022-12-28T16:00:48Z", "Categoria": "track", "OSM_ID": "way/959700188", "OSM_URL": "https://www.openstreetmap.org/way/959700188", "Geometria": "Geometría OSM recortada al área de consulta", "Licencia": "ODbL 1.0", "highway": "track", "surface": "ground"}, "geometry": {"type": "LineString", "coordinates": [[-69.3202075, -22.8818055], [-69.3200476, -22.8817812], [-69.3198869, -22.8817626], [-69.3197388, -22.8817504], [-69.3195903, -22.881743], [-69.319516, -22.8817389], [-69.3194416, -22.8817403], [-69.3193589, -22.8817483], [-69.3192772, -22.881763], [-69.3191973, -22.8817843], [-69.3191198, -22.881812], [-69.3190423, -22.8818473], [-69.3189688, -22.881889], [-69.3188996, -22.8819366], [-69.3188354, -22.8819899], [-69.3186048, -22.8821629], [-69.3185408, -22.8821884], [-69.3184733, -22.8822049], [-69.3184117, -22.8822116], [-69.3183497, -22.8822108], [-69.3182883, -22.8822024], [-69.3181292, -22.8821644], [-69.3179718, -22.8821209], [-69.3178875, -22.8820895], [-69.3178001, -22.8820665], [-69.3177293, -22.8820544], [-69.3176576, -22.8820478], [-69.3175855, -22.8820467], [-69.3175075, -22.8820397], [-69.31743, -22.8820294], [-69.3173246, -22.8820102], [-69.3172208, -22.881985], [-69.3171235, -22.8819658], [-69.3170249, -22.8819528], [-69.3169603, -22.8819478], [-69.3168954, -22.8819455], [-69.3167948, -22.8819431], [-69.3166947, -22.8819332], [-69.3165958, -22.8819158], [-69.3165021, -22.881892], [-69.3164107, -22.8818614], [-69.3163222, -22.8818243], [-69.3162844, -22.8818007], [-69.3162438, -22.8817815], [-69.3162008, -22.8817671], [-69.3161563, -22.8817578], [-69.3160978, -22.8817534], [-69.3160392, -22.8817576], [-69.3159832, -22.881764], [-69.3159267, -22.8817661], [-69.3158703, -22.8817638], [-69.3158002, -22.8817548], [-69.3157316, -22.8817391], [-69.3156651, -22.8817168], [-69.3156057, -22.8817019], [-69.3155452, -22.8816912], [-69.315484, -22.8816847], [-69.3152319, -22.8816625], [-69.3143012, -22.881639], [-69.3142092, -22.8816348], [-69.3141174, -22.8816279], [-69.3139766, -22.8816118]]}}, {"type": "Feature", "id": "way/959700189", "properties": {"Nombre": "Sin nombre · track", "Fuente": "© OpenStreetMap contributors", "Estado": "Por verificar en terreno", "Consulta": "2026-09-23", "Edicion_OSM": "2022-12-28T16:00:48Z", "Categoria": "track", "OSM_ID": "way/959700189", "OSM_URL": "https://www.openstreetmap.org/way/959700189", "Geometria": "Geometría OSM recortada al área de consulta", "Licencia": "ODbL 1.0", "highway": "track", "surface": "ground"}, "geometry": {"type": "LineString", "coordinates": [[-69.3196488, -22.8797373], [-69.319512, -22.8798379], [-69.3193799, -22.8799438], [-69.3192512, -22.8800562], [-69.3191278, -22.8801736], [-69.3189865, -22.8802946], [-69.3188381, -22.8804084], [-69.3187777, -22.8804708], [-69.3187117, -22.8805281], [-69.3186404, -22.88058], [-69.3185645, -22.8806258], [-69.318493, -22.8806616], [-69.3184186, -22.8806922], [-69.3183419, -22.8807173], [-69.3182703, -22.8807268], [-69.3181998, -22.880742], [-69.3181135, -22.8807687], [-69.3180308, -22.8808038], [-69.3179227, -22.880847], [-69.3177947, -22.8808853], [-69.3176867, -22.880914], [-69.3175802, -22.8809471], [-69.3174581, -22.8809911], [-69.3173388, -22.881041], [-69.3171991, -22.8811122], [-69.3170571, -22.8811794], [-69.3169338, -22.8812337], [-69.3168164, -22.8812774], [-69.3166965, -22.8813145], [-69.3165743, -22.8813449], [-69.3165164, -22.8813596], [-69.3164608, -22.8813802], [-69.316408, -22.8814067], [-69.3163544, -22.881442], [-69.3163292, -22.8814617], [-69.3163061, -22.8814833], [-69.3162781, -22.881516], [-69.3162547, -22.8815516], [-69.3162364, -22.8815896], [-69.3161563, -22.8817578], [-69.3161264, -22.8818194], [-69.3159467, -22.882153], [-69.3159126, -22.8821973], [-69.3158726, -22.8822372], [-69.3158274, -22.8822721], [-69.3157777, -22.8823013], [-69.3157247, -22.8823242], [-69.315669, -22.8823408], [-69.3156114, -22.8823507], [-69.3155424, -22.8823556], [-69.3154733, -22.8823531], [-69.3154049, -22.8823433], [-69.3151233, -22.8822815], [-69.3150467, -22.8822588], [-69.3149677, -22.8822444], [-69.3148998, -22.882239], [-69.3148316, -22.8822399], [-69.3147638, -22.8822469], [-69.3146619, -22.8822501], [-69.31456, -22.8822444], [-69.3144799, -22.8822332], [-69.3143991, -22.8822271], [-69.314321, -22.8822263], [-69.3142431, -22.8822305], [-69.3141657, -22.8822395], [-69.3140293, -22.8822685], [-69.3138921, -22.8822939], [-69.3137209, -22.8823202], [-69.3136353, -22.8823333], [-69.3135488, -22.8823408], [-69.3134468, -22.8823423], [-69.313345, -22.8823359], [-69.3132487, -22.8823371], [-69.3131528, -22.8823453], [-69.313058, -22.8823606], [-69.3129876, -22.8823577], [-69.3129174, -22.8823635], [-69.3128487, -22.8823779], [-69.3128002, -22.8823879], [-69.3127508, -22.8823939], [-69.3126979, -22.882396], [-69.312645, -22.8823935], [-69.3126192, -22.8823877], [-69.3125926, -22.8823865], [-69.3125632, -22.8823908], [-69.3125355, -22.8824009], [-69.3125108, -22.8824162], [-69.3123968, -22.8824829]]}}, {"type": "Feature", "id": "way/959700190", "properties": {"Nombre": "Sin nombre · track", "Fuente": "© OpenStreetMap contributors", "Estado": "Por verificar en terreno", "Consulta": "2026-09-23", "Edicion_OSM": "2022-12-28T16:00:48Z", "Categoria": "track", "OSM_ID": "way/959700190", "OSM_URL": "https://www.openstreetmap.org/way/959700190", "Geometria": "Geometría OSM recortada al área de consulta", "Licencia": "ODbL 1.0", "highway": "track", "surface": "ground"}, "geometry": {"type": "LineString", "coordinates": [[-69.3188785, -22.8882012], [-69.318797, -22.8881353], [-69.3184595, -22.8878221], [-69.3182665, -22.8876141], [-69.3182135, -22.8875551], [-69.3180784, -22.8873716], [-69.3179352, -22.8871935], [-69.317784, -22.8870211], [-69.3176719, -22.8869021], [-69.317556, -22.8867863], [-69.3174468, -22.8867032], [-69.3173441, -22.8866133], [-69.3172586, -22.8865281], [-69.317179, -22.8864382], [-69.3171054, -22.886344], [-69.3170361, -22.8862584], [-69.3169751, -22.8861676], [-69.316923, -22.8860722], [-69.316917, -22.8860584], [-69.3168838, -22.8859823], [-69.3168524, -22.8858899], [-69.3168291, -22.8857954], [-69.3168119, -22.885612], [-69.3167993, -22.8854283], [-69.3167916, -22.8852444], [-69.3167886, -22.8850285], [-69.3167922, -22.8848126], [-69.3168023, -22.8845969], [-69.3168801, -22.8825014], [-69.3168954, -22.8819455], [-69.3169069, -22.8815278], [-69.3169338, -22.8812337]]}}, {"type": "Feature", "id": "way/989173227", "properties": {"Nombre": "Sin nombre · track", "Fuente": "© OpenStreetMap contributors", "Estado": "Por verificar en terreno", "Consulta": "2026-09-23", "Edicion_OSM": "2024-07-13T19:41:10Z", "Categoria": "track", "OSM_ID": "way/989173227", "OSM_URL": "https://www.openstreetmap.org/way/989173227", "Geometria": "Geometría OSM recortada al área de consulta", "Licencia": "ODbL 1.0", "highway": "track", "surface": "unpaved"}, "geometry": {"type": "LineString", "coordinates": [[-69.3110862, -22.8979666], [-69.3113863, -22.8978894], [-69.3118261, -22.8978187], [-69.3123078, -22.8978058], [-69.3127686, -22.8977673], [-69.3132293, -22.8976386], [-69.3136831, -22.8976001], [-69.3141229, -22.8975293], [-69.3145278, -22.8975486], [-69.3149745, -22.8976386], [-69.3152259, -22.8976001], [-69.3153536, -22.897643]]}}, {"type": "Feature", "id": "way/989173228", "properties": {"Nombre": "Sin nombre · unclassified", "Fuente": "© OpenStreetMap contributors", "Estado": "Por verificar en terreno", "Consulta": "2026-09-23", "Edicion_OSM": "2022-12-28T16:00:48Z", "Categoria": "unclassified", "OSM_ID": "way/989173228", "OSM_URL": "https://www.openstreetmap.org/way/989173228", "Geometria": "Geometría OSM recortada al área de consulta", "Licencia": "ODbL 1.0", "highway": "unclassified", "surface": "unpaved"}, "geometry": {"type": "LineString", "coordinates": [[-69.3153536, -22.897643], [-69.315583, -22.8972584], [-69.3158071, -22.8968712], [-69.316067, -22.8964001], [-69.3162804, -22.8958664], [-69.3163068, -22.8956061], [-69.3163617, -22.8952259], [-69.3164105, -22.8949132], [-69.3164817, -22.8946919], [-69.3165202, -22.8945724], [-69.31663, -22.8942073], [-69.316689, -22.8939376], [-69.3167845, -22.8936867], [-69.317004, -22.8933833], [-69.3173008, -22.8931342]]}}, {"type": "Feature", "id": "way/1118550186", "properties": {"Nombre": "Sin nombre · track", "Fuente": "© OpenStreetMap contributors", "Estado": "Por verificar en terreno", "Consulta": "2026-09-23", "Edicion_OSM": "2024-07-13T19:41:10Z", "Categoria": "track", "OSM_ID": "way/1118550186", "OSM_URL": "https://www.openstreetmap.org/way/1118550186", "Geometria": "Geometría OSM recortada al área de consulta", "Licencia": "ODbL 1.0", "highway": "track", "surface": "ground"}, "geometry": {"type": "LineString", "coordinates": [[-69.3120690305858, -22.903], [-69.3131244, -22.9012523]]}}, {"type": "Feature", "id": "way/1118550187", "properties": {"Nombre": "Sin nombre · track", "Fuente": "© OpenStreetMap contributors", "Estado": "Por verificar en terreno", "Consulta": "2026-09-23", "Edicion_OSM": "2022-12-01T05:09:06Z", "Categoria": "track", "OSM_ID": "way/1118550187", "OSM_URL": "https://www.openstreetmap.org/way/1118550187", "Geometria": "Geometría OSM recortada al área de consulta", "Licencia": "ODbL 1.0", "highway": "track", "surface": "unpaved"}, "geometry": {"type": "LineString", "coordinates": [[-69.3068808, -22.8887705], [-69.3068057, -22.8892351], [-69.3066609, -22.8901197], [-69.3066207, -22.8904755], [-69.3065992, -22.8905694]]}}, {"type": "Feature", "id": "way/1118550188", "properties": {"Nombre": "Ruta B-229", "Fuente": "© OpenStreetMap contributors", "Estado": "Por verificar en terreno", "Consulta": "2026-09-23", "Edicion_OSM": "2022-12-01T05:09:06Z", "Categoria": "track", "OSM_ID": "way/1118550188", "OSM_URL": "https://www.openstreetmap.org/way/1118550188", "Geometria": "Geometría OSM recortada al área de consulta", "Licencia": "ODbL 1.0", "highway": "track", "name": "Ruta B-229", "official_name": "Cruce Ruta 25 (Sierra Gorda) - Cerro Caracoles", "ref": "B-229", "source:ref": "Vialidad", "surface": "unpaved"}, "geometry": {"type": "LineString", "coordinates": [[-69.3142261, -22.8899768], [-69.3110331, -22.8904534], [-69.3107944, -22.8904527], [-69.3094879, -22.8902013], [-69.3086699, -22.8899888], [-69.3081656, -22.8899467]]}}, {"type": "Feature", "id": "way/1118550189", "properties": {"Nombre": "Ruta B-229", "Fuente": "© OpenStreetMap contributors", "Estado": "Por verificar en terreno", "Consulta": "2026-09-23", "Edicion_OSM": "2024-07-14T08:04:53Z", "Categoria": "track", "OSM_ID": "way/1118550189", "OSM_URL": "https://www.openstreetmap.org/way/1118550189", "Geometria": "Geometría OSM recortada al área de consulta", "Licencia": "ODbL 1.0", "highway": "track", "name": "Ruta B-229", "official_name": "Cruce Ruta 25 (Sierra Gorda) - Cerro Caracoles", "ref": "B-229", "source:ref": "Vialidad", "surface": "unpaved"}, "geometry": {"type": "LineString", "coordinates": [[-69.3027449, -22.8918148], [-69.302, -22.891945910615807]]}}, {"type": "Feature", "id": "way/1118550190", "properties": {"Nombre": "Sin nombre · track", "Fuente": "© OpenStreetMap contributors", "Estado": "Por verificar en terreno", "Consulta": "2026-09-23", "Edicion_OSM": "2024-07-14T08:04:53Z", "Categoria": "track", "OSM_ID": "way/1118550190", "OSM_URL": "https://www.openstreetmap.org/way/1118550190", "Geometria": "Geometría OSM recortada al área de consulta", "Licencia": "ODbL 1.0", "highway": "track", "surface": "unpaved"}, "geometry": {"type": "LineString", "coordinates": [[-69.307079, -22.8878663], [-69.3070887, -22.8878019], [-69.3071841, -22.8872726]]}}, {"type": "Feature", "id": "way/1118550191", "properties": {"Nombre": "Sin nombre · track", "Fuente": "© OpenStreetMap contributors", "Estado": "Por verificar en terreno", "Consulta": "2026-09-23", "Edicion_OSM": "2024-07-14T08:04:53Z", "Categoria": "track", "OSM_ID": "way/1118550191", "OSM_URL": "https://www.openstreetmap.org/way/1118550191", "Geometria": "Geometría OSM recortada al área de consulta", "Licencia": "ODbL 1.0", "highway": "track", "surface": "unpaved"}, "geometry": {"type": "LineString", "coordinates": [[-69.3070552, -22.8884518], [-69.3070437, -22.8882825], [-69.3070498, -22.8881182], [-69.3070648, -22.8879596], [-69.307079, -22.8878663]]}}, {"type": "Feature", "id": "way/1118550192", "properties": {"Nombre": "Sin nombre · track", "Fuente": "© OpenStreetMap contributors", "Estado": "Por verificar en terreno", "Consulta": "2026-09-23", "Edicion_OSM": "2024-07-14T08:04:53Z", "Categoria": "track", "OSM_ID": "way/1118550192", "OSM_URL": "https://www.openstreetmap.org/way/1118550192", "Geometria": "Geometría OSM recortada al área de consulta", "Licencia": "ODbL 1.0", "highway": "track", "lanes": "2", "maxspeed": "50", "surface": "asphalt"}, "geometry": {"type": "LineString", "coordinates": [[-69.3086893, -22.8875764], [-69.3085705, -22.8876624], [-69.308448, -22.8877438], [-69.3083219, -22.8878204], [-69.3081924, -22.8878921], [-69.307819, -22.8880923], [-69.3077753, -22.8881157]]}}, {"type": "Feature", "id": "way/1118550193", "properties": {"Nombre": "Sin nombre · track", "Fuente": "© OpenStreetMap contributors", "Estado": "Por verificar en terreno", "Consulta": "2026-09-23", "Edicion_OSM": "2024-07-14T08:04:53Z", "Categoria": "track", "OSM_ID": "way/1118550193", "OSM_URL": "https://www.openstreetmap.org/way/1118550193", "Geometria": "Geometría OSM recortada al área de consulta", "Licencia": "ODbL 1.0", "highway": "track", "lanes": "2", "maxspeed": "50", "surface": "asphalt"}, "geometry": {"type": "LineString", "coordinates": [[-69.3077753, -22.8881157], [-69.3070552, -22.8884518]]}}, {"type": "Feature", "id": "way/1118550194", "properties": {"Nombre": "Sin nombre · track", "Fuente": "© OpenStreetMap contributors", "Estado": "Por verificar en terreno", "Consulta": "2026-09-23", "Edicion_OSM": "2024-07-14T08:04:53Z", "Categoria": "track", "OSM_ID": "way/1118550194", "OSM_URL": "https://www.openstreetmap.org/way/1118550194", "Geometria": "Geometría OSM recortada al área de consulta", "Licencia": "ODbL 1.0", "highway": "track", "lanes": "2", "maxspeed": "50", "surface": "asphalt"}, "geometry": {"type": "LineString", "coordinates": [[-69.3070552, -22.8884518], [-69.3065174, -22.8887051]]}}, {"type": "Feature", "id": "way/1118550195", "properties": {"Nombre": "Sin nombre · track", "Fuente": "© OpenStreetMap contributors", "Estado": "Por verificar en terreno", "Consulta": "2026-09-23", "Edicion_OSM": "2024-07-14T08:04:53Z", "Categoria": "track", "OSM_ID": "way/1118550195", "OSM_URL": "https://www.openstreetmap.org/way/1118550195", "Geometria": "Geometría OSM recortada al área de consulta", "Licencia": "ODbL 1.0", "highway": "track", "lanes": "2", "maxspeed": "50", "surface": "asphalt"}, "geometry": {"type": "LineString", "coordinates": [[-69.3104573, -22.8857102], [-69.3096286, -22.886676], [-69.3094839, -22.8868374], [-69.3093341, -22.8869949], [-69.3091795, -22.8871483], [-69.30902, -22.8872976], [-69.3088559, -22.8874426], [-69.3087737, -22.8875107], [-69.3086893, -22.8875764]]}}, {"type": "Feature", "id": "way/1118550196", "properties": {"Nombre": "Sin nombre · track", "Fuente": "© OpenStreetMap contributors", "Estado": "Por verificar en terreno", "Consulta": "2026-09-23", "Edicion_OSM": "2024-07-14T08:04:53Z", "Categoria": "track", "OSM_ID": "way/1118550196", "OSM_URL": "https://www.openstreetmap.org/way/1118550196", "Geometria": "Geometría OSM recortada al área de consulta", "Licencia": "ODbL 1.0", "highway": "track", "lanes": "1", "oneway": "yes", "surface": "compacted"}, "geometry": {"type": "LineString", "coordinates": [[-69.307079, -22.8878663], [-69.307106, -22.887921], [-69.3071412, -22.8879715], [-69.3071839, -22.8880169], [-69.3072217, -22.888048], [-69.307263, -22.888075], [-69.3073058, -22.8880945], [-69.3073513, -22.8881077], [-69.3073985, -22.8881145], [-69.3074925, -22.8881235], [-69.3075869, -22.8881267], [-69.3076813, -22.8881241], [-69.3077753, -22.8881157]]}}, {"type": "Feature", "id": "way/1118550197", "properties": {"Nombre": "Sin nombre · track", "Fuente": "© OpenStreetMap contributors", "Estado": "Por verificar en terreno", "Consulta": "2026-09-23", "Edicion_OSM": "2024-07-14T08:04:53Z", "Categoria": "track", "OSM_ID": "way/1118550197", "OSM_URL": "https://www.openstreetmap.org/way/1118550197", "Geometria": "Geometría OSM recortada al área de consulta", "Licencia": "ODbL 1.0", "highway": "track", "lanes": "1", "oneway": "yes", "surface": "compacted"}, "geometry": {"type": "LineString", "coordinates": [[-69.3065174, -22.8887051], [-69.306618, -22.8885998], [-69.3067121, -22.8884895], [-69.3067993, -22.8883746], [-69.3068795, -22.8882553], [-69.306954, -22.8881292], [-69.3070205, -22.8879994], [-69.307079, -22.8878663]]}}, {"type": "Feature", "id": "way/1118550198", "properties": {"Nombre": "Sin nombre · track", "Fuente": "© OpenStreetMap contributors", "Estado": "Por verificar en terreno", "Consulta": "2026-09-23", "Edicion_OSM": "2024-07-14T08:04:53Z", "Categoria": "track", "OSM_ID": "way/1118550198", "OSM_URL": "https://www.openstreetmap.org/way/1118550198", "Geometria": "Geometría OSM recortada al área de consulta", "Licencia": "ODbL 1.0", "highway": "track", "oneway": "yes", "surface": "unpaved"}, "geometry": {"type": "LineString", "coordinates": [[-69.3086893, -22.8875764], [-69.3085798, -22.8877188], [-69.308468, -22.8878515], [-69.308352, -22.8879811], [-69.3082138, -22.8881259], [-69.3081432, -22.8881971], [-69.3080704, -22.8882665], [-69.3079515, -22.8883716], [-69.3078276, -22.8884718], [-69.3077649, -22.8885212], [-69.3076989, -22.8885667], [-69.3076074, -22.8886204], [-69.3075112, -22.8886668], [-69.3074695, -22.8886801], [-69.3074264, -22.8886884], [-69.3073824, -22.8886915], [-69.3073323, -22.8886886], [-69.3072833, -22.8886791], [-69.3072593, -22.8886722], [-69.3072362, -22.8886631], [-69.3071985, -22.8886419], [-69.3071655, -22.8886148], [-69.3071383, -22.8885827], [-69.3070895, -22.8885166], [-69.3070552, -22.8884518]]}}, {"type": "Feature", "id": "way/1118550209", "properties": {"Nombre": "Sin nombre · tertiary", "Fuente": "© OpenStreetMap contributors", "Estado": "Por verificar en terreno", "Consulta": "2026-09-23", "Edicion_OSM": "2024-10-02T03:19:23Z", "Categoria": "tertiary", "OSM_ID": "way/1118550209", "OSM_URL": "https://www.openstreetmap.org/way/1118550209", "Geometria": "Geometría OSM recortada al área de consulta", "Licencia": "ODbL 1.0", "highway": "tertiary", "lanes": "2", "maxspeed": "50", "surface": "asphalt"}, "geometry": {"type": "LineString", "coordinates": [[-69.3125736, -22.8833066], [-69.3122882, -22.8836283]]}}, {"type": "Feature", "id": "way/1118550210", "properties": {"Nombre": "Sin nombre · unclassified", "Fuente": "© OpenStreetMap contributors", "Estado": "Por verificar en terreno", "Consulta": "2026-09-23", "Edicion_OSM": "2024-07-14T08:04:53Z", "Categoria": "unclassified", "OSM_ID": "way/1118550210", "OSM_URL": "https://www.openstreetmap.org/way/1118550210", "Geometria": "Geometría OSM recortada al área de consulta", "Licencia": "ODbL 1.0", "highway": "unclassified", "lanes": "2", "maxheight": "8", "maxspeed": "60", "official_name": "Cruce Ruta 5 (Carmen Alto) - Calama", "old_ref": "25", "oneway": "yes", "placement": "middle_of:1", "source:ref": "Vialidad", "surface": "asphalt"}, "geometry": {"type": "LineString", "coordinates": [[-69.312551, -22.883008], [-69.3123458, -22.882856], [-69.3121144, -22.8826736]]}}, {"type": "Feature", "id": "way/1118550211", "properties": {"Nombre": "Ruta 25", "Fuente": "© OpenStreetMap contributors", "Estado": "Por verificar en terreno", "Consulta": "2026-09-23", "Edicion_OSM": "2024-10-02T03:19:23Z", "Categoria": "tertiary", "OSM_ID": "way/1118550211", "OSM_URL": "https://www.openstreetmap.org/way/1118550211", "Geometria": "Geometría OSM recortada al área de consulta", "Licencia": "ODbL 1.0", "highway": "tertiary", "lanes": "1", "maxspeed": "60", "name": "Ruta 25", "old_ref": "25", "oneway": "yes", "surface": "asphalt"}, "geometry": {"type": "LineString", "coordinates": [[-69.3149851, -22.8847835], [-69.3148537, -22.8847075], [-69.3143508, -22.8843795], [-69.3141294, -22.8842177]]}}, {"type": "Feature", "id": "way/1118550212", "properties": {"Nombre": "Sin nombre · tertiary", "Fuente": "© OpenStreetMap contributors", "Estado": "Por verificar en terreno", "Consulta": "2026-09-23", "Edicion_OSM": "2024-10-02T03:19:23Z", "Categoria": "tertiary", "OSM_ID": "way/1118550212", "OSM_URL": "https://www.openstreetmap.org/way/1118550212", "Geometria": "Geometría OSM recortada al área de consulta", "Licencia": "ODbL 1.0", "highway": "tertiary", "lanes": "2", "maxspeed": "60", "official_name": "Cruce Ruta 5 (Carmen Alto) - Calama", "old_ref": "25", "oneway": "yes", "placement": "middle_of:2", "source:ref": "Vialidad", "surface": "asphalt", "turn:lanes": "merge_to_right|"}, "geometry": {"type": "LineString", "coordinates": [[-69.312783, -22.8830742], [-69.3136559, -22.8837428]]}}, {"type": "Feature", "id": "way/1118550213", "properties": {"Nombre": "Sin nombre · unclassified", "Fuente": "© OpenStreetMap contributors", "Estado": "Por verificar en terreno", "Consulta": "2026-09-23", "Edicion_OSM": "2024-07-14T08:04:53Z", "Categoria": "unclassified", "OSM_ID": "way/1118550213", "OSM_URL": "https://www.openstreetmap.org/way/1118550213", "Geometria": "Geometría OSM recortada al área de consulta", "Licencia": "ODbL 1.0", "highway": "unclassified", "lanes": "2", "maxheight": "8", "maxspeed": "60", "official_name": "Cruce Ruta 5 (Carmen Alto) - Calama", "old_ref": "25", "oneway": "yes", "placement": "middle_of:2", "source:ref": "Vialidad", "surface": "asphalt", "turn:lanes": "left|"}, "geometry": {"type": "LineString", "coordinates": [[-69.3117655, -22.882294], [-69.312783, -22.8830742]]}}, {"type": "Feature", "id": "way/1118550214", "properties": {"Nombre": "Ruta 25", "Fuente": "© OpenStreetMap contributors", "Estado": "Por verificar en terreno", "Consulta": "2026-09-23", "Edicion_OSM": "2024-07-14T08:04:53Z", "Categoria": "unclassified", "OSM_ID": "way/1118550214", "OSM_URL": "https://www.openstreetmap.org/way/1118550214", "Geometria": "Geometría OSM recortada al área de consulta", "Licencia": "ODbL 1.0", "highway": "unclassified", "lanes": "1", "maxspeed": "60", "name": "Ruta 25", "old_ref": "25", "oneway": "yes", "surface": "asphalt"}, "geometry": {"type": "LineString", "coordinates": [[-69.3105997, -22.8814413], [-69.3108954, -22.8816452], [-69.3112287, -22.8818824], [-69.3117655, -22.882294]]}}, {"type": "Feature", "id": "way/1118550215", "properties": {"Nombre": "Sin nombre · unclassified", "Fuente": "© OpenStreetMap contributors", "Estado": "Por verificar en terreno", "Consulta": "2026-09-23", "Edicion_OSM": "2024-07-14T08:04:53Z", "Categoria": "unclassified", "OSM_ID": "way/1118550215", "OSM_URL": "https://www.openstreetmap.org/way/1118550215", "Geometria": "Geometría OSM recortada al área de consulta", "Licencia": "ODbL 1.0", "highway": "unclassified", "lanes": "1", "maxspeed": "60", "official_name": "Cruce Ruta 5 (Carmen Alto) - Calama", "old_ref": "25", "oneway": "yes", "source:ref": "Vialidad", "surface": "asphalt"}, "geometry": {"type": "LineString", "coordinates": [[-69.3127196, -22.8831435], [-69.312551, -22.883008]]}}, {"type": "Feature", "id": "way/1118550216", "properties": {"Nombre": "Sin nombre · tertiary", "Fuente": "© OpenStreetMap contributors", "Estado": "Por verificar en terreno", "Consulta": "2026-09-23", "Edicion_OSM": "2024-10-02T03:19:23Z", "Categoria": "tertiary", "OSM_ID": "way/1118550216", "OSM_URL": "https://www.openstreetmap.org/way/1118550216", "Geometria": "Geometría OSM recortada al área de consulta", "Licencia": "ODbL 1.0", "highway": "tertiary", "lanes": "1", "maxspeed": "60", "official_name": "Cruce Ruta 5 (Carmen Alto) - Calama", "old_ref": "25", "oneway": "yes", "source:ref": "Vialidad", "surface": "asphalt"}, "geometry": {"type": "LineString", "coordinates": [[-69.3129261, -22.8833052], [-69.3127196, -22.8831435]]}}, {"type": "Feature", "id": "way/1118550217", "properties": {"Nombre": "Ruta 25", "Fuente": "© OpenStreetMap contributors", "Estado": "Por verificar en terreno", "Consulta": "2026-09-23", "Edicion_OSM": "2024-07-14T08:04:53Z", "Categoria": "unclassified", "OSM_ID": "way/1118550217", "OSM_URL": "https://www.openstreetmap.org/way/1118550217", "Geometria": "Geometría OSM recortada al área de consulta", "Licencia": "ODbL 1.0", "highway": "unclassified", "lanes": "1", "maxheight": "8", "maxspeed": "60", "name": "Ruta 25", "old_ref": "25", "oneway": "yes", "surface": "asphalt"}, "geometry": {"type": "LineString", "coordinates": [[-69.3121144, -22.8826736], [-69.3119462, -22.8825409], [-69.3111536, -22.8819145], [-69.3107432, -22.8815636], [-69.3105997, -22.8814413]]}}, {"type": "Feature", "id": "way/1118550218", "properties": {"Nombre": "Sin nombre · tertiary", "Fuente": "© OpenStreetMap contributors", "Estado": "Por verificar en terreno", "Consulta": "2026-09-23", "Edicion_OSM": "2024-10-02T03:19:23Z", "Categoria": "tertiary", "OSM_ID": "way/1118550218", "OSM_URL": "https://www.openstreetmap.org/way/1118550218", "Geometria": "Geometría OSM recortada al área de consulta", "Licencia": "ODbL 1.0", "highway": "tertiary", "lanes": "2", "maxspeed": "50", "oneway": "no", "surface": "asphalt"}, "geometry": {"type": "LineString", "coordinates": [[-69.312783, -22.8830742], [-69.3127573, -22.8831023], [-69.3127196, -22.8831435]]}}, {"type": "Feature", "id": "way/1118550219", "properties": {"Nombre": "Sin nombre · tertiary", "Fuente": "© OpenStreetMap contributors", "Estado": "Por verificar en terreno", "Consulta": "2026-09-23", "Edicion_OSM": "2024-10-02T03:19:23Z", "Categoria": "tertiary", "OSM_ID": "way/1118550219", "OSM_URL": "https://www.openstreetmap.org/way/1118550219", "Geometria": "Geometría OSM recortada al área de consulta", "Licencia": "ODbL 1.0", "highway": "tertiary", "lanes": "2", "maxspeed": "50", "oneway": "no", "surface": "asphalt"}, "geometry": {"type": "LineString", "coordinates": [[-69.3127196, -22.8831435], [-69.312693, -22.8831733], [-69.3125736, -22.8833066]]}}, {"type": "Feature", "id": "way/1125434841", "properties": {"Nombre": "Ruta 25", "Fuente": "© OpenStreetMap contributors", "Estado": "Por verificar en terreno", "Consulta": "2026-09-23", "Edicion_OSM": "2025-04-30T11:09:51Z", "Categoria": "motorway", "OSM_ID": "way/1125434841", "OSM_URL": "https://www.openstreetmap.org/way/1125434841", "Geometria": "Geometría OSM recortada al área de consulta", "Licencia": "ODbL 1.0", "highway": "motorway", "lanes": "2", "maxspeed": "120", "maxspeed:coach": "100", "maxspeed:hgv:conditional": "90 @ (weight>=3.86)", "maxspeed:psv:conditional": "90 @ (weight>=3.86)", "name": "Ruta 25", "official_name": "Cruce Ruta 5 (Carmen Alto) - Calama", "oneway": "yes", "operator": "Ruta del Loa Sociedad Concesionaria S.A.", "ref": "25", "source:ref": "Vialidad", "surface": "asphalt"}, "geometry": {"type": "LineString", "coordinates": [[-69.31549417997542, -22.903], [-69.315421, -22.9029312], [-69.3104938, -22.8984269], [-69.307133, -22.8953359], [-69.3035173, -22.8920001], [-69.3032936, -22.8917704], [-69.3030771, -22.8915347], [-69.3028682, -22.8912934], [-69.3027037, -22.8910927], [-69.3025443, -22.8908884], [-69.3023902, -22.8906807], [-69.302262, -22.8904921], [-69.3021415, -22.8902992], [-69.3020287, -22.8901024], [-69.302, -22.890047959791445]]}}, {"type": "Feature", "id": "way/1125434842", "properties": {"Nombre": "Santa María", "Fuente": "© OpenStreetMap contributors", "Estado": "Por verificar en terreno", "Consulta": "2026-09-23", "Edicion_OSM": "2022-12-29T19:58:46Z", "Categoria": "residential", "OSM_ID": "way/1125434842", "OSM_URL": "https://www.openstreetmap.org/way/1125434842", "Geometria": "Geometría OSM recortada al área de consulta", "Licencia": "ODbL 1.0", "highway": "residential", "lanes": "2", "lit": "yes", "maxspeed": "50", "name": "Santa María", "sidewalk": "both", "surface": "asphalt"}, "geometry": {"type": "LineString", "coordinates": [[-69.3201165, -22.8921622], [-69.3201644, -22.892116], [-69.3205, -22.8917928], [-69.3205327, -22.8917612], [-69.3205649, -22.8917302], [-69.3209708, -22.8913393], [-69.3210198, -22.8912921]]}}, {"type": "Feature", "id": "way/1125701640", "properties": {"Nombre": "Avenida Salvador Allende", "Fuente": "© OpenStreetMap contributors", "Estado": "Por verificar en terreno", "Consulta": "2026-09-23", "Edicion_OSM": "2024-10-02T03:19:23Z", "Categoria": "tertiary", "OSM_ID": "way/1125701640", "OSM_URL": "https://www.openstreetmap.org/way/1125701640", "Geometria": "Geometría OSM recortada al área de consulta", "Licencia": "ODbL 1.0", "highway": "tertiary", "lanes": "3", "lanes:backward": "1", "lit": "yes", "maxspeed": "30", "name": "Avenida Salvador Allende", "official_name": "Cruce Ruta 5 (Carmen Alto) - Calama", "old_ref": "25", "oneway": "no", "parking:lane:right": "parallel", "parking:lane:right:parallel": "street_side", "sidewalk": "both", "source:ref": "Vialidad", "surface": "asphalt"}, "geometry": {"type": "LineString", "coordinates": [[-69.3200574, -22.8904442], [-69.3200198, -22.8904111], [-69.3196085, -22.8900487], [-69.3195748, -22.890019]]}}, {"type": "Feature", "id": "way/1125701641", "properties": {"Nombre": "Sin nombre · tertiary", "Fuente": "© OpenStreetMap contributors", "Estado": "Por verificar en terreno", "Consulta": "2026-09-23", "Edicion_OSM": "2024-10-02T03:19:23Z", "Categoria": "tertiary", "OSM_ID": "way/1125701641", "OSM_URL": "https://www.openstreetmap.org/way/1125701641", "Geometria": "Geometría OSM recortada al área de consulta", "Licencia": "ODbL 1.0", "highway": "tertiary", "lanes": "2", "maxspeed": "50", "official_name": "Cruce Ruta 5 (Carmen Alto) - Calama", "old_ref": "25", "oneway": "no", "source:ref": "Vialidad", "surface": "asphalt"}, "geometry": {"type": "LineString", "coordinates": [[-69.3182762, -22.8888014], [-69.3174863, -22.8875647], [-69.3173876, -22.8874073], [-69.3172918, -22.8872546]]}}, {"type": "Feature", "id": "way/1125701642", "properties": {"Nombre": "Ruta 25", "Fuente": "© OpenStreetMap contributors", "Estado": "Por verificar en terreno", "Consulta": "2026-09-23", "Edicion_OSM": "2024-07-14T08:04:53Z", "Categoria": "unclassified", "OSM_ID": "way/1125701642", "OSM_URL": "https://www.openstreetmap.org/way/1125701642", "Geometria": "Geometría OSM recortada al área de consulta", "Licencia": "ODbL 1.0", "highway": "unclassified", "lanes": "2", "maxspeed": "60", "name": "Ruta 25", "old_ref": "25", "oneway": "no", "surface": "asphalt"}, "geometry": {"type": "LineString", "coordinates": [[-69.3105997, -22.8814413], [-69.3095349, -22.8805826], [-69.3093981, -22.8804726], [-69.3092398, -22.8803392]]}}, {"type": "Feature", "id": "way/1125701643", "properties": {"Nombre": "Caracoles", "Fuente": "© OpenStreetMap contributors", "Estado": "Por verificar en terreno", "Consulta": "2026-09-23", "Edicion_OSM": "2022-12-29T19:58:46Z", "Categoria": "residential", "OSM_ID": "way/1125701643", "OSM_URL": "https://www.openstreetmap.org/way/1125701643", "Geometria": "Geometría OSM recortada al área de consulta", "Licencia": "ODbL 1.0", "highway": "residential", "lanes": "2", "lit": "yes", "maxspeed": "50", "name": "Caracoles", "sidewalk": "both", "surface": "asphalt"}, "geometry": {"type": "LineString", "coordinates": [[-69.3197421, -22.8898578], [-69.3199297, -22.8896771]]}}, {"type": "Feature", "id": "way/1125701644", "properties": {"Nombre": "Caracoles", "Fuente": "© OpenStreetMap contributors", "Estado": "Por verificar en terreno", "Consulta": "2026-09-23", "Edicion_OSM": "2022-12-29T19:58:46Z", "Categoria": "residential", "OSM_ID": "way/1125701644", "OSM_URL": "https://www.openstreetmap.org/way/1125701644", "Geometria": "Geometría OSM recortada al área de consulta", "Licencia": "ODbL 1.0", "highway": "residential", "lanes": "2", "lit": "yes", "maxspeed": "50", "name": "Caracoles", "parking:lane:both": "perpendicular", "sidewalk": "both", "surface": "asphalt"}, "geometry": {"type": "LineString", "coordinates": [[-69.3195748, -22.890019], [-69.319611, -22.8899841], [-69.3196417, -22.8899545], [-69.3197421, -22.8898578]]}}, {"type": "Feature", "id": "way/1125701645", "properties": {"Nombre": "Avenida Salvador Allende", "Fuente": "© OpenStreetMap contributors", "Estado": "Por verificar en terreno", "Consulta": "2026-09-23", "Edicion_OSM": "2024-10-02T03:19:23Z", "Categoria": "tertiary", "OSM_ID": "way/1125701645", "OSM_URL": "https://www.openstreetmap.org/way/1125701645", "Geometria": "Geometría OSM recortada al área de consulta", "Licencia": "ODbL 1.0", "highway": "tertiary", "lanes": "3", "lanes:backward": "1", "lit": "yes", "maxspeed": "30", "name": "Avenida Salvador Allende", "official_name": "Cruce Ruta 5 (Carmen Alto) - Calama", "old_ref": "25", "oneway": "no", "parking:right": "street_side", "parking:right:orientation": "parallel", "sidewalk": "both", "source:ref": "Vialidad", "surface": "asphalt"}, "geometry": {"type": "LineString", "coordinates": [[-69.320569, -22.8908949], [-69.32051, -22.8908429], [-69.3200919, -22.8904746], [-69.3200574, -22.8904442]]}}, {"type": "Feature", "id": "way/1125701646", "properties": {"Nombre": "Avenida Salvador Allende", "Fuente": "© OpenStreetMap contributors", "Estado": "Por verificar en terreno", "Consulta": "2026-09-23", "Edicion_OSM": "2024-10-02T03:19:23Z", "Categoria": "tertiary", "OSM_ID": "way/1125701646", "OSM_URL": "https://www.openstreetmap.org/way/1125701646", "Geometria": "Geometría OSM recortada al área de consulta", "Licencia": "ODbL 1.0", "highway": "tertiary", "lanes": "3", "lanes:backward": "1", "lit": "yes", "maxspeed": "50", "name": "Avenida Salvador Allende", "official_name": "Cruce Ruta 5 (Carmen Alto) - Calama", "old_ref": "25", "oneway": "no", "parking:lane:right": "parallel", "parking:lane:right:parallel": "street_side", "sidewalk": "both", "source:ref": "Vialidad", "surface": "asphalt"}, "geometry": {"type": "LineString", "coordinates": [[-69.3195748, -22.890019], [-69.3195338, -22.8899829], [-69.3190775, -22.8895809], [-69.3184452, -22.8890139], [-69.31835, -22.8888978], [-69.3182762, -22.8888014]]}}, {"type": "Feature", "id": "way/1125701647", "properties": {"Nombre": "Sin nombre · tertiary", "Fuente": "© OpenStreetMap contributors", "Estado": "Por verificar en terreno", "Consulta": "2026-09-23", "Edicion_OSM": "2024-10-02T03:19:23Z", "Categoria": "tertiary", "OSM_ID": "way/1125701647", "OSM_URL": "https://www.openstreetmap.org/way/1125701647", "Geometria": "Geometría OSM recortada al área de consulta", "Licencia": "ODbL 1.0", "highway": "tertiary", "lanes": "2", "maxspeed": "50", "official_name": "Cruce Ruta 5 (Carmen Alto) - Calama", "old_ref": "25", "oneway": "no", "source:ref": "Vialidad", "surface": "asphalt"}, "geometry": {"type": "LineString", "coordinates": [[-69.3226325, -22.8926336], [-69.3217258, -22.8918888]]}}, {"type": "Feature", "id": "way/1125701648", "properties": {"Nombre": "Sin nombre · tertiary", "Fuente": "© OpenStreetMap contributors", "Estado": "Por verificar en terreno", "Consulta": "2026-09-23", "Edicion_OSM": "2024-10-02T03:19:23Z", "Categoria": "tertiary", "OSM_ID": "way/1125701648", "OSM_URL": "https://www.openstreetmap.org/way/1125701648", "Geometria": "Geometría OSM recortada al área de consulta", "Licencia": "ODbL 1.0", "highway": "tertiary", "lanes": "2", "maxspeed": "60", "official_name": "Cruce Ruta 5 (Carmen Alto) - Calama", "old_ref": "25", "oneway": "no", "source:ref": "Vialidad", "surface": "asphalt"}, "geometry": {"type": "LineString", "coordinates": [[-69.3240936, -22.8938402], [-69.3226325, -22.8926336]]}}, {"type": "Feature", "id": "way/1126701413", "properties": {"Nombre": "Sin nombre · unclassified", "Fuente": "© OpenStreetMap contributors", "Estado": "Por verificar en terreno", "Consulta": "2026-09-23", "Edicion_OSM": "2024-07-14T08:04:53Z", "Categoria": "unclassified", "OSM_ID": "way/1126701413", "OSM_URL": "https://www.openstreetmap.org/way/1126701413", "Geometria": "Geometría OSM recortada al área de consulta", "Licencia": "ODbL 1.0", "highway": "unclassified", "lanes": "2", "maxspeed": "100", "maxspeed:coach": "100", "maxspeed:hgv:conditional": "90 @ (weight>=3.86)", "maxspeed:psv:conditional": "90 @ (weight>=3.86)", "old_ref": "25", "oneway": "no", "surface": "asphalt"}, "geometry": {"type": "LineString", "coordinates": [[-69.3092398, -22.8803392], [-69.3091044, -22.8802075], [-69.308973, -22.8800723], [-69.308812, -22.8798956], [-69.3085197, -22.879515], [-69.30816208068302, -22.879]]}}, {"type": "Feature", "id": "way/1126701429", "properties": {"Nombre": "Jaime Guzmán", "Fuente": "© OpenStreetMap contributors", "Estado": "Por verificar en terreno", "Consulta": "2026-09-23", "Edicion_OSM": "2023-01-03T14:47:10Z", "Categoria": "residential", "OSM_ID": "way/1126701429", "OSM_URL": "https://www.openstreetmap.org/way/1126701429", "Geometria": "Geometría OSM recortada al área de consulta", "Licencia": "ODbL 1.0", "highway": "residential", "lanes": "2", "name": "Jaime Guzmán", "old_name": "Calle C", "surface": "asphalt"}, "geometry": {"type": "LineString", "coordinates": [[-69.3217258, -22.8918888], [-69.3216663, -22.8919468], [-69.3212282, -22.8923741], [-69.3208148, -22.8927774], [-69.3204622, -22.8931214]]}}, {"type": "Feature", "id": "way/1182134846", "properties": {"Nombre": "Sin nombre · tertiary", "Fuente": "© OpenStreetMap contributors", "Estado": "Por verificar en terreno", "Consulta": "2026-09-23", "Edicion_OSM": "2024-11-06T18:41:06Z", "Categoria": "tertiary", "OSM_ID": "way/1182134846", "OSM_URL": "https://www.openstreetmap.org/way/1182134846", "Geometria": "Geometría OSM recortada al área de consulta", "Licencia": "ODbL 1.0", "highway": "tertiary", "lanes": "2", "maxspeed": "60", "surface": "asphalt"}, "geometry": {"type": "LineString", "coordinates": [[-69.302, -22.886280568598032], [-69.3020238, -22.8862703], [-69.3020604, -22.8862546], [-69.3033135, -22.8857139], [-69.3034372, -22.8856654], [-69.3035646, -22.8856257], [-69.3036949, -22.8855952], [-69.3038274, -22.8855738], [-69.3039612, -22.8855619], [-69.3040958, -22.8855594], [-69.3042302, -22.8855664], [-69.3043636, -22.8855829], [-69.3073412, -22.8862266], [-69.3082112, -22.8863983], [-69.3083527, -22.8864194], [-69.3084952, -22.8864326], [-69.3086384, -22.8864381], [-69.3087817, -22.8864358], [-69.3089246, -22.8864256], [-69.3090665, -22.8864077], [-69.3092071, -22.8863821], [-69.3093458, -22.8863489], [-69.3094859, -22.886307], [-69.3096231, -22.8862572], [-69.3097566, -22.8861999], [-69.3098862, -22.8861352], [-69.3100112, -22.8860633], [-69.3101313, -22.8859846], [-69.3102459, -22.8858993], [-69.3103547, -22.8858077], [-69.3104573, -22.8857102]]}}, {"type": "Feature", "id": "way/1210694172", "properties": {"Nombre": "Sin nombre · tertiary", "Fuente": "© OpenStreetMap contributors", "Estado": "Por verificar en terreno", "Consulta": "2026-09-23", "Edicion_OSM": "2025-09-10T05:54:17Z", "Categoria": "tertiary", "OSM_ID": "way/1210694172", "OSM_URL": "https://www.openstreetmap.org/way/1210694172", "Geometria": "Geometría OSM recortada al área de consulta", "Licencia": "ODbL 1.0", "highway": "tertiary", "oneway": "yes"}, "geometry": {"type": "LineString", "coordinates": [[-69.3189346, -22.8886792], [-69.3188491, -22.8886531], [-69.3187644, -22.8886272], [-69.3187201, -22.8886124], [-69.3186839, -22.8886112], [-69.3185551, -22.8886334], [-69.3184492, -22.8886507], [-69.3183808, -22.8886445], [-69.3183312, -22.8886272], [-69.3182682, -22.8885852], [-69.3182454, -22.8885519], [-69.3182293, -22.8884987], [-69.3182333, -22.8884543], [-69.3182467, -22.8884135], [-69.3182775, -22.8883752], [-69.3183191, -22.8883554], [-69.3183808, -22.8883492], [-69.3184519, -22.8883542], [-69.3185283, -22.8883764], [-69.3186168, -22.8884258], [-69.3186628, -22.8884532], [-69.3187323, -22.8884947], [-69.3188944, -22.8886359], [-69.3189346, -22.8886792]]}}, {"type": "Feature", "id": "way/1210694173", "properties": {"Nombre": "Sin nombre · service", "Fuente": "© OpenStreetMap contributors", "Estado": "Por verificar en terreno", "Consulta": "2026-09-23", "Edicion_OSM": "2026-09-09T03:05:08Z", "Categoria": "service", "OSM_ID": "way/1210694173", "OSM_URL": "https://www.openstreetmap.org/way/1210694173", "Geometria": "Geometría OSM recortada al área de consulta", "Licencia": "ODbL 1.0", "highway": "service"}, "geometry": {"type": "LineString", "coordinates": [[-69.3209034, -22.8877525], [-69.3207197, -22.8877092], [-69.3205896, -22.8877265], [-69.3202516, -22.8878266], [-69.3200505, -22.8878229], [-69.3196682, -22.8877232], [-69.3195409, -22.8877117]]}}, {"type": "Feature", "id": "way/1283349279", "properties": {"Nombre": "Sin nombre · track", "Fuente": "© OpenStreetMap contributors", "Estado": "Por verificar en terreno", "Consulta": "2026-09-23", "Edicion_OSM": "2024-07-14T08:04:57Z", "Categoria": "track", "OSM_ID": "way/1283349279", "OSM_URL": "https://www.openstreetmap.org/way/1283349279", "Geometria": "Geometría OSM recortada al área de consulta", "Licencia": "ODbL 1.0", "highway": "track", "surface": "unpaved"}, "geometry": {"type": "LineString", "coordinates": [[-69.3071841, -22.8872726], [-69.3073412, -22.8862266]]}}, {"type": "Feature", "id": "way/1283349280", "properties": {"Nombre": "Sin nombre · track", "Fuente": "© OpenStreetMap contributors", "Estado": "Por verificar en terreno", "Consulta": "2026-09-23", "Edicion_OSM": "2024-07-14T08:04:57Z", "Categoria": "track", "OSM_ID": "way/1283349280", "OSM_URL": "https://www.openstreetmap.org/way/1283349280", "Geometria": "Geometría OSM recortada al área de consulta", "Licencia": "ODbL 1.0", "highway": "track", "lanes": "2", "maxspeed": "50", "surface": "asphalt"}, "geometry": {"type": "LineString", "coordinates": [[-69.302128, -22.8908141], [-69.302, -22.89087495631456]]}}, {"type": "Feature", "id": "way/1283349281", "properties": {"Nombre": "Sin nombre · tertiary", "Fuente": "© OpenStreetMap contributors", "Estado": "Por verificar en terreno", "Consulta": "2026-09-23", "Edicion_OSM": "2024-10-02T03:19:23Z", "Categoria": "tertiary", "OSM_ID": "way/1283349281", "OSM_URL": "https://www.openstreetmap.org/way/1283349281", "Geometria": "Geometría OSM recortada al área de consulta", "Licencia": "ODbL 1.0", "highway": "tertiary", "lanes": "2", "maxspeed": "60", "surface": "asphalt"}, "geometry": {"type": "LineString", "coordinates": [[-69.3122882, -22.8836283], [-69.3119891, -22.8839631], [-69.3104573, -22.8857102]]}}, {"type": "Feature", "id": "way/1287732995", "properties": {"Nombre": "Sin nombre · tertiary", "Fuente": "© OpenStreetMap contributors", "Estado": "Por verificar en terreno", "Consulta": "2026-09-23", "Edicion_OSM": "2024-10-02T03:19:23Z", "Categoria": "tertiary", "OSM_ID": "way/1287732995", "OSM_URL": "https://www.openstreetmap.org/way/1287732995", "Geometria": "Geometría OSM recortada al área de consulta", "Licencia": "ODbL 1.0", "highway": "tertiary", "lanes": "2", "maxspeed": "100", "maxspeed:coach": "100", "maxspeed:hgv:conditional": "90 @ (weight>=3.86)", "maxspeed:psv:conditional": "90 @ (weight>=3.86)", "official_name": "Cruce Ruta 5 (Carmen Alto) - Calama", "old_ref": "25", "oneway": "no", "source:ref": "Vialidad", "surface": "asphalt"}, "geometry": {"type": "LineString", "coordinates": [[-69.33138949042949, -22.903], [-69.3264368, -22.8962081], [-69.3262212, -22.8959111], [-69.3260932, -22.895734], [-69.3259589, -22.8955609], [-69.3258186, -22.8953919], [-69.3256724, -22.8952272], [-69.3255149, -22.8950613], [-69.3253514, -22.8949005], [-69.3251821, -22.8947449], [-69.3250072, -22.8945946], [-69.3240936, -22.8938402]]}}, {"type": "Feature", "id": "way/1301161170", "properties": {"Nombre": "Sin nombre · track", "Fuente": "© OpenStreetMap contributors", "Estado": "Por verificar en terreno", "Consulta": "2026-09-23", "Edicion_OSM": "2024-07-13T19:41:10Z", "Categoria": "track", "OSM_ID": "way/1301161170", "OSM_URL": "https://www.openstreetmap.org/way/1301161170", "Geometria": "Geometría OSM recortada al área de consulta", "Licencia": "ODbL 1.0", "highway": "track", "surface": "ground"}, "geometry": {"type": "LineString", "coordinates": [[-69.3137142, -22.9002762], [-69.3144717, -22.8990485], [-69.3150774, -22.8980903], [-69.3153536, -22.897643]]}}, {"type": "Feature", "id": "way/1301161171", "properties": {"Nombre": "Sin nombre · service", "Fuente": "© OpenStreetMap contributors", "Estado": "Por verificar en terreno", "Consulta": "2026-09-23", "Edicion_OSM": "2024-07-13T19:41:10Z", "Categoria": "service", "OSM_ID": "way/1301161171", "OSM_URL": "https://www.openstreetmap.org/way/1301161171", "Geometria": "Geometría OSM recortada al área de consulta", "Licencia": "ODbL 1.0", "highway": "service", "surface": "unpaved"}, "geometry": {"type": "LineString", "coordinates": [[-69.3104938, -22.8984269], [-69.3103704, -22.8985307], [-69.3100162, -22.8988069], [-69.3096903, -22.8990441]]}}, {"type": "Feature", "id": "way/1301257495", "properties": {"Nombre": "Ruta B-229", "Fuente": "© OpenStreetMap contributors", "Estado": "Por verificar en terreno", "Consulta": "2026-09-23", "Edicion_OSM": "2024-07-14T08:04:53Z", "Categoria": "track", "OSM_ID": "way/1301257495", "OSM_URL": "https://www.openstreetmap.org/way/1301257495", "Geometria": "Geometría OSM recortada al área de consulta", "Licencia": "ODbL 1.0", "highway": "track", "name": "Ruta B-229", "official_name": "Cruce Ruta 25 (Sierra Gorda) - Cerro Caracoles", "ref": "B-229", "source:ref": "Vialidad", "surface": "unpaved"}, "geometry": {"type": "LineString", "coordinates": [[-69.3065992, -22.8905694], [-69.3065348, -22.8906658], [-69.30617, -22.8909426], [-69.3058348, -22.8911501], [-69.3054137, -22.8913404], [-69.3050677, -22.891417], [-69.3045098, -22.8915282], [-69.3038929, -22.8916344]]}}, {"type": "Feature", "id": "way/1301257499", "properties": {"Nombre": "Sin nombre · track", "Fuente": "© OpenStreetMap contributors", "Estado": "Por verificar en terreno", "Consulta": "2026-09-23", "Edicion_OSM": "2024-07-14T08:04:53Z", "Categoria": "track", "OSM_ID": "way/1301257499", "OSM_URL": "https://www.openstreetmap.org/way/1301257499", "Geometria": "Geometría OSM recortada al área de consulta", "Licencia": "ODbL 1.0", "highway": "track", "lanes": "2", "maxspeed": "50", "surface": "asphalt"}, "geometry": {"type": "LineString", "coordinates": [[-69.3065174, -22.8887051], [-69.3028602, -22.8904582]]}}, {"type": "Feature", "id": "way/1331445563", "properties": {"Nombre": "Sin nombre · motorway_link", "Fuente": "© OpenStreetMap contributors", "Estado": "Por verificar en terreno", "Consulta": "2026-09-23", "Edicion_OSM": "2024-11-06T18:41:06Z", "Categoria": "motorway_link", "OSM_ID": "way/1331445563", "OSM_URL": "https://www.openstreetmap.org/way/1331445563", "Geometria": "Geometría OSM recortada al área de consulta", "Licencia": "ODbL 1.0", "highway": "motorway_link", "oneway": "yes"}, "geometry": {"type": "LineString", "coordinates": [[-69.302, -22.886269592508917], [-69.3020238, -22.8862703]]}}, {"type": "Feature", "id": "way/1331445564", "properties": {"Nombre": "Sin nombre · motorway_link", "Fuente": "© OpenStreetMap contributors", "Estado": "Por verificar en terreno", "Consulta": "2026-09-23", "Edicion_OSM": "2024-11-06T18:41:06Z", "Categoria": "motorway_link", "OSM_ID": "way/1331445564", "OSM_URL": "https://www.openstreetmap.org/way/1331445564", "Geometria": "Geometría OSM recortada al área de consulta", "Licencia": "ODbL 1.0", "highway": "motorway_link", "oneway": "yes"}, "geometry": {"type": "LineString", "coordinates": [[-69.3020604, -22.8862546], [-69.3020126, -22.8862918], [-69.302, -22.88630232427745]]}}, {"type": "Feature", "id": "way/1557242812", "properties": {"Nombre": "Sin nombre · track", "Fuente": "© OpenStreetMap contributors", "Estado": "Por verificar en terreno", "Consulta": "2026-09-23", "Edicion_OSM": "2026-09-09T03:05:08Z", "Categoria": "track", "OSM_ID": "way/1557242812", "OSM_URL": "https://www.openstreetmap.org/way/1557242812", "Geometria": "Geometría OSM recortada al área de consulta", "Licencia": "ODbL 1.0", "highway": "track"}, "geometry": {"type": "LineString", "coordinates": [[-69.3232218, -22.8871891], [-69.323017, -22.8871965], [-69.3227971, -22.8871866], [-69.3225771, -22.887236], [-69.3222123, -22.8872855], [-69.3218529, -22.8872953], [-69.3214184, -22.8873299], [-69.3211073, -22.8873645], [-69.3209128, -22.8873905], [-69.3204863, -22.8874485], [-69.3203656, -22.8874844], [-69.3202235, -22.8875289], [-69.3200478, -22.8875733], [-69.319793, -22.8876536], [-69.3196682, -22.8877232]]}}]}