{"type": "FeatureCollection", "name": "Edificios cartografiados", "bbox": [-69.335, -22.903, -69.302, -22.879], "source": "https://www.openstreetmap.org/copyright", "license": "ODbL-1.0", "snapshot": "2026-09-23T23:18:34Z", "features": [{"type": "Feature", "id": "way/170936317", "properties": {"Nombre": "Sin nombre · train_station", "Fuente": "© OpenStreetMap contributors", "Estado": "Por verificar en terreno", "Consulta": "2026-09-23", "Edicion_OSM": "2024-01-26T14:09:22Z", "Categoria": "train_station", "OSM_ID": "way/170936317", "OSM_URL": "https://www.openstreetmap.org/way/170936317", "Geometria": "Geometría OSM recortada al área de consulta", "Licencia": "ODbL 1.0", "building": "train_station"}, "geometry": {"type": "Polygon", "coordinates": [[[-69.3205271, -22.8898685], [-69.3202513, -22.8896387], [-69.3201952, -22.8896959], [-69.3204709, -22.8899257], [-69.3205271, -22.8898685]]]}}, {"type": "Feature", "id": "way/170936318", "properties": {"Nombre": "Sin nombre · yes", "Fuente": "© OpenStreetMap contributors", "Estado": "Por verificar en terreno", "Consulta": "2026-09-23", "Edicion_OSM": "2012-07-10T15:52:04Z", "Categoria": "yes", "OSM_ID": "way/170936318", "OSM_URL": "https://www.openstreetmap.org/way/170936318", "Geometria": "Geometría OSM recortada al área de consulta", "Licencia": "ODbL 1.0", "building": "yes"}, "geometry": {"type": "Polygon", "coordinates": [[[-69.3173711, -22.8915512], [-69.3173336, -22.8915751], [-69.3173754, -22.8916309], [-69.3174129, -22.8916071], [-69.3173711, -22.8915512]]]}}, {"type": "Feature", "id": "way/170936321", "properties": {"Nombre": "Sin nombre · yes", "Fuente": "© OpenStreetMap contributors", "Estado": "Por verificar en terreno", "Consulta": "2026-09-23", "Edicion_OSM": "2012-07-10T15:52:04Z", "Categoria": "yes", "OSM_ID": "way/170936321", "OSM_URL": "https://www.openstreetmap.org/way/170936321", "Geometria": "Geometría OSM recortada al área de consulta", "Licencia": "ODbL 1.0", "building": "yes"}, "geometry": {"type": "Polygon", "coordinates": [[[-69.3173754, -22.8916309], [-69.3173336, -22.8915751], [-69.3173236, -22.8915621], [-69.3170451, -22.8917458], [-69.3170564, -22.8917597], [-69.3171032, -22.8918207], [-69.3173819, -22.891637], [-69.3173754, -22.8916309]]]}}, {"type": "Feature", "id": "way/170936324", "properties": {"Nombre": "Sin nombre · yes", "Fuente": "© OpenStreetMap contributors", "Estado": "Por verificar en terreno", "Consulta": "2026-09-23", "Edicion_OSM": "2012-07-10T15:52:05Z", "Categoria": "yes", "OSM_ID": "way/170936324", "OSM_URL": "https://www.openstreetmap.org/way/170936324", "Geometria": "Geometría OSM recortada al área de consulta", "Licencia": "ODbL 1.0", "building": "yes"}, "geometry": {"type": "Polygon", "coordinates": [[[-69.3170567, -22.8918509], [-69.3171032, -22.8918207], [-69.3170564, -22.8917597], [-69.31701, -22.8917898], [-69.3170567, -22.8918509]]]}}, {"type": "Feature", "id": "way/170936329", "properties": {"Nombre": "Sin nombre · yes", "Fuente": "© OpenStreetMap contributors", "Estado": "Por verificar en terreno", "Consulta": "2026-09-23", "Edicion_OSM": "2012-07-10T15:52:05Z", "Categoria": "yes", "OSM_ID": "way/170936329", "OSM_URL": "https://www.openstreetmap.org/way/170936329", "Geometria": "Geometría OSM recortada al área de consulta", "Licencia": "ODbL 1.0", "building": "yes"}, "geometry": {"type": "Polygon", "coordinates": [[[-69.3204259, -22.8912513], [-69.3203358, -22.8913412], [-69.3205172, -22.8914954], [-69.3206072, -22.8914055], [-69.3204259, -22.8912513]]]}}, {"type": "Feature", "id": "way/369688404", "properties": {"Nombre": "Sin nombre · yes", "Fuente": "© OpenStreetMap contributors", "Estado": "Por verificar en terreno", "Consulta": "2026-09-23", "Edicion_OSM": "2015-09-08T14:24:14Z", "Categoria": "yes", "OSM_ID": "way/369688404", "OSM_URL": "https://www.openstreetmap.org/way/369688404", "Geometria": "Geometría OSM recortada al área de consulta", "Licencia": "ODbL 1.0", "building": "yes"}, "geometry": {"type": "Polygon", "coordinates": [[[-69.3175616, -22.891878], [-69.3175061, -22.8918425], [-69.3174091, -22.8918297], [-69.3172951, -22.8918467], [-69.3171857, -22.8918865], [-69.3170917, -22.8919574], [-69.3169978, -22.892071], [-69.3170871, -22.8921746], [-69.3175616, -22.891878]]]}}, {"type": "Feature", "id": "way/369688633", "properties": {"Nombre": "Sin nombre · yes", "Fuente": "© OpenStreetMap contributors", "Estado": "Por verificar en terreno", "Consulta": "2026-09-23", "Edicion_OSM": "2015-09-08T14:29:26Z", "Categoria": "yes", "OSM_ID": "way/369688633", "OSM_URL": "https://www.openstreetmap.org/way/369688633", "Geometria": "Geometría OSM recortada al área de consulta", "Licencia": "ODbL 1.0", "building": "yes"}, "geometry": {"type": "Polygon", "coordinates": [[[-69.3196928, -22.8906649], [-69.3198703, -22.8904907], [-69.319687, -22.8903239], [-69.3196157, -22.8903928], [-69.3197278, -22.8904939], [-69.3196204, -22.8906004], [-69.3196928, -22.8906649]]]}}, {"type": "Feature", "id": "way/738631427", "properties": {"Nombre": "Posta de Salud Rural PSR de Sierra Gorda", "Fuente": "© OpenStreetMap contributors", "Estado": "Por verificar en terreno", "Consulta": "2026-09-23", "Edicion_OSM": "2023-12-23T15:19:03Z", "Categoria": "doctors", "OSM_ID": "way/738631427", "OSM_URL": "https://www.openstreetmap.org/way/738631427", "Geometria": "Geometría OSM recortada al área de consulta", "Licencia": "ODbL 1.0", "addr:city": "Sierra Gorda", "addr:country": "CL", "addr:housenumber": "211", "addr:street": "Avenida Salvador Allende", "amenity": "doctors", "building": "yes", "healthcare": "clinic", "name": "Posta de Salud Rural PSR de Sierra Gorda"}, "geometry": {"type": "Polygon", "coordinates": [[[-69.3210582, -22.8906737], [-69.320919, -22.8908111], [-69.3209761, -22.8908601], [-69.3210189, -22.8908178], [-69.3210284, -22.8908259], [-69.3210558, -22.8907988], [-69.3210492, -22.8907931], [-69.3210758, -22.8907669], [-69.3211144, -22.8908], [-69.3211567, -22.8907583], [-69.3210582, -22.8906737]]]}}, {"type": "Feature", "id": "way/738636233", "properties": {"Nombre": "Reten Sierra Gorda", "Fuente": "© OpenStreetMap contributors", "Estado": "Por verificar en terreno", "Consulta": "2026-09-23", "Edicion_OSM": "2024-03-25T21:31:02Z", "Categoria": "police", "OSM_ID": "way/738636233", "OSM_URL": "https://www.openstreetmap.org/way/738636233", "Geometria": "Geometría OSM recortada al área de consulta", "Licencia": "ODbL 1.0", "addr:city": "Sierra Gorda", "addr:country": "CL", "addr:housenumber": "200", "addr:street": "Avenida Salvador Allende", "amenity": "police", "building": "yes", "name": "Reten Sierra Gorda", "note": "Correcciones masivas a ortografía en nombres de importaciones hechas por equipo de gendarmería", "operator": "Retén Sierra Gorda"}, "geometry": {"type": "Polygon", "coordinates": [[[-69.320683, -22.8913902], [-69.3207405, -22.8914399], [-69.3208613, -22.8913213], [-69.3208038, -22.8912716], [-69.320683, -22.8913902]]]}}, {"type": "Feature", "id": "way/823595070", "properties": {"Nombre": "Sin nombre · yes", "Fuente": "© OpenStreetMap contributors", "Estado": "Por verificar en terreno", "Consulta": "2026-09-23", "Edicion_OSM": "2020-07-06T21:57:08Z", "Categoria": "yes", "OSM_ID": "way/823595070", "OSM_URL": "https://www.openstreetmap.org/way/823595070", "Geometria": "Geometría OSM recortada al área de consulta", "Licencia": "ODbL 1.0", "building": "yes"}, "geometry": {"type": "Polygon", "coordinates": [[[-69.3197924, -22.8923886], [-69.319667, -22.8925065], [-69.3197186, -22.892553], [-69.3198439, -22.892435], [-69.3197924, -22.8923886]]]}}, {"type": "Feature", "id": "way/823595071", "properties": {"Nombre": "Sin nombre · yes", "Fuente": "© OpenStreetMap contributors", "Estado": "Por verificar en terreno", "Consulta": "2026-09-23", "Edicion_OSM": "2020-07-06T21:57:08Z", "Categoria": "yes", "OSM_ID": "way/823595071", "OSM_URL": "https://www.openstreetmap.org/way/823595071", "Geometria": "Geometría OSM recortada al área de consulta", "Licencia": "ODbL 1.0", "building": "yes"}, "geometry": {"type": "Polygon", "coordinates": [[[-69.3205394, -22.8884502], [-69.3205163, -22.8885577], [-69.3205868, -22.8885705], [-69.3206099, -22.888463], [-69.3206285, -22.8884664], [-69.3206442, -22.8883933], [-69.3206669, -22.8883974], [-69.3206897, -22.8882912], [-69.3206279, -22.8882799], [-69.3206051, -22.8883862], [-69.3205857, -22.8883826], [-69.32057, -22.8884558], [-69.3205394, -22.8884502]]]}}, {"type": "Feature", "id": "way/823595072", "properties": {"Nombre": "Sin nombre · yes", "Fuente": "© OpenStreetMap contributors", "Estado": "Por verificar en terreno", "Consulta": "2026-09-23", "Edicion_OSM": "2020-07-06T21:57:08Z", "Categoria": "yes", "OSM_ID": "way/823595072", "OSM_URL": "https://www.openstreetmap.org/way/823595072", "Geometria": "Geometría OSM recortada al área de consulta", "Licencia": "ODbL 1.0", "building": "yes"}, "geometry": {"type": "Polygon", "coordinates": [[[-69.3206192, -22.8885287], [-69.3205961, -22.8886362], [-69.3206666, -22.888649], [-69.3206896, -22.8885415], [-69.3207083, -22.8885449], [-69.320724, -22.8884717], [-69.3207467, -22.8884759], [-69.3207695, -22.8883696], [-69.3207077, -22.8883584], [-69.3206849, -22.8884646], [-69.3206655, -22.8884611], [-69.3206498, -22.8885342], [-69.3206192, -22.8885287]]]}}, {"type": "Feature", "id": "way/823595073", "properties": {"Nombre": "Sin nombre · yes", "Fuente": "© OpenStreetMap contributors", "Estado": "Por verificar en terreno", "Consulta": "2026-09-23", "Edicion_OSM": "2020-07-06T21:57:08Z", "Categoria": "yes", "OSM_ID": "way/823595073", "OSM_URL": "https://www.openstreetmap.org/way/823595073", "Geometria": "Geometría OSM recortada al área de consulta", "Licencia": "ODbL 1.0", "building": "yes"}, "geometry": {"type": "Polygon", "coordinates": [[[-69.320699, -22.8886022], [-69.3206759, -22.8887097], [-69.3207464, -22.8887225], [-69.3207694, -22.888615], [-69.3207881, -22.8886184], [-69.3208038, -22.8885452], [-69.3208265, -22.8885494], [-69.3208493, -22.8884431], [-69.3207875, -22.8884319], [-69.3207647, -22.8885381], [-69.3207453, -22.8885346], [-69.3207296, -22.8886078], [-69.320699, -22.8886022]]]}}, {"type": "Feature", "id": "way/823595074", "properties": {"Nombre": "Sin nombre · yes", "Fuente": "© OpenStreetMap contributors", "Estado": "Por verificar en terreno", "Consulta": "2026-09-23", "Edicion_OSM": "2020-07-06T21:57:08Z", "Categoria": "yes", "OSM_ID": "way/823595074", "OSM_URL": "https://www.openstreetmap.org/way/823595074", "Geometria": "Geometría OSM recortada al área de consulta", "Licencia": "ODbL 1.0", "building": "yes"}, "geometry": {"type": "Polygon", "coordinates": [[[-69.3207741, -22.8886757], [-69.320751, -22.8887832], [-69.3208215, -22.888796], [-69.3208445, -22.8886885], [-69.3208632, -22.8886919], [-69.3208789, -22.8886188], [-69.3209016, -22.8886229], [-69.3209244, -22.8885166], [-69.3208626, -22.8885054], [-69.3208398, -22.8886116], [-69.3208204, -22.8886081], [-69.3208047, -22.8886813], [-69.3207741, -22.8886757]]]}}, {"type": "Feature", "id": "way/823595075", "properties": {"Nombre": "Sin nombre · yes", "Fuente": "© OpenStreetMap contributors", "Estado": "Por verificar en terreno", "Consulta": "2026-09-23", "Edicion_OSM": "2020-07-06T21:57:08Z", "Categoria": "yes", "OSM_ID": "way/823595075", "OSM_URL": "https://www.openstreetmap.org/way/823595075", "Geometria": "Geometría OSM recortada al área de consulta", "Licencia": "ODbL 1.0", "building": "yes"}, "geometry": {"type": "Polygon", "coordinates": [[[-69.3208512, -22.8887517], [-69.3208282, -22.8888592], [-69.3208986, -22.888872], [-69.3209217, -22.8887645], [-69.3209403, -22.8887679], [-69.320956, -22.8886947], [-69.3209787, -22.8886989], [-69.3210015, -22.8885926], [-69.3209397, -22.8885814], [-69.3209169, -22.8886876], [-69.3208975, -22.8886841], [-69.3208818, -22.8887573], [-69.3208512, -22.8887517]]]}}, {"type": "Feature", "id": "way/823595076", "properties": {"Nombre": "Sin nombre · yes", "Fuente": "© OpenStreetMap contributors", "Estado": "Por verificar en terreno", "Consulta": "2026-09-23", "Edicion_OSM": "2020-07-06T21:57:08Z", "Categoria": "yes", "OSM_ID": "way/823595076", "OSM_URL": "https://www.openstreetmap.org/way/823595076", "Geometria": "Geometría OSM recortada al área de consulta", "Licencia": "ODbL 1.0", "building": "yes"}, "geometry": {"type": "Polygon", "coordinates": [[[-69.320931, -22.888824], [-69.3209079, -22.8889315], [-69.3209784, -22.8889443], [-69.3210015, -22.8888368], [-69.3210201, -22.8888402], [-69.3210358, -22.888767], [-69.3210585, -22.8887711], [-69.3210813, -22.8886649], [-69.3210195, -22.8886536], [-69.3209967, -22.8887599], [-69.3209773, -22.8887564], [-69.3209616, -22.8888295], [-69.320931, -22.888824]]]}}, {"type": "Feature", "id": "way/823595077", "properties": {"Nombre": "Sin nombre · yes", "Fuente": "© OpenStreetMap contributors", "Estado": "Por verificar en terreno", "Consulta": "2026-09-23", "Edicion_OSM": "2020-07-06T21:57:08Z", "Categoria": "yes", "OSM_ID": "way/823595077", "OSM_URL": "https://www.openstreetmap.org/way/823595077", "Geometria": "Geometría OSM recortada al área de consulta", "Licencia": "ODbL 1.0", "building": "yes"}, "geometry": {"type": "Polygon", "coordinates": [[[-69.3210066, -22.8889024], [-69.3209836, -22.8890099], [-69.321054, -22.8890228], [-69.3210771, -22.8889153], [-69.3210957, -22.8889186], [-69.3211114, -22.8888455], [-69.3211341, -22.8888496], [-69.3211569, -22.8887434], [-69.3210951, -22.8887321], [-69.3210723, -22.8888384], [-69.3210529, -22.8888348], [-69.3210372, -22.888908], [-69.3210066, -22.8889024]]]}}, {"type": "Feature", "id": "way/823595078", "properties": {"Nombre": "Sin nombre · yes", "Fuente": "© OpenStreetMap contributors", "Estado": "Por verificar en terreno", "Consulta": "2026-09-23", "Edicion_OSM": "2020-07-06T21:57:08Z", "Categoria": "yes", "OSM_ID": "way/823595078", "OSM_URL": "https://www.openstreetmap.org/way/823595078", "Geometria": "Geometría OSM recortada al área de consulta", "Licencia": "ODbL 1.0", "building": "yes"}, "geometry": {"type": "Polygon", "coordinates": [[[-69.3204434, -22.888626], [-69.3204122, -22.8886546], [-69.3203027, -22.8885533], [-69.3201985, -22.8886488], [-69.3205567, -22.8889806], [-69.3206922, -22.8888564], [-69.3204434, -22.888626]]]}}, {"type": "Feature", "id": "way/823595079", "properties": {"Nombre": "Sin nombre · yes", "Fuente": "© OpenStreetMap contributors", "Estado": "Por verificar en terreno", "Consulta": "2026-09-23", "Edicion_OSM": "2020-07-06T21:57:08Z", "Categoria": "yes", "OSM_ID": "way/823595079", "OSM_URL": "https://www.openstreetmap.org/way/823595079", "Geometria": "Geometría OSM recortada al área de consulta", "Licencia": "ODbL 1.0", "building": "yes"}, "geometry": {"type": "Polygon", "coordinates": [[[-69.3206626, -22.8890137], [-69.3206012, -22.8890666], [-69.3207922, -22.8892547], [-69.3208536, -22.8892018], [-69.3206626, -22.8890137]]]}}, {"type": "Feature", "id": "way/823595080", "properties": {"Nombre": "Sin nombre · yes", "Fuente": "© OpenStreetMap contributors", "Estado": "Por verificar en terreno", "Consulta": "2026-09-23", "Edicion_OSM": "2020-07-06T21:57:08Z", "Categoria": "yes", "OSM_ID": "way/823595080", "OSM_URL": "https://www.openstreetmap.org/way/823595080", "Geometria": "Geometría OSM recortada al área de consulta", "Licencia": "ODbL 1.0", "building": "yes"}, "geometry": {"type": "Polygon", "coordinates": [[[-69.320876, -22.8892227], [-69.3208176, -22.8892753], [-69.3208779, -22.8893321], [-69.3209363, -22.8892796], [-69.320876, -22.8892227]]]}}, {"type": "Feature", "id": "way/823595081", "properties": {"Nombre": "Sin nombre · yes", "Fuente": "© OpenStreetMap contributors", "Estado": "Por verificar en terreno", "Consulta": "2026-09-23", "Edicion_OSM": "2020-07-06T21:57:08Z", "Categoria": "yes", "OSM_ID": "way/823595081", "OSM_URL": "https://www.openstreetmap.org/way/823595081", "Geometria": "Geometría OSM recortada al área de consulta", "Licencia": "ODbL 1.0", "building": "yes"}, "geometry": {"type": "Polygon", "coordinates": [[[-69.3211027, -22.8890245], [-69.3209022, -22.8892049], [-69.3209604, -22.8892598], [-69.3211609, -22.8890794], [-69.3211027, -22.8890245]]]}}, {"type": "Feature", "id": "way/823595082", "properties": {"Nombre": "Sin nombre · yes", "Fuente": "© OpenStreetMap contributors", "Estado": "Por verificar en terreno", "Consulta": "2026-09-23", "Edicion_OSM": "2020-07-06T21:57:08Z", "Categoria": "yes", "OSM_ID": "way/823595082", "OSM_URL": "https://www.openstreetmap.org/way/823595082", "Geometria": "Geometría OSM recortada al área de consulta", "Licencia": "ODbL 1.0", "building": "yes"}, "geometry": {"type": "Polygon", "coordinates": [[[-69.3168333, -22.8898926], [-69.3167387, -22.8899859], [-69.3168426, -22.8900752], [-69.3169371, -22.889982], [-69.3168333, -22.8898926]]]}}, {"type": "Feature", "id": "way/823595083", "properties": {"Nombre": "Sin nombre · yes", "Fuente": "© OpenStreetMap contributors", "Estado": "Por verificar en terreno", "Consulta": "2026-09-23", "Edicion_OSM": "2020-07-06T21:57:08Z", "Categoria": "yes", "OSM_ID": "way/823595083", "OSM_URL": "https://www.openstreetmap.org/way/823595083", "Geometria": "Geometría OSM recortada al área de consulta", "Licencia": "ODbL 1.0", "building": "yes"}, "geometry": {"type": "Polygon", "coordinates": [[[-69.3194436, -22.8900128], [-69.3193391, -22.8899136], [-69.3193075, -22.8899418], [-69.3193277, -22.8899611], [-69.3192232, -22.8900545], [-69.3193075, -22.8901345], [-69.3194436, -22.8900128]]]}}, {"type": "Feature", "id": "way/823595084", "properties": {"Nombre": "Sin nombre · yes", "Fuente": "© OpenStreetMap contributors", "Estado": "Por verificar en terreno", "Consulta": "2026-09-23", "Edicion_OSM": "2020-07-06T21:57:08Z", "Categoria": "yes", "OSM_ID": "way/823595084", "OSM_URL": "https://www.openstreetmap.org/way/823595084", "Geometria": "Geometría OSM recortada al área de consulta", "Licencia": "ODbL 1.0", "building": "yes"}, "geometry": {"type": "Polygon", "coordinates": [[[-69.3191696, -22.8906632], [-69.3190596, -22.8907639], [-69.3191198, -22.8908196], [-69.3192297, -22.8907189], [-69.3191696, -22.8906632]]]}}, {"type": "Feature", "id": "way/823595085", "properties": {"Nombre": "Sin nombre · yes", "Fuente": "© OpenStreetMap contributors", "Estado": "Por verificar en terreno", "Consulta": "2026-09-23", "Edicion_OSM": "2020-07-06T21:57:08Z", "Categoria": "yes", "OSM_ID": "way/823595085", "OSM_URL": "https://www.openstreetmap.org/way/823595085", "Geometria": "Geometría OSM recortada al área de consulta", "Licencia": "ODbL 1.0", "building": "yes"}, "geometry": {"type": "Polygon", "coordinates": [[[-69.3189894, -22.8909368], [-69.318862, -22.8908169], [-69.3188214, -22.8908536], [-69.3189488, -22.8909734], [-69.3189894, -22.8909368]]]}}, {"type": "Feature", "id": "way/823595086", "properties": {"Nombre": "Sin nombre · yes", "Fuente": "© OpenStreetMap contributors", "Estado": "Por verificar en terreno", "Consulta": "2026-09-23", "Edicion_OSM": "2020-07-06T21:57:08Z", "Categoria": "yes", "OSM_ID": "way/823595086", "OSM_URL": "https://www.openstreetmap.org/way/823595086", "Geometria": "Geometría OSM recortada al área de consulta", "Licencia": "ODbL 1.0", "building": "yes"}, "geometry": {"type": "Polygon", "coordinates": [[[-69.3188708, -22.8918181], [-69.318791, -22.8918922], [-69.3188395, -22.8919365], [-69.3189193, -22.8918624], [-69.3188708, -22.8918181]]]}}, {"type": "Feature", "id": "way/823595087", "properties": {"Nombre": "Sin nombre · yes", "Fuente": "© OpenStreetMap contributors", "Estado": "Por verificar en terreno", "Consulta": "2026-09-23", "Edicion_OSM": "2020-07-06T21:57:08Z", "Categoria": "yes", "OSM_ID": "way/823595087", "OSM_URL": "https://www.openstreetmap.org/way/823595087", "Geometria": "Geometría OSM recortada al área de consulta", "Licencia": "ODbL 1.0", "building": "yes"}, "geometry": {"type": "Polygon", "coordinates": [[[-69.3190706, -22.8918253], [-69.3189841, -22.8919118], [-69.3190379, -22.8919575], [-69.3191244, -22.891871], [-69.3190706, -22.8918253]]]}}, {"type": "Feature", "id": "way/823595088", "properties": {"Nombre": "Sin nombre · yes", "Fuente": "© OpenStreetMap contributors", "Estado": "Por verificar en terreno", "Consulta": "2026-09-23", "Edicion_OSM": "2020-07-06T21:57:08Z", "Categoria": "yes", "OSM_ID": "way/823595088", "OSM_URL": "https://www.openstreetmap.org/way/823595088", "Geometria": "Geometría OSM recortada al área de consulta", "Licencia": "ODbL 1.0", "building": "yes"}, "geometry": {"type": "Polygon", "coordinates": [[[-69.3202017, -22.8927005], [-69.3201152, -22.8927796], [-69.3201705, -22.892831], [-69.320257, -22.8927519], [-69.3202017, -22.8927005]]]}}, {"type": "Feature", "id": "way/823595089", "properties": {"Nombre": "Sin nombre · yes", "Fuente": "© OpenStreetMap contributors", "Estado": "Por verificar en terreno", "Consulta": "2026-09-23", "Edicion_OSM": "2020-07-06T21:57:08Z", "Categoria": "yes", "OSM_ID": "way/823595089", "OSM_URL": "https://www.openstreetmap.org/way/823595089", "Geometria": "Geometría OSM recortada al área de consulta", "Licencia": "ODbL 1.0", "building": "yes"}, "geometry": {"type": "Polygon", "coordinates": [[[-69.3204283, -22.8927065], [-69.3203763, -22.892659], [-69.3203123, -22.8927184], [-69.3203643, -22.8927659], [-69.3204283, -22.8927065]]]}}, {"type": "Feature", "id": "way/823595090", "properties": {"Nombre": "Sin nombre · yes", "Fuente": "© OpenStreetMap contributors", "Estado": "Por verificar en terreno", "Consulta": "2026-09-23", "Edicion_OSM": "2020-07-06T21:57:08Z", "Categoria": "yes", "OSM_ID": "way/823595090", "OSM_URL": "https://www.openstreetmap.org/way/823595090", "Geometria": "Geometría OSM recortada al área de consulta", "Licencia": "ODbL 1.0", "building": "yes"}, "geometry": {"type": "Polygon", "coordinates": [[[-69.3204808, -22.8928724], [-69.3205492, -22.8928088], [-69.3204864, -22.8927514], [-69.3204179, -22.8928149], [-69.3204808, -22.8928724]]]}}, {"type": "Feature", "id": "way/823595091", "properties": {"Nombre": "Sin nombre · yes", "Fuente": "© OpenStreetMap contributors", "Estado": "Por verificar en terreno", "Consulta": "2026-09-23", "Edicion_OSM": "2020-07-06T21:57:08Z", "Categoria": "yes", "OSM_ID": "way/823595091", "OSM_URL": "https://www.openstreetmap.org/way/823595091", "Geometria": "Geometría OSM recortada al área de consulta", "Licencia": "ODbL 1.0", "building": "yes"}, "geometry": {"type": "Polygon", "coordinates": [[[-69.3204455, -22.8926906], [-69.3204283, -22.8927065], [-69.3203643, -22.8927659], [-69.3204179, -22.8928149], [-69.3204864, -22.8927514], [-69.3204991, -22.8927396], [-69.3204455, -22.8926906]]]}}, {"type": "Feature", "id": "way/823595092", "properties": {"Nombre": "Sin nombre · yes", "Fuente": "© OpenStreetMap contributors", "Estado": "Por verificar en terreno", "Consulta": "2026-09-23", "Edicion_OSM": "2020-07-06T21:57:08Z", "Categoria": "yes", "OSM_ID": "way/823595092", "OSM_URL": "https://www.openstreetmap.org/way/823595092", "Geometria": "Geometría OSM recortada al área de consulta", "Licencia": "ODbL 1.0", "building": "yes"}, "geometry": {"type": "Polygon", "coordinates": [[[-69.3205735, -22.8919118], [-69.3204777, -22.892001], [-69.3205229, -22.8920423], [-69.3205744, -22.8919944], [-69.3206579, -22.8920705], [-69.3207023, -22.8920292], [-69.3205735, -22.8919118]]]}}, {"type": "Feature", "id": "way/823595093", "properties": {"Nombre": "Sin nombre · yes", "Fuente": "© OpenStreetMap contributors", "Estado": "Por verificar en terreno", "Consulta": "2026-09-23", "Edicion_OSM": "2020-07-06T21:57:08Z", "Categoria": "yes", "OSM_ID": "way/823595093", "OSM_URL": "https://www.openstreetmap.org/way/823595093", "Geometria": "Geometría OSM recortada al área de consulta", "Licencia": "ODbL 1.0", "building": "yes"}, "geometry": {"type": "Polygon", "coordinates": [[[-69.3209298, -22.8918102], [-69.3208521, -22.8918878], [-69.3209059, -22.8919336], [-69.3209836, -22.891856], [-69.3209298, -22.8918102]]]}}, {"type": "Feature", "id": "way/823595094", "properties": {"Nombre": "Sin nombre · yes", "Fuente": "© OpenStreetMap contributors", "Estado": "Por verificar en terreno", "Consulta": "2026-09-23", "Edicion_OSM": "2020-07-06T21:57:08Z", "Categoria": "yes", "OSM_ID": "way/823595094", "OSM_URL": "https://www.openstreetmap.org/way/823595094", "Geometria": "Geometría OSM recortada al área de consulta", "Licencia": "ODbL 1.0", "building": "yes"}, "geometry": {"type": "Polygon", "coordinates": [[[-69.3211375, -22.8916945], [-69.321057, -22.8917767], [-69.3211341, -22.8918407], [-69.3212146, -22.8917586], [-69.3211375, -22.8916945]]]}}, {"type": "Feature", "id": "way/823595095", "properties": {"Nombre": "Sin nombre · yes", "Fuente": "© OpenStreetMap contributors", "Estado": "Por verificar en terreno", "Consulta": "2026-09-23", "Edicion_OSM": "2020-07-06T21:57:08Z", "Categoria": "yes", "OSM_ID": "way/823595095", "OSM_URL": "https://www.openstreetmap.org/way/823595095", "Geometria": "Geometría OSM recortada al área de consulta", "Licencia": "ODbL 1.0", "building": "yes"}, "geometry": {"type": "Polygon", "coordinates": [[[-69.3211776, -22.891946], [-69.321077, -22.8920504], [-69.3211395, -22.8921014], [-69.32124, -22.891997], [-69.3211776, -22.891946]]]}}, {"type": "Feature", "id": "way/823595096", "properties": {"Nombre": "Sin nombre · yes", "Fuente": "© OpenStreetMap contributors", "Estado": "Por verificar en terreno", "Consulta": "2026-09-23", "Edicion_OSM": "2020-07-06T21:57:08Z", "Categoria": "yes", "OSM_ID": "way/823595096", "OSM_URL": "https://www.openstreetmap.org/way/823595096", "Geometria": "Geometría OSM recortada al área de consulta", "Licencia": "ODbL 1.0", "building": "yes"}, "geometry": {"type": "Polygon", "coordinates": [[[-69.3210364, -22.8918033], [-69.3209836, -22.891856], [-69.3209059, -22.8919336], [-69.320882, -22.8919575], [-69.3209521, -22.8920172], [-69.3211066, -22.891863], [-69.3210364, -22.8918033]]]}}]}