{"type": "FeatureCollection", "name": "Alojamientos y servicios", "bbox": [-69.335, -22.903, -69.302, -22.879], "source": "https://www.openstreetmap.org/copyright", "license": "ODbL-1.0", "snapshot": "2026-09-23T23:18:34Z", "features": [{"type": "Feature", "id": "node/2374226881", "properties": {"Nombre": "Oficina Salitrera Piscina", "Fuente": "© OpenStreetMap contributors", "Estado": "Por verificar en terreno", "Consulta": "2026-09-23", "Edicion_OSM": "2013-07-04T20:52:55Z", "Categoria": "viewpoint", "OSM_ID": "node/2374226881", "OSM_URL": "https://www.openstreetmap.org/node/2374226881", "Geometria": "Geometría OSM recortada al área de consulta", "Licencia": "ODbL 1.0", "historic": "ruins", "name": "Oficina Salitrera Piscina", "tourism": "viewpoint"}, "geometry": {"type": "Point", "coordinates": [-69.3242876, -22.8959665]}}, {"type": "Feature", "id": "node/5060841124", "properties": {"Nombre": "Restaurant Talinay", "Fuente": "© OpenStreetMap contributors", "Estado": "Por verificar en terreno", "Consulta": "2026-09-23", "Edicion_OSM": "2019-10-25T18:42:32Z", "Categoria": "restaurant", "OSM_ID": "node/5060841124", "OSM_URL": "https://www.openstreetmap.org/node/5060841124", "Geometria": "Geometría OSM recortada al área de consulta", "Licencia": "ODbL 1.0", "amenity": "restaurant", "name": "Restaurant Talinay", "name:es": "Restaurant Talinay"}, "geometry": {"type": "Point", "coordinates": [-69.3191922, -22.88958]}}, {"type": "Feature", "id": "node/5061019421", "properties": {"Nombre": "Sin nombre · fire_station", "Fuente": "© OpenStreetMap contributors", "Estado": "Por verificar en terreno", "Consulta": "2026-09-23", "Edicion_OSM": "2017-08-26T21:18:03Z", "Categoria": "fire_station", "OSM_ID": "node/5061019421", "OSM_URL": "https://www.openstreetmap.org/node/5061019421", "Geometria": "Geometría OSM recortada al área de consulta", "Licencia": "ODbL 1.0", "amenity": "fire_station"}, "geometry": {"type": "Point", "coordinates": [-69.3193029, -22.8915704]}}, {"type": "Feature", "id": "node/5061019422", "properties": {"Nombre": "Sin nombre · fountain", "Fuente": "© OpenStreetMap contributors", "Estado": "Por verificar en terreno", "Consulta": "2026-09-23", "Edicion_OSM": "2017-08-26T21:18:06Z", "Categoria": "fountain", "OSM_ID": "node/5061019422", "OSM_URL": "https://www.openstreetmap.org/node/5061019422", "Geometria": "Geometría OSM recortada al área de consulta", "Licencia": "ODbL 1.0", "amenity": "fountain"}, "geometry": {"type": "Point", "coordinates": [-69.3200477, -22.8919041]}}, {"type": "Feature", "id": "node/5061019423", "properties": {"Nombre": "Alojamiento Martínez", "Fuente": "© OpenStreetMap contributors", "Estado": "Por verificar en terreno", "Consulta": "2026-09-23", "Edicion_OSM": "2017-08-26T21:18:08Z", "Categoria": "hostel", "OSM_ID": "node/5061019423", "OSM_URL": "https://www.openstreetmap.org/node/5061019423", "Geometria": "Geometría OSM recortada al área de consulta", "Licencia": "ODbL 1.0", "name": "Alojamiento Martínez", "tourism": "hostel"}, "geometry": {"type": "Point", "coordinates": [-69.3201982, -22.8923706]}}, {"type": "Feature", "id": "node/5061019424", "properties": {"Nombre": "Martínez", "Fuente": "© OpenStreetMap contributors", "Estado": "Por verificar en terreno", "Consulta": "2026-09-23", "Edicion_OSM": "2017-08-26T21:18:11Z", "Categoria": "laundry", "OSM_ID": "node/5061019424", "OSM_URL": "https://www.openstreetmap.org/node/5061019424", "Geometria": "Geometría OSM recortada al área de consulta", "Licencia": "ODbL 1.0", "name": "Martínez", "name:es": "Martínez", "shop": "laundry"}, "geometry": {"type": "Point", "coordinates": [-69.3202041, -22.8924334]}}, {"type": "Feature", "id": "node/5061019425", "properties": {"Nombre": "Cony Lavanderia", "Fuente": "© OpenStreetMap contributors", "Estado": "Por verificar en terreno", "Consulta": "2026-09-23", "Edicion_OSM": "2017-08-26T21:18:30Z", "Categoria": "laundry", "OSM_ID": "node/5061019425", "OSM_URL": "https://www.openstreetmap.org/node/5061019425", "Geometria": "Geometría OSM recortada al área de consulta", "Licencia": "ODbL 1.0", "name": "Cony Lavanderia", "name:es": "Cony Lavanderia", "shop": "laundry"}, "geometry": {"type": "Point", "coordinates": [-69.3215585, -22.8915841]}}, {"type": "Feature", "id": "node/5061019426", "properties": {"Nombre": "Banco de Chile", "Fuente": "© OpenStreetMap contributors", "Estado": "Por verificar en terreno", "Consulta": "2026-09-23", "Edicion_OSM": "2019-10-25T18:21:25Z", "Categoria": "atm", "OSM_ID": "node/5061019426", "OSM_URL": "https://www.openstreetmap.org/node/5061019426", "Geometria": "Geometría OSM recortada al área de consulta", "Licencia": "ODbL 1.0", "amenity": "atm", "operator": "Banco de Chile"}, "geometry": {"type": "Point", "coordinates": [-69.3208709, -22.8909515]}}, {"type": "Feature", "id": "node/5061019427", "properties": {"Nombre": "Lavanderia Industrial Paris", "Fuente": "© OpenStreetMap contributors", "Estado": "Por verificar en terreno", "Consulta": "2026-09-23", "Edicion_OSM": "2019-10-25T18:21:25Z", "Categoria": "laundry", "OSM_ID": "node/5061019427", "OSM_URL": "https://www.openstreetmap.org/node/5061019427", "Geometria": "Geometría OSM recortada al área de consulta", "Licencia": "ODbL 1.0", "name": "Lavanderia Industrial Paris", "name:es": "Lavanderia Industrial Paris", "shop": "laundry"}, "geometry": {"type": "Point", "coordinates": [-69.319702, -22.8903669]}}, {"type": "Feature", "id": "node/5061019428", "properties": {"Nombre": "Western Union", "Fuente": "© OpenStreetMap contributors", "Estado": "Por verificar en terreno", "Consulta": "2026-09-23", "Edicion_OSM": "2017-08-26T21:18:47Z", "Categoria": "bureau_de_change", "OSM_ID": "node/5061019428", "OSM_URL": "https://www.openstreetmap.org/node/5061019428", "Geometria": "Geometría OSM recortada al área de consulta", "Licencia": "ODbL 1.0", "amenity": "bureau_de_change", "name": "Western Union", "name:es": "Western Union"}, "geometry": {"type": "Point", "coordinates": [-69.3197059, -22.8900161]}}, {"type": "Feature", "id": "node/5061019429", "properties": {"Nombre": "Café Keryma", "Fuente": "© OpenStreetMap contributors", "Estado": "Por verificar en terreno", "Consulta": "2026-09-23", "Edicion_OSM": "2019-10-25T18:42:32Z", "Categoria": "cafe", "OSM_ID": "node/5061019429", "OSM_URL": "https://www.openstreetmap.org/node/5061019429", "Geometria": "Geometría OSM recortada al área de consulta", "Licencia": "ODbL 1.0", "amenity": "cafe", "name": "Café Keryma", "name:es": "Café Keryma"}, "geometry": {"type": "Point", "coordinates": [-69.3193632, -22.8897773]}}, {"type": "Feature", "id": "node/5061019430", "properties": {"Nombre": "Restaurant Punto Norte", "Fuente": "© OpenStreetMap contributors", "Estado": "Por verificar en terreno", "Consulta": "2026-09-23", "Edicion_OSM": "2017-08-26T21:18:55Z", "Categoria": "restaurant", "OSM_ID": "node/5061019430", "OSM_URL": "https://www.openstreetmap.org/node/5061019430", "Geometria": "Geometría OSM recortada al área de consulta", "Licencia": "ODbL 1.0", "addr:housenumber": "605", "addr:street": "Avenida Salvador Allende", "amenity": "restaurant", "name": "Restaurant Punto Norte", "name:es": "Restaurant Punto Norte"}, "geometry": {"type": "Point", "coordinates": [-69.3188556, -22.8891796]}}, {"type": "Feature", "id": "node/5061019521", "properties": {"Nombre": "Sin nombre · toilets", "Fuente": "© OpenStreetMap contributors", "Estado": "Por verificar en terreno", "Consulta": "2026-09-23", "Edicion_OSM": "2019-10-25T18:21:25Z", "Categoria": "toilets", "OSM_ID": "node/5061019521", "OSM_URL": "https://www.openstreetmap.org/node/5061019521", "Geometria": "Geometría OSM recortada al área de consulta", "Licencia": "ODbL 1.0", "amenity": "toilets"}, "geometry": {"type": "Point", "coordinates": [-69.319943, -22.8921768]}}, {"type": "Feature", "id": "node/5061019523", "properties": {"Nombre": "Almacen Camila", "Fuente": "© OpenStreetMap contributors", "Estado": "Por verificar en terreno", "Consulta": "2026-09-23", "Edicion_OSM": "2017-08-26T21:18:20Z", "Categoria": "convenience", "OSM_ID": "node/5061019523", "OSM_URL": "https://www.openstreetmap.org/node/5061019523", "Geometria": "Geometría OSM recortada al área de consulta", "Licencia": "ODbL 1.0", "name": "Almacen Camila", "name:es": "Almacen Camila", "shop": "convenience"}, "geometry": {"type": "Point", "coordinates": [-69.3209373, -22.8921818]}}, {"type": "Feature", "id": "node/5061019525", "properties": {"Nombre": "Hostal Santa Maria", "Fuente": "© OpenStreetMap contributors", "Estado": "Por verificar en terreno", "Consulta": "2026-09-23", "Edicion_OSM": "2017-08-26T21:18:26Z", "Categoria": "hostel", "OSM_ID": "node/5061019525", "OSM_URL": "https://www.openstreetmap.org/node/5061019525", "Geometria": "Geometría OSM recortada al área de consulta", "Licencia": "ODbL 1.0", "name": "Hostal Santa Maria", "name:es": "Hostal Santa Maria", "tourism": "hostel"}, "geometry": {"type": "Point", "coordinates": [-69.3209917, -22.8915874]}}, {"type": "Feature", "id": "node/5061019526", "properties": {"Nombre": "Hostal Rayencura", "Fuente": "© OpenStreetMap contributors", "Estado": "Por verificar en terreno", "Consulta": "2026-09-23", "Edicion_OSM": "2017-08-26T21:18:28Z", "Categoria": "hostel", "OSM_ID": "node/5061019526", "OSM_URL": "https://www.openstreetmap.org/node/5061019526", "Geometria": "Geometría OSM recortada al área de consulta", "Licencia": "ODbL 1.0", "name": "Hostal Rayencura", "name:es": "Hostal Rayencura", "tourism": "hostel"}, "geometry": {"type": "Point", "coordinates": [-69.3213705, -22.8914508]}}, {"type": "Feature", "id": "node/5061019527", "properties": {"Nombre": "BancoEstado", "Fuente": "© OpenStreetMap contributors", "Estado": "Por verificar en terreno", "Consulta": "2026-09-23", "Edicion_OSM": "2019-10-25T18:21:25Z", "Categoria": "atm", "OSM_ID": "node/5061019527", "OSM_URL": "https://www.openstreetmap.org/node/5061019527", "Geometria": "Geometría OSM recortada al área de consulta", "Licencia": "ODbL 1.0", "amenity": "atm", "operator": "BancoEstado"}, "geometry": {"type": "Point", "coordinates": [-69.3208442, -22.8909328]}}, {"type": "Feature", "id": "node/5061019528", "properties": {"Nombre": "Supermercado de alcoholes San Carlos", "Fuente": "© OpenStreetMap contributors", "Estado": "Por verificar en terreno", "Consulta": "2026-09-23", "Edicion_OSM": "2019-10-25T18:21:25Z", "Categoria": "alcohol", "OSM_ID": "node/5061019528", "OSM_URL": "https://www.openstreetmap.org/node/5061019528", "Geometria": "Geometría OSM recortada al área de consulta", "Licencia": "ODbL 1.0", "name": "Supermercado de alcoholes San Carlos", "name:es": "Supermercado de alcoholes San Carlos", "shop": "alcohol"}, "geometry": {"type": "Point", "coordinates": [-69.319364, -22.8900202]}}, {"type": "Feature", "id": "node/5061019529", "properties": {"Nombre": "Iglesia del Evangélico Cuadrangular", "Fuente": "© OpenStreetMap contributors", "Estado": "Por verificar en terreno", "Consulta": "2026-09-23", "Edicion_OSM": "2025-09-13T13:20:05Z", "Categoria": "place_of_worship", "OSM_ID": "node/5061019529", "OSM_URL": "https://www.openstreetmap.org/node/5061019529", "Geometria": "Geometría OSM recortada al área de consulta", "Licencia": "ODbL 1.0", "amenity": "place_of_worship", "denomination": "pentecostal", "name": "Iglesia del Evangélico Cuadrangular", "name:es": "Iglesia del Evangelico Cuadrangular", "religion": "christian"}, "geometry": {"type": "Point", "coordinates": [-69.3195733, -22.8910737]}}, {"type": "Feature", "id": "node/5061019530", "properties": {"Nombre": "Sin nombre · convenience", "Fuente": "© OpenStreetMap contributors", "Estado": "Por verificar en terreno", "Consulta": "2026-09-23", "Edicion_OSM": "2017-08-26T21:19:12Z", "Categoria": "convenience", "OSM_ID": "node/5061019530", "OSM_URL": "https://www.openstreetmap.org/node/5061019530", "Geometria": "Geometría OSM recortada al área de consulta", "Licencia": "ODbL 1.0", "shop": "convenience"}, "geometry": {"type": "Point", "coordinates": [-69.3194022, -22.8920541]}}, {"type": "Feature", "id": "node/5061019621", "properties": {"Nombre": "Parroquia Sierra Gorda", "Fuente": "© OpenStreetMap contributors", "Estado": "Por verificar en terreno", "Consulta": "2026-09-23", "Edicion_OSM": "2018-09-26T18:27:13Z", "Categoria": "place_of_worship", "OSM_ID": "node/5061019621", "OSM_URL": "https://www.openstreetmap.org/node/5061019621", "Geometria": "Geometría OSM recortada al área de consulta", "Licencia": "ODbL 1.0", "amenity": "place_of_worship", "name": "Parroquia Sierra Gorda"}, "geometry": {"type": "Point", "coordinates": [-69.3205655, -22.8919587]}}, {"type": "Feature", "id": "node/5061019623", "properties": {"Nombre": "Sin nombre · convenience", "Fuente": "© OpenStreetMap contributors", "Estado": "Por verificar en terreno", "Consulta": "2026-09-23", "Edicion_OSM": "2019-10-25T18:21:25Z", "Categoria": "convenience", "OSM_ID": "node/5061019623", "OSM_URL": "https://www.openstreetmap.org/node/5061019623", "Geometria": "Geometría OSM recortada al área de consulta", "Licencia": "ODbL 1.0", "shop": "convenience"}, "geometry": {"type": "Point", "coordinates": [-69.319663, -22.8903108]}}, {"type": "Feature", "id": "node/5061019624", "properties": {"Nombre": "Sin nombre · fast_food", "Fuente": "© OpenStreetMap contributors", "Estado": "Por verificar en terreno", "Consulta": "2026-09-23", "Edicion_OSM": "2017-08-26T21:18:58Z", "Categoria": "fast_food", "OSM_ID": "node/5061019624", "OSM_URL": "https://www.openstreetmap.org/node/5061019624", "Geometria": "Geometría OSM recortada al área de consulta", "Licencia": "ODbL 1.0", "amenity": "fast_food"}, "geometry": {"type": "Point", "coordinates": [-69.3182996, -22.8890368]}}, {"type": "Feature", "id": "node/5061019625", "properties": {"Nombre": "Sin nombre · fast_food", "Fuente": "© OpenStreetMap contributors", "Estado": "Por verificar en terreno", "Consulta": "2026-09-23", "Edicion_OSM": "2017-08-26T21:19:02Z", "Categoria": "fast_food", "OSM_ID": "node/5061019625", "OSM_URL": "https://www.openstreetmap.org/node/5061019625", "Geometria": "Geometría OSM recortada al área de consulta", "Licencia": "ODbL 1.0", "amenity": "fast_food"}, "geometry": {"type": "Point", "coordinates": [-69.3185402, -22.8887752]}}, {"type": "Feature", "id": "node/5061019626", "properties": {"Nombre": "Pauli", "Fuente": "© OpenStreetMap contributors", "Estado": "Por verificar en terreno", "Consulta": "2026-09-23", "Edicion_OSM": "2017-08-26T21:19:05Z", "Categoria": "fast_food", "OSM_ID": "node/5061019626", "OSM_URL": "https://www.openstreetmap.org/node/5061019626", "Geometria": "Geometría OSM recortada al área de consulta", "Licencia": "ODbL 1.0", "amenity": "fast_food", "name": "Pauli", "name:es": "Pauli"}, "geometry": {"type": "Point", "coordinates": [-69.3199122, -22.889848]}}, {"type": "Feature", "id": "node/5061019627", "properties": {"Nombre": "Hostal Sierra Gorda", "Fuente": "© OpenStreetMap contributors", "Estado": "Por verificar en terreno", "Consulta": "2026-09-23", "Edicion_OSM": "2019-10-25T18:21:25Z", "Categoria": "hostel", "OSM_ID": "node/5061019627", "OSM_URL": "https://www.openstreetmap.org/node/5061019627", "Geometria": "Geometría OSM recortada al área de consulta", "Licencia": "ODbL 1.0", "name": "Hostal Sierra Gorda", "name:es": "Hostal Sierra Gorda", "tourism": "hostel"}, "geometry": {"type": "Point", "coordinates": [-69.3197984, -22.8904599]}}, {"type": "Feature", "id": "node/5061087921", "properties": {"Nombre": "Iglesia Evangelica Pentecostal", "Fuente": "© OpenStreetMap contributors", "Estado": "Por verificar en terreno", "Consulta": "2026-09-23", "Edicion_OSM": "2017-08-26T22:06:44Z", "Categoria": "place_of_worship", "OSM_ID": "node/5061087921", "OSM_URL": "https://www.openstreetmap.org/node/5061087921", "Geometria": "Geometría OSM recortada al área de consulta", "Licencia": "ODbL 1.0", "amenity": "place_of_worship", "name": "Iglesia Evangelica Pentecostal", "name:es": "Iglesia Evangelica Pentecostal"}, "geometry": {"type": "Point", "coordinates": [-69.319432, -22.8905751]}}, {"type": "Feature", "id": "node/5061088021", "properties": {"Nombre": "Lavanderia Fera Comercial", "Fuente": "© OpenStreetMap contributors", "Estado": "Por verificar en terreno", "Consulta": "2026-09-23", "Edicion_OSM": "2017-08-26T22:06:46Z", "Categoria": "laundry", "OSM_ID": "node/5061088021", "OSM_URL": "https://www.openstreetmap.org/node/5061088021", "Geometria": "Geometría OSM recortada al área de consulta", "Licencia": "ODbL 1.0", "name": "Lavanderia Fera Comercial", "name:es": "Lavanderia Fera Comercial", "shop": "laundry"}, "geometry": {"type": "Point", "coordinates": [-69.3188897, -22.8908206]}}, {"type": "Feature", "id": "node/5061088121", "properties": {"Nombre": "Lavandería San Lorenzo", "Fuente": "© OpenStreetMap contributors", "Estado": "Por verificar en terreno", "Consulta": "2026-09-23", "Edicion_OSM": "2017-08-26T22:06:49Z", "Categoria": "laundry", "OSM_ID": "node/5061088121", "OSM_URL": "https://www.openstreetmap.org/node/5061088121", "Geometria": "Geometría OSM recortada al área de consulta", "Licencia": "ODbL 1.0", "name": "Lavandería San Lorenzo", "name:es": "Lavandería San Lorenzo", "shop": "laundry"}, "geometry": {"type": "Point", "coordinates": [-69.318085, -22.8908239]}}, {"type": "Feature", "id": "node/6916642133", "properties": {"Nombre": "Expreso Norte", "Fuente": "© OpenStreetMap contributors", "Estado": "Por verificar en terreno", "Consulta": "2026-09-23", "Edicion_OSM": "2019-10-25T18:21:25Z", "Categoria": "bus_station", "OSM_ID": "node/6916642133", "OSM_URL": "https://www.openstreetmap.org/node/6916642133", "Geometria": "Geometría OSM recortada al área de consulta", "Licencia": "ODbL 1.0", "addr:city": "Sierra Gorda", "addr:street": "Avenida Salvador Allende", "amenity": "bus_station", "bus": "yes", "name": "Expreso Norte", "public_transport": "station"}, "geometry": {"type": "Point", "coordinates": [-69.3197196, -22.8900982]}}, {"type": "Feature", "id": "node/6916642147", "properties": {"Nombre": "Sin nombre · bicycle_parking", "Fuente": "© OpenStreetMap contributors", "Estado": "Por verificar en terreno", "Consulta": "2026-09-23", "Edicion_OSM": "2019-10-25T18:21:25Z", "Categoria": "bicycle_parking", "OSM_ID": "node/6916642147", "OSM_URL": "https://www.openstreetmap.org/node/6916642147", "Geometria": "Geometría OSM recortada al área de consulta", "Licencia": "ODbL 1.0", "amenity": "bicycle_parking"}, "geometry": {"type": "Point", "coordinates": [-69.3207876, -22.8909052]}}, {"type": "Feature", "id": "node/11412989223", "properties": {"Nombre": "Escuela Estacion Baquedano", "Fuente": "© OpenStreetMap contributors", "Estado": "Por verificar en terreno", "Consulta": "2026-09-23", "Edicion_OSM": "2023-12-12T16:44:24Z", "Categoria": "school", "OSM_ID": "node/11412989223", "OSM_URL": "https://www.openstreetmap.org/node/11412989223", "Geometria": "Geometría OSM recortada al área de consulta", "Licencia": "ODbL 1.0", "addr:city": "Sierra Gorda", "addr:housenumber": "118", "addr:street": "Avenida Salvador Allende", "amenity": "school", "name": "Escuela Estacion Baquedano"}, "geometry": {"type": "Point", "coordinates": [-69.3213949, -22.8917871]}}, {"type": "Feature", "id": "way/568979190", "properties": {"Nombre": "Jardin Infantil Flor del Desierto", "Fuente": "© OpenStreetMap contributors", "Estado": "Por verificar en terreno", "Consulta": "2026-09-23", "Edicion_OSM": "2021-09-27T18:16:36Z", "Categoria": "school", "OSM_ID": "way/568979190", "OSM_URL": "https://www.openstreetmap.org/way/568979190", "Geometria": "Punto interior derivado de área OSM", "Licencia": "ODbL 1.0", "addr:city": "Sierra Gorda", "addr:street": "Bolivar", "amenity": "school", "name": "Jardin Infantil Flor del Desierto", "nohousenumber": "yes"}, "geometry": {"type": "Point", "coordinates": [-69.32027560277213, -22.890838950000003]}}, {"type": "Feature", "id": "way/568979191", "properties": {"Nombre": "Escuela Caracoles", "Fuente": "© OpenStreetMap contributors", "Estado": "Por verificar en terreno", "Consulta": "2026-09-23", "Edicion_OSM": "2018-09-26T18:24:53Z", "Categoria": "school", "OSM_ID": "way/568979191", "OSM_URL": "https://www.openstreetmap.org/way/568979191", "Geometria": "Punto interior derivado de área OSM", "Licencia": "ODbL 1.0", "addr:city": "Sierra Gorda", "addr:housenumber": "204", "addr:street": "Avenida Salvador Allende", "amenity": "school", "name": "Escuela Caracoles"}, "geometry": {"type": "Point", "coordinates": [-69.31997189901436, -22.890838950000003]}}, {"type": "Feature", "id": "way/738631427", "properties": {"Nombre": "Posta de Salud Rural PSR de Sierra Gorda", "Fuente": "© OpenStreetMap contributors", "Estado": "Por verificar en terreno", "Consulta": "2026-09-23", "Edicion_OSM": "2023-12-23T15:19:03Z", "Categoria": "doctors", "OSM_ID": "way/738631427", "OSM_URL": "https://www.openstreetmap.org/way/738631427", "Geometria": "Punto interior derivado de área OSM", "Licencia": "ODbL 1.0", "addr:city": "Sierra Gorda", "addr:country": "CL", "addr:housenumber": "211", "addr:street": "Avenida Salvador Allende", "amenity": "doctors", "building": "yes", "healthcare": "clinic", "name": "Posta de Salud Rural PSR de Sierra Gorda"}, "geometry": {"type": "Point", "coordinates": [-69.3210065037118, -22.89078]}}, {"type": "Feature", "id": "way/738636233", "properties": {"Nombre": "Reten Sierra Gorda", "Fuente": "© OpenStreetMap contributors", "Estado": "Por verificar en terreno", "Consulta": "2026-09-23", "Edicion_OSM": "2024-03-25T21:31:02Z", "Categoria": "police", "OSM_ID": "way/738636233", "OSM_URL": "https://www.openstreetmap.org/way/738636233", "Geometria": "Punto interior derivado de área OSM", "Licencia": "ODbL 1.0", "addr:city": "Sierra Gorda", "addr:country": "CL", "addr:housenumber": "200", "addr:street": "Avenida Salvador Allende", "amenity": "police", "building": "yes", "name": "Reten Sierra Gorda", "note": "Correcciones masivas a ortografía en nombres de importaciones hechas por equipo de gendarmería", "operator": "Retén Sierra Gorda"}, "geometry": {"type": "Point", "coordinates": [-69.32077215, -22.891355750000002]}}]}