{"type": "FeatureCollection", "name": "Espacios y usos del suelo", "bbox": [-69.335, -22.903, -69.302, -22.879], "source": "https://www.openstreetmap.org/copyright", "license": "ODbL-1.0", "snapshot": "2026-09-23T23:18:34Z", "features": [{"type": "Feature", "id": "way/30643299", "properties": {"Nombre": "Cementerio Sierra Gorda", "Fuente": "© OpenStreetMap contributors", "Estado": "Por verificar en terreno", "Consulta": "2026-09-23", "Edicion_OSM": "2017-08-26T22:12:48Z", "Categoria": "cemetery", "OSM_ID": "way/30643299", "OSM_URL": "https://www.openstreetmap.org/way/30643299", "Geometria": "Geometría OSM recortada al área de consulta", "Licencia": "ODbL 1.0", "landuse": "cemetery", "name": "Cementerio Sierra Gorda", "opening_hours": "Mo-Su 08:00-13:00, 15:00-18:00"}, "geometry": {"type": "Polygon", "coordinates": [[[-69.3158165, -22.8935184], [-69.3162917, -22.8938539], [-69.3170922, -22.8928915], [-69.3166171, -22.8925561], [-69.3158165, -22.8935184]]]}}, {"type": "Feature", "id": "way/30643405", "properties": {"Nombre": "Plaza Sierra Gorda", "Fuente": "© OpenStreetMap contributors", "Estado": "Por verificar en terreno", "Consulta": "2026-09-23", "Edicion_OSM": "2024-10-02T03:19:23Z", "Categoria": "park", "OSM_ID": "way/30643405", "OSM_URL": "https://www.openstreetmap.org/way/30643405", "Geometria": "Geometría OSM recortada al área de consulta", "Licencia": "ODbL 1.0", "leisure": "park", "name": "Plaza Sierra Gorda"}, "geometry": {"type": "Polygon", "coordinates": [[[-69.3200725, -22.8914477], [-69.3200304, -22.8914437], [-69.319742, -22.8917308], [-69.3197407, -22.891779], [-69.3201068, -22.8920977], [-69.3201537, -22.8920903], [-69.3204703, -22.8917961], [-69.3200725, -22.8914477]]]}}, {"type": "Feature", "id": "way/30770561", "properties": {"Nombre": "Sin nombre · railway", "Fuente": "© OpenStreetMap contributors", "Estado": "Por verificar en terreno", "Consulta": "2026-09-23", "Edicion_OSM": "2011-12-27T00:28:30Z", "Categoria": "railway", "OSM_ID": "way/30770561", "OSM_URL": "https://www.openstreetmap.org/way/30770561", "Geometria": "Geometría OSM recortada al área de consulta", "Licencia": "ODbL 1.0", "landuse": "railway"}, "geometry": {"type": "Polygon", "coordinates": [[[-69.319023, -22.8882527], [-69.3187038, -22.8885772], [-69.3189845, -22.8887309], [-69.3193218, -22.8890596], [-69.319751, -22.8894628], [-69.3203432, -22.8900163], [-69.3209011, -22.8904117], [-69.3213818, -22.8906726], [-69.3220169, -22.8912261], [-69.3222674, -22.8909491], [-69.319023, -22.8882527]]]}}, {"type": "Feature", "id": "way/30770858", "properties": {"Nombre": "Sin nombre · residential", "Fuente": "© OpenStreetMap contributors", "Estado": "Por verificar en terreno", "Consulta": "2026-09-23", "Edicion_OSM": "2019-10-25T18:42:32Z", "Categoria": "residential", "OSM_ID": "way/30770858", "OSM_URL": "https://www.openstreetmap.org/way/30770858", "Geometria": "Geometría OSM recortada al área de consulta", "Licencia": "ODbL 1.0", "landuse": "residential"}, "geometry": {"type": "Polygon", "coordinates": [[[-69.3172807, -22.889894], [-69.3170094, -22.8896309], [-69.3167742, -22.889808], [-69.3166105, -22.8896868], [-69.316454, -22.8898228], [-69.3169023, -22.8902452], [-69.3171257, -22.8902055], [-69.3178258, -22.890824], [-69.3187609, -22.8916073], [-69.3180348, -22.8923263], [-69.3188122, -22.8933966], [-69.3195076, -22.8941745], [-69.3216648, -22.8918648], [-69.3220436, -22.8914689], [-69.3213733, -22.8907667], [-69.320382, -22.8901287], [-69.3188598, -22.8887321], [-69.3187063, -22.8886668], [-69.3181973, -22.8891408], [-69.3173615, -22.8899618], [-69.3172807, -22.889894]]]}}, {"type": "Feature", "id": "way/32529193", "properties": {"Nombre": "Sin nombre · industrial", "Fuente": "© OpenStreetMap contributors", "Estado": "Por verificar en terreno", "Consulta": "2026-09-23", "Edicion_OSM": "2011-12-27T00:28:31Z", "Categoria": "industrial", "OSM_ID": "way/32529193", "OSM_URL": "https://www.openstreetmap.org/way/32529193", "Geometria": "Geometría OSM recortada al área de consulta", "Licencia": "ODbL 1.0", "landuse": "industrial"}, "geometry": {"type": "Polygon", "coordinates": [[[-69.3239583, -22.8924277], [-69.3242795, -22.8923936], [-69.3251255, -22.8921184], [-69.3255953, -22.8918995], [-69.325783, -22.8914827], [-69.3257795, -22.8910319], [-69.3254079, -22.8905068], [-69.3248591, -22.8899609], [-69.3248879, -22.8896803], [-69.3249749, -22.8894392], [-69.325334, -22.8888668], [-69.3259822, -22.8885116], [-69.326076, -22.8884022], [-69.3261708, -22.8881583], [-69.3261595, -22.8879136], [-69.3260941, -22.8877909], [-69.3258966, -22.8875939], [-69.3249305, -22.887245], [-69.3245726, -22.8871814], [-69.3241478, -22.8871907], [-69.3234057, -22.8870389], [-69.3225431, -22.8870086], [-69.3211548, -22.8872682], [-69.3199174, -22.8876388], [-69.3193977, -22.8878921], [-69.3190402, -22.8882448], [-69.3206319, -22.8895757], [-69.3222503, -22.8909096], [-69.3225426, -22.8913117], [-69.323016, -22.8918652], [-69.3235831, -22.8923215], [-69.3239583, -22.8924277]]]}}, {"type": "Feature", "id": "way/170936316", "properties": {"Nombre": "Sin nombre · pitch", "Fuente": "© OpenStreetMap contributors", "Estado": "Por verificar en terreno", "Consulta": "2026-09-23", "Edicion_OSM": "2022-12-01T05:09:06Z", "Categoria": "pitch", "OSM_ID": "way/170936316", "OSM_URL": "https://www.openstreetmap.org/way/170936316", "Geometria": "Geometría OSM recortada al área de consulta", "Licencia": "ODbL 1.0", "leisure": "pitch", "sport": "soccer"}, "geometry": {"type": "Polygon", "coordinates": [[[-69.3161895, -22.8911568], [-69.3157719, -22.8914364], [-69.3163496, -22.8921685], [-69.3167671, -22.8918889], [-69.3161895, -22.8911568]]]}}, {"type": "Feature", "id": "way/738636234", "properties": {"Nombre": "Sin nombre · pitch", "Fuente": "© OpenStreetMap contributors", "Estado": "Por verificar en terreno", "Consulta": "2026-09-23", "Edicion_OSM": "2019-10-25T18:42:32Z", "Categoria": "pitch", "OSM_ID": "way/738636234", "OSM_URL": "https://www.openstreetmap.org/way/738636234", "Geometria": "Geometría OSM recortada al área de consulta", "Licencia": "ODbL 1.0", "leisure": "pitch"}, "geometry": {"type": "Polygon", "coordinates": [[[-69.3174872, -22.8906551], [-69.3173531, -22.8907845], [-69.3175619, -22.8909682], [-69.3176961, -22.8908388], [-69.3174872, -22.8906551]]]}}, {"type": "Feature", "id": "way/783759358", "properties": {"Nombre": "Estadio Municipal Sierra Gorda", "Fuente": "© OpenStreetMap contributors", "Estado": "Por verificar en terreno", "Consulta": "2026-09-23", "Edicion_OSM": "2020-03-22T22:57:35Z", "Categoria": "sports_centre", "OSM_ID": "way/783759358", "OSM_URL": "https://www.openstreetmap.org/way/783759358", "Geometria": "Geometría OSM recortada al área de consulta", "Licencia": "ODbL 1.0", "leisure": "sports_centre", "name": "Estadio Municipal Sierra Gorda"}, "geometry": {"type": "Polygon", "coordinates": [[[-69.3177304, -22.8919359], [-69.31743, -22.891501], [-69.3179315, -22.8910266], [-69.3171537, -22.8903594], [-69.3157187, -22.8914392], [-69.3163785, -22.8922645], [-69.3167406, -22.8919927], [-69.3169498, -22.8922522], [-69.317041, -22.8922843], [-69.3177304, -22.8919359]]]}}, {"type": "Feature", "id": "way/989173226", "properties": {"Nombre": "Vertedero Municipal de Sierra Gorda", "Fuente": "© OpenStreetMap contributors", "Estado": "Por verificar en terreno", "Consulta": "2026-09-23", "Edicion_OSM": "2021-10-03T17:26:53Z", "Categoria": "landfill", "OSM_ID": "way/989173226", "OSM_URL": "https://www.openstreetmap.org/way/989173226", "Geometria": "Geometría OSM recortada al área de consulta", "Licencia": "ODbL 1.0", "landuse": "landfill", "name": "Vertedero Municipal de Sierra Gorda", "owner": "Municipalidad de Sierra Gorda"}, "geometry": {"type": "Polygon", "coordinates": [[[-69.3082512, -22.8995622], [-69.3093111, -22.9007202], [-69.3098287, -22.9003285], [-69.3106544, -22.9012821], [-69.3117883, -22.9003966], [-69.3103155, -22.8991308], [-69.3100162, -22.8988069], [-69.3096808, -22.8984439], [-69.3082512, -22.8995622]]]}}]}