{"type":"FeatureCollection","properties":{"fuente":"OpenStreetMap (ODbL)","area":"Sierra Gorda, Antofagasta, Chile","extraido":"2026-08-09"},"features":[{"type":"Feature","properties":{"c":"calle"},"geometry":{"type":"LineString","coordinates":[[-69.31828,-22.8888],[-69.31801,-22.88905],[-69.31775,-22.88928],[-69.3177,-22.88932],[-69.31765,-22.88937],[-69.31759,-22.88941],[-69.31752,-22.88945],[-69.31744,-22.88948],[-69.31736,-22.88951],[-69.31423,-22.88998]]}},{"type":"Feature","properties":{"c":"calle","n":"Eleuterio Ramírez"},"geometry":{"type":"LineString","coordinates":[[-69.31885,-22.88865],[-69.31851,-22.88896],[-69.31848,-22.88898],[-69.31845,-22.88901],[-69.31839,-22.88907],[-69.31836,-22.8891],[-69.31795,-22.88949],[-69.31714,-22.89027]]}},{"type":"Feature","properties":{"c":"zona","n":"Cementerio Sierra Gorda"},"geometry":{"type":"Polygon","coordinates":[[[-69.31662,-22.89256],[-69.31709,-22.89289],[-69.31629,-22.89385],[-69.31582,-22.89352],[-69.31662,-22.89256]]]}},{"type":"Feature","properties":{"c":"camino","n":"Caracoles"},"geometry":{"type":"LineString","coordinates":[[-69.31993,-22.88968],[-69.31999,-22.88964],[-69.32003,-22.8896],[-69.32008,-22.88959],[-69.32014,-22.88959],[-69.32019,-22.88961],[-69.32022,-22.88964]]}},{"type":"Feature","properties":{"c":"calle","n":"Bolívar"},"geometry":{"type":"LineString","coordinates":[[-69.32098,-22.8905],[-69.32063,-22.89084],[-69.3206,-22.89086],[-69.32057,-22.89089],[-69.32051,-22.89096],[-69.32047,-22.89099],[-69.3203,-22.89115],[-69.32011,-22.89134],[-69.32008,-22.89136],[-69.32005,-22.89139],[-69.3197,-22.89173],[-69.31967,-22.89176],[-69.31964,-22.89179],[-69.31961,-22.89182],[-69.31951,-22.89191],[-69.31946,-22.89196]]}},{"type":"Feature","properties":{"c":"principal","n":"Jaime Guzmán"},"geometry":{"type":"LineString","coordinates":[[-69.31893,-22.88868],[-69.31898,-22.88871],[-69.31946,-22.88921],[-69.31993,-22.88968],[-69.3204,-22.89012],[-69.32098,-22.8905],[-69.32115,-22.89059],[-69.32138,-22.89074],[-69.32198,-22.89127],[-69.32209,-22.89144],[-69.32219,-22.8916],[-69.32243,-22.89199],[-69.32259,-22.89238],[-69.32263,-22.89263]]}},{"type":"Feature","properties":{"c":"calle","n":"Arturo Prat"},"geometry":{"type":"LineString","coordinates":[[-69.31714,-22.89027],[-69.31778,-22.89083],[-69.31827,-22.89127],[-69.31876,-22.8917]]}},{"type":"Feature","properties":{"c":"calle","n":"Diego Portales"},"geometry":{"type":"LineString","coordinates":[[-69.31896,-22.89151],[-69.31946,-22.89196],[-69.32003,-22.89245]]}},{"type":"Feature","properties":{"c":"calle","n":"Santa María"},"geometry":{"type":"LineString","coordinates":[[-69.31988,-22.893],[-69.32003,-22.89245],[-69.32012,-22.89216]]}},{"type":"Feature","properties":{"c":"calle","n":"Jaime Guzmán"},"geometry":{"type":"LineString","coordinates":[[-69.32219,-22.8916],[-69.32214,-22.89168],[-69.32193,-22.89185],[-69.32185,-22.89189],[-69.32173,-22.89189]]}},{"type":"Feature","properties":{"c":"calle","n":"Diego Portales"},"geometry":{"type":"LineString","coordinates":[[-69.31916,-22.89132],[-69.31963,-22.89173],[-69.31967,-22.89176],[-69.31971,-22.8918],[-69.32007,-22.89212],[-69.32012,-22.89216],[-69.32016,-22.8922],[-69.32081,-22.89278]]}},{"type":"Feature","properties":{"c":"calle","n":"Eduardo Frei"},"geometry":{"type":"LineString","coordinates":[[-69.32123,-22.89237],[-69.32057,-22.8918],[-69.32053,-22.89176],[-69.32049,-22.89172],[-69.32011,-22.89139],[-69.32008,-22.89136],[-69.32005,-22.89134],[-69.3196,-22.89094],[-69.31957,-22.89092],[-69.31954,-22.89089],[-69.31913,-22.89052],[-69.31909,-22.89049],[-69.31905,-22.89046],[-69.31865,-22.8901],[-69.31859,-22.89005],[-69.31853,-22.89],[-69.31795,-22.88949]]}},{"type":"Feature","properties":{"c":"calle","n":"Colón"},"geometry":{"type":"LineString","coordinates":[[-69.31778,-22.89083],[-69.31853,-22.89011],[-69.31859,-22.89005],[-69.31865,-22.88999],[-69.31899,-22.88966],[-69.31903,-22.88962],[-69.31908,-22.88958],[-69.31913,-22.88953],[-69.31915,-22.88951],[-69.31946,-22.88921]]}},{"type":"Feature","properties":{"c":"principal","n":"Avenida Salvador Allende"},"geometry":{"type":"LineString","coordinates":[[-69.32173,-22.89189],[-69.32163,-22.89181],[-69.32107,-22.89134],[-69.32102,-22.89129],[-69.32098,-22.89126],[-69.32061,-22.89093],[-69.32057,-22.89089]]}},{"type":"Feature","properties":{"c":"calle","n":"José Santos Ossa"},"geometry":{"type":"LineString","coordinates":[[-69.32046,-22.89312],[-69.31988,-22.893],[-69.31974,-22.89296],[-69.31961,-22.89289],[-69.31853,-22.89193]]}},{"type":"Feature","properties":{"c":"calle","n":"O'Higgins"},"geometry":{"type":"LineString","coordinates":[[-69.3204,-22.89012],[-69.32038,-22.89013],[-69.3201,-22.8904],[-69.32008,-22.89042],[-69.32006,-22.89044],[-69.32003,-22.89047],[-69.32,-22.8905],[-69.31961,-22.89088],[-69.31957,-22.89092],[-69.31954,-22.89095],[-69.31916,-22.89132],[-69.31896,-22.89151],[-69.31876,-22.8917],[-69.31853,-22.89193]]}},{"type":"Feature","properties":{"c":"zona"},"geometry":{"type":"Polygon","coordinates":[[[-69.32227,-22.89095],[-69.31902,-22.88825],[-69.3187,-22.88858],[-69.31898,-22.88873],[-69.31932,-22.88906],[-69.31975,-22.88946],[-69.32034,-22.89002],[-69.3209,-22.89041],[-69.32138,-22.89067],[-69.32202,-22.89123],[-69.32227,-22.89095]]]}},{"type":"Feature","properties":{"c":"zona"},"geometry":{"type":"Polygon","coordinates":[[[-69.31736,-22.88996],[-69.31728,-22.88989],[-69.31701,-22.88963],[-69.31677,-22.88981],[-69.31661,-22.88969],[-69.31645,-22.88982],[-69.3169,-22.89025],[-69.31713,-22.89021],[-69.31783,-22.89082],[-69.31876,-22.89161],[-69.31803,-22.89233],[-69.31881,-22.8934],[-69.31951,-22.89417],[-69.32166,-22.89186],[-69.32204,-22.89147],[-69.32137,-22.89077],[-69.32038,-22.89013],[-69.31886,-22.88873],[-69.31871,-22.88867],[-69.3182,-22.88914],[-69.31736,-22.88996]]]}},{"type":"Feature","properties":{"c":"tren","n":"Ferrocarril de Antofagasta a Bolivia"},"geometry":{"type":"LineString","coordinates":[[-69.2947,-22.87086],[-69.29856,-22.87367],[-69.302,-22.87617],[-69.30576,-22.87889],[-69.30762,-22.88026],[-69.30973,-22.88176],[-69.31229,-22.88363],[-69.31729,-22.88725],[-69.31874,-22.88836],[-69.31898,-22.88854],[-69.3213,-22.89046],[-69.32294,-22.89196],[-69.32421,-22.89327],[-69.32555,-22.89462],[-69.32604,-22.89516],[-69.32663,-22.8958],[-69.3278,-22.89709],[-69.32837,-22.89775],[-69.33693,-22.90968],[-69.34478,-22.92036],[-69.34966,-22.92732],[-69.35019,-22.92814],[-69.35176,-22.9301],[-69.35309,-22.93194],[-69.35479,-22.93424],[-69.3563,-22.93648],[-69.35832,-22.93916],[-69.36251,-22.94491],[-69.36366,-22.94646],[-69.36618,-22.94976],[-69.36906,-22.95376],[-69.37204,-22.95785],[-69.37323,-22.95943],[-69.37522,-22.96215],[-69.37722,-22.96489],[-69.37827,-22.96621],[-69.37866,-22.9667],[-69.37989,-22.9682],[-69.38129,-22.96978],[-69.38304,-22.97182],[-69.38499,-22.97393],[-69.38618,-22.97517],[-69.38899,-22.97804],[-69.39506,-22.98424],[-69.39606,-22.98525],[-69.3984,-22.98764],[-69.40161,-22.99104],[-69.40407,-22.99343],[-69.40606,-22.99546],[-69.40952,-22.99899],[-69.41251,-23.00203],[-69.41567,-23.00537],[-69.41691,-23.00655],[-69.42032,-23.01002],[-69.42188,-23.0116],[-69.42541,-23.0152],[-69.42702,-23.01683],[-69.42767,-23.01752],[-69.42833,-23.0182],[-69.42899,-23.01888],[-69.42966,-23.01955],[-69.43034,-23.02022],[-69.43102,-23.02088],[-69.43177,-23.0216],[-69.43253,-23.02231],[-69.43329,-23.02301],[-69.43407,-23.02371],[-69.43484,-23.0244],[-69.4371,-23.0264],[-69.43888,-23.02797],[-69.44189,-23.03063],[-69.45194,-23.03969],[-69.45247,-23.04017],[-69.47149,-23.05713],[-69.48391,-23.06833],[-69.49567,-23.0787]]}},{"type":"Feature","properties":{"c":"zona"},"geometry":{"type":"Polygon","coordinates":[[[-69.32358,-22.89232],[-69.32396,-22.89243],[-69.32428,-22.89239],[-69.32513,-22.89212],[-69.3256,-22.8919],[-69.32578,-22.89148],[-69.32578,-22.89103],[-69.32541,-22.89051],[-69.32486,-22.88996],[-69.32489,-22.88968],[-69.32497,-22.88944],[-69.32533,-22.88887],[-69.32598,-22.88851],[-69.32608,-22.8884],[-69.32617,-22.88816],[-69.32616,-22.88791],[-69.32609,-22.88779],[-69.3259,-22.88759],[-69.32493,-22.88725],[-69.32457,-22.88718],[-69.32415,-22.88719],[-69.32341,-22.88704],[-69.32254,-22.88701],[-69.32115,-22.88727],[-69.31992,-22.88764],[-69.3194,-22.88789],[-69.31904,-22.88824],[-69.32063,-22.88958],[-69.32225,-22.89091],[-69.32254,-22.89131],[-69.32302,-22.89187],[-69.32358,-22.89232]]]}},{"type":"Feature","properties":{"c":"camino"},"geometry":{"type":"LineString","coordinates":[[-69.3127,-22.8816],[-69.31237,-22.88134],[-69.31194,-22.88131],[-69.3116,-22.88136],[-69.31152,-22.88153],[-69.31161,-22.88173],[-69.3118,-22.88192],[-69.31195,-22.88206],[-69.31219,-22.8821],[-69.31228,-22.88202],[-69.31259,-22.88176],[-69.3127,-22.8816],[-69.31314,-22.88097],[-69.31414,-22.88029],[-69.31668,-22.87894],[-69.31708,-22.87875],[-69.3189,-22.87786],[-69.31915,-22.87774],[-69.31952,-22.87758],[-69.32178,-22.87662],[-69.32243,-22.87624],[-69.32342,-22.87549],[-69.32377,-22.87526],[-69.32632,-22.87387]]}},{"type":"Feature","properties":{"c":"camino"},"geometry":{"type":"LineString","coordinates":[[-69.33714,-22.87885],[-69.3361,-22.88077],[-69.33602,-22.88098],[-69.33557,-22.8817],[-69.3348,-22.88203],[-69.33271,-22.88203],[-69.33204,-22.88224],[-69.33103,-22.883],[-69.32987,-22.88451],[-69.32679,-22.88708],[-69.32599,-22.88746],[-69.32557,-22.88775],[-69.32506,-22.88767],[-69.32427,-22.88755],[-69.3237,-22.88734],[-69.32322,-22.88719],[-69.32302,-22.88687],[-69.32285,-22.88653],[-69.32264,-22.88601],[-69.32246,-22.88528],[-69.32213,-22.88474],[-69.32151,-22.88397],[-69.32134,-22.88355],[-69.32131,-22.88306],[-69.32111,-22.88272],[-69.32111,-22.88253],[-69.32136,-22.88103],[-69.32126,-22.88076],[-69.32083,-22.88025],[-69.32038,-22.87999],[-69.3199,-22.87936],[-69.31937,-22.87822],[-69.31939,-22.87806],[-69.31952,-22.87758],[-69.31837,-22.87588],[-69.31809,-22.87581],[-69.31718,-22.87559],[-69.3169,-22.87553],[-69.31672,-22.8754],[-69.3165,-22.87513]]}},{"type":"Feature","properties":{"c":"camino"},"geometry":{"type":"LineString","coordinates":[[-69.3224,-22.88417],[-69.32236,-22.88468],[-69.32246,-22.88528]]}},{"type":"Feature","properties":{"c":"principal","n":"Ruta 25"},"geometry":{"type":"LineString","coordinates":[[-69.2157,-22.75787],[-69.21482,-22.75981],[-69.21471,-22.76009],[-69.2146,-22.76037],[-69.2145,-22.76065],[-69.21441,-22.76094],[-69.21433,-22.76123],[-69.21425,-22.76152],[-69.21419,-22.76181],[-69.21413,-22.7621],[-69.21408,-22.7624],[-69.21404,-22.7627],[-69.214,-22.763],[-69.21398,-22.76329],[-69.21396,-22.76359],[-69.21395,-22.76389],[-69.21394,-22.76484],[-69.21396,-22.77764],[-69.21398,-22.77838],[-69.214,-22.77895],[-69.21403,-22.77944],[-69.21406,-22.77992],[-69.21411,-22.78036],[-69.21417,-22.78079],[-69.21423,-22.78121],[-69.21431,-22.78163],[-69.21439,-22.78205],[-69.21448,-22.78247],[-69.21458,-22.78288],[-69.21469,-22.7833],[-69.21481,-22.78371],[-69.21493,-22.78412],[-69.21643,-22.78898],[-69.21696,-22.7907],[-69.21815,-22.79454],[-69.21886,-22.7968],[-69.21901,-22.79726],[-69.21916,-22.79772],[-69.21932,-22.79818],[-69.21949,-22.79863],[-69.21967,-22.79908],[-69.21986,-22.79956],[-69.22006,-22.80004],[-69.22028,-22.80052],[-69.22053,-22.80101],[-69.22078,-22.80148],[-69.22104,-22.80196],[-69.22139,-22.80256],[-69.22875,-22.81519],[-69.22906,-22.81567],[-69.22937,-22.81614],[-69.22969,-22.81661],[-69.23002,-22.81708],[-69.23036,-22.81754],[-69.23071,-22.81799],[-69.23106,-22.81844],[-69.23139,-22.81885],[-69.23181,-22.81936],[-69.23207,-22.81965],[-69.23256,-22.82024],[-69.23338,-22.82123],[-69.23528,-22.82357],[-69.23956,-22.82876],[-69.23997,-22.82925],[-69.2403,-22.82964],[-69.24072,-22.83016],[-69.24113,-22.83062],[-69.24156,-22.8311],[-69.25071,-22.84146],[-69.25099,-22.84175],[-69.25128,-22.84207],[-69.25155,-22.84238],[-69.25187,-22.8427],[-69.2522,-22.84302],[-69.25251,-22.84332],[-69.25289,-22.84366],[-69.25327,-22.84399],[-69.25366,-22.84432],[-69.25403,-22.84465],[-69.2544,-22.84495],[-69.25494,-22.84536],[-69.25557,-22.84582],[-69.26086,-22.84954],[-69.27055,-22.85634],[-69.27338,-22.85831],[-69.27458,-22.85914],[-69.29045,-22.86929],[-69.29278,-22.87078],[-69.29603,-22.87283],[-69.29653,-22.87322],[-69.29679,-22.87346],[-69.29705,-22.8737],[-69.29733,-22.87397],[-69.29761,-22.87425],[-69.29785,-22.87455],[-69.29809,-22.87486],[-69.29833,-22.87518],[-69.29855,-22.87549],[-69.2987,-22.87574],[-69.29883,-22.87598],[-69.29895,-22.87623],[-69.29907,-22.87649],[-69.29917,-22.87674],[-69.29927,-22.87699],[-69.29936,-22.87725],[-69.29944,-22.8775],[-69.29961,-22.87822],[-69.30032,-22.88215],[-69.30075,-22.88455],[-69.30133,-22.88778],[-69.30151,-22.88845],[-69.30161,-22.88879],[-69.30178,-22.88924],[-69.30189,-22.88948],[-69.302,-22.88972],[-69.30212,-22.88995],[-69.30225,-22.89017],[-69.30237,-22.89039],[-69.30251,-22.8906],[-69.30266,-22.89081],[-69.30282,-22.89102],[-69.30299,-22.89122],[-69.30313,-22.89139],[-69.30327,-22.89155],[-69.30342,-22.89171],[-69.30358,-22.89186],[-69.30416,-22.89239],[-69.30645,-22.89451],[-69.30933,-22.89712],[-69.31062,-22.89831],[-69.31743,-22.90458],[-69.31775,-22.90487],[-69.3183,-22.9053],[-69.31891,-22.90571],[-69.31916,-22.90586],[-69.3194,-22.90599],[-69.31965,-22.90612],[-69.31991,-22.90624],[-69.32017,-22.90636],[-69.32043,-22.90647],[-69.32071,-22.90657],[-69.32098,-22.90667],[-69.32127,-22.90676],[-69.32155,-22.90684],[-69.32184,-22.90692],[-69.32212,-22.90698],[-69.32241,-22.90704],[-69.32271,-22.90709],[-69.323,-22.90713],[-69.32394,-22.90721],[-69.32531,-22.90727],[-69.32764,-22.90736],[-69.32979,-22.90741],[-69.3306,-22.90748],[-69.33089,-22.90752],[-69.33117,-22.90757],[-69.33146,-22.90762],[-69.33174,-22.90768],[-69.33203,-22.90774],[-69.33233,-22.90782],[-69.33262,-22.90791],[-69.33291,-22.908],[-69.33319,-22.9081],[-69.33347,-22.9082],[-69.33371,-22.9083],[-69.33393,-22.9084],[-69.33416,-22.90851],[-69.33438,-22.90862],[-69.33456,-22.90872],[-69.33473,-22.90882],[-69.3349,-22.90892],[-69.33534,-22.90921],[-69.33558,-22.90936],[-69.33581,-22.90953],[-69.33604,-22.9097],[-69.33625,-22.90987],[-69.33647,-22.91006],[-69.33661,-22.91019],[-69.33675,-22.91033]]}},{"type":"Feature","properties":{"c":"camino"},"geometry":{"type":"LineString","coordinates":[[-69.3239,-22.89945],[-69.32403,-22.89992],[-69.3242,-22.90056],[-69.32427,-22.90081],[-69.32425,-22.90097],[-69.32411,-22.90114],[-69.32325,-22.90164],[-69.32167,-22.90257],[-69.31974,-22.90369],[-69.31804,-22.90469]]}},{"type":"Feature","properties":{"c":"edificio"},"geometry":{"type":"Polygon","coordinates":[[[-69.32047,-22.88993],[-69.3202,-22.8897],[-69.32025,-22.88964],[-69.32053,-22.88987],[-69.32047,-22.88993]]]}},{"type":"Feature","properties":{"c":"edificio"},"geometry":{"type":"Polygon","coordinates":[[[-69.31741,-22.89161],[-69.31737,-22.89155],[-69.31733,-22.89158],[-69.31738,-22.89163],[-69.31741,-22.89161]]]}},{"type":"Feature","properties":{"c":"edificio"},"geometry":{"type":"Polygon","coordinates":[[[-69.31738,-22.89164],[-69.3171,-22.89182],[-69.31706,-22.89176],[-69.31705,-22.89175],[-69.31732,-22.89156],[-69.31733,-22.89158],[-69.31738,-22.89163],[-69.31738,-22.89164]]]}},{"type":"Feature","properties":{"c":"edificio"},"geometry":{"type":"Polygon","coordinates":[[[-69.31701,-22.89179],[-69.31706,-22.89176],[-69.3171,-22.89182],[-69.31706,-22.89185],[-69.31701,-22.89179]]]}},{"type":"Feature","properties":{"c":"edificio"},"geometry":{"type":"Polygon","coordinates":[[[-69.32061,-22.89141],[-69.32052,-22.8915],[-69.32034,-22.89134],[-69.32043,-22.89125],[-69.32061,-22.89141]]]}},{"type":"Feature","properties":{"c":"camino"},"geometry":{"type":"LineString","coordinates":[[-69.3173,-22.89313],[-69.31755,-22.89343],[-69.31788,-22.89381],[-69.31828,-22.8943]]}},{"type":"Feature","properties":{"c":"principal","n":"Camino a Oficina Lina"},"geometry":{"type":"LineString","coordinates":[[-69.31866,-22.88845],[-69.31872,-22.88839],[-69.31874,-22.88836],[-69.31888,-22.8882],[-69.31913,-22.88796]]}},{"type":"Feature","properties":{"c":"edificio"},"geometry":{"type":"Polygon","coordinates":[[[-69.31709,-22.89217],[-69.317,-22.89207],[-69.31709,-22.89196],[-69.31719,-22.89189],[-69.3173,-22.89185],[-69.31741,-22.89183],[-69.31751,-22.89184],[-69.31756,-22.89188],[-69.31709,-22.89217]]]}},{"type":"Feature","properties":{"c":"edificio"},"geometry":{"type":"Polygon","coordinates":[[[-69.31962,-22.8906],[-69.31969,-22.89066],[-69.31987,-22.89049],[-69.31969,-22.89032],[-69.31962,-22.89039],[-69.31973,-22.89049],[-69.31962,-22.8906]]]}},{"type":"Feature","properties":{"c":"calle","n":"Santa María"},"geometry":{"type":"LineString","coordinates":[[-69.31988,-22.893],[-69.31946,-22.89342],[-69.31937,-22.89351],[-69.31937,-22.89359],[-69.31965,-22.89384]]}},{"type":"Feature","properties":{"c":"calle","n":"Jaime Guzmán"},"geometry":{"type":"LineString","coordinates":[[-69.32046,-22.89312],[-69.31977,-22.89385],[-69.31971,-22.89386],[-69.31965,-22.89384]]}},{"type":"Feature","properties":{"c":"calle"},"geometry":{"type":"LineString","coordinates":[[-69.31946,-22.89342],[-69.31817,-22.89229]]}},{"type":"Feature","properties":{"c":"calle"},"geometry":{"type":"LineString","coordinates":[[-69.31942,-22.88768],[-69.31948,-22.88769],[-69.31954,-22.88771],[-69.31966,-22.88781],[-69.31993,-22.88808],[-69.32025,-22.88838],[-69.32026,-22.8884],[-69.32025,-22.88842]]}},{"type":"Feature","properties":{"c":"calle"},"geometry":{"type":"LineString","coordinates":[[-69.31888,-22.8882],[-69.31913,-22.88824],[-69.3193,-22.88828],[-69.31955,-22.88838],[-69.31985,-22.88851],[-69.31996,-22.88853],[-69.32005,-22.88852],[-69.32014,-22.8885],[-69.32025,-22.88842]]}},{"type":"Feature","properties":{"c":"edificio","n":"Posta de Salud Rural PSR de Sierra Gorda"},"geometry":{"type":"Polygon","coordinates":[[[-69.32116,-22.89076],[-69.32106,-22.89067],[-69.32092,-22.89081],[-69.32098,-22.89086],[-69.32102,-22.89082],[-69.32103,-22.89083],[-69.32106,-22.8908],[-69.32105,-22.89079],[-69.32108,-22.89077],[-69.32111,-22.8908],[-69.32116,-22.89076]]]}},{"type":"Feature","properties":{"c":"edificio","n":"Reten Sierra Gorda"},"geometry":{"type":"Polygon","coordinates":[[[-69.3208,-22.89127],[-69.32068,-22.89139],[-69.32074,-22.89144],[-69.32086,-22.89132],[-69.3208,-22.89127]]]}},{"type":"Feature","properties":{"c":"principal"},"geometry":{"type":"LineString","coordinates":[[-69.31293,-22.88331],[-69.31287,-22.88329],[-69.31281,-22.88329],[-69.31276,-22.88328],[-69.3127,-22.88328],[-69.31263,-22.88329],[-69.31257,-22.88331]]}},{"type":"Feature","properties":{"c":"principal"},"geometry":{"type":"LineString","coordinates":[[-69.31257,-22.88331],[-69.31258,-22.88326],[-69.31259,-22.88321],[-69.31258,-22.88315],[-69.31258,-22.8831],[-69.31257,-22.88306],[-69.31255,-22.88301]]}},{"type":"Feature","properties":{"c":"principal"},"geometry":{"type":"LineString","coordinates":[[-69.31413,-22.88422],[-69.31383,-22.884],[-69.31332,-22.88361],[-69.31307,-22.88342],[-69.31293,-22.88331]]}},{"type":"Feature","properties":{"c":"principal","n":"Ruta 25"},"geometry":{"type":"LineString","coordinates":[[-69.31366,-22.88374],[-69.31388,-22.88391],[-69.31441,-22.88431],[-69.31482,-22.88464],[-69.31499,-22.88478]]}},{"type":"Feature","properties":{"c":"principal"},"geometry":{"type":"LineString","coordinates":[[-69.31729,-22.88725],[-69.31721,-22.88712],[-69.31709,-22.88692],[-69.31689,-22.8866],[-69.31664,-22.88623],[-69.31653,-22.8861],[-69.31642,-22.88597],[-69.3163,-22.88584],[-69.31618,-22.88572],[-69.31604,-22.88559],[-69.31589,-22.88547],[-69.31556,-22.88521],[-69.31499,-22.88478]]}},{"type":"Feature","properties":{"c":"calle","n":"Eleuterio Ramírez"},"geometry":{"type":"LineString","coordinates":[[-69.31565,-22.89142],[-69.31592,-22.89123],[-69.31618,-22.89104],[-69.31644,-22.89084],[-69.31679,-22.89056],[-69.31714,-22.89027]]}},{"type":"Feature","properties":{"c":"calle"},"geometry":{"type":"LineString","coordinates":[[-69.31635,-22.89236],[-69.31565,-22.89142]]}},{"type":"Feature","properties":{"c":"calle","n":"O'Higgins"},"geometry":{"type":"LineString","coordinates":[[-69.31715,-22.89233],[-69.31702,-22.89236],[-69.31696,-22.89235],[-69.3169,-22.89229],[-69.31679,-22.89216],[-69.31674,-22.89214],[-69.31668,-22.89215],[-69.31635,-22.89236]]}},{"type":"Feature","properties":{"c":"camino"},"geometry":{"type":"LineString","coordinates":[[-69.32094,-22.88907],[-69.32039,-22.88851],[-69.32025,-22.88842]]}},{"type":"Feature","properties":{"c":"calle","n":"O'Higgins"},"geometry":{"type":"LineString","coordinates":[[-69.3173,-22.89313],[-69.3179,-22.89255],[-69.31817,-22.89229],[-69.31838,-22.89208],[-69.31845,-22.89201],[-69.31853,-22.89193]]}},{"type":"Feature","properties":{"c":"principal","n":"Camino a Oficina Lina"},"geometry":{"type":"LineString","coordinates":[[-69.49885,-22.75778],[-69.49852,-22.75771],[-69.49786,-22.75759],[-69.49729,-22.75751],[-69.49674,-22.75743],[-69.49558,-22.75729],[-69.49521,-22.75724],[-69.49505,-22.75721],[-69.49488,-22.75718],[-69.49473,-22.75715],[-69.49458,-22.75711],[-69.49443,-22.75707],[-69.49383,-22.75688],[-69.49278,-22.75658],[-69.49187,-22.75634],[-69.49166,-22.75628],[-69.49146,-22.75622],[-69.49125,-22.75615],[-69.49105,-22.75607],[-69.49084,-22.75599],[-69.49064,-22.75591],[-69.49001,-22.75558],[-69.48979,-22.75547],[-69.48956,-22.75536],[-69.48935,-22.75527],[-69.48913,-22.75518],[-69.48726,-22.75451],[-69.48716,-22.75447],[-69.48705,-22.75444],[-69.48694,-22.75442],[-69.48683,-22.7544],[-69.48672,-22.7544],[-69.48661,-22.7544],[-69.48651,-22.75441],[-69.4864,-22.75442],[-69.48594,-22.7545],[-69.48562,-22.75457],[-69.48528,-22.75467],[-69.48408,-22.75504],[-69.48311,-22.75534],[-69.48302,-22.75536],[-69.48294,-22.75538],[-69.48285,-22.7554],[-69.48276,-22.75541],[-69.48267,-22.75541],[-69.48255,-22.75541],[-69.481,-22.75527],[-69.4809,-22.75525],[-69.48081,-22.75524],[-69.48073,-22.75521],[-69.48065,-22.75518],[-69.48057,-22.75514],[-69.47978,-22.75477],[-69.47964,-22.75471],[-69.47948,-22.75466],[-69.47935,-22.75462],[-69.47922,-22.75459],[-69.47909,-22.75456],[-69.47883,-22.75453],[-69.47808,-22.75447],[-69.47733,-22.75443],[-69.4769,-22.75441],[-69.47617,-22.75435],[-69.47553,-22.75427],[-69.47542,-22.75426],[-69.47531,-22.75425],[-69.4752,-22.75425],[-69.47511,-22.75426],[-69.47501,-22.75427],[-69.47492,-22.75429],[-69.47475,-22.75433],[-69.47396,-22.75461],[-69.47257,-22.75509],[-69.47227,-22.75521],[-69.47183,-22.75541],[-69.47141,-22.75562],[-69.47091,-22.75589],[-69.4708,-22.75595],[-69.47068,-22.756],[-69.47057,-22.75605],[-69.47045,-22.7561],[-69.47033,-22.75614],[-69.4702,-22.75618],[-69.46997,-22.75622],[-69.46917,-22.75636],[-69.46904,-22.75639],[-69.46894,-22.75641],[-69.46884,-22.75643],[-69.46875,-22.75646],[-69.46865,-22.7565],[-69.46856,-22.75655],[-69.46847,-22.7566],[-69.46832,-22.75667],[-69.46815,-22.75674],[-69.46777,-22.75685],[-69.46737,-22.75697],[-69.46703,-22.75706],[-69.46666,-22.75714],[-69.46629,-22.75718],[-69.46581,-22.75722],[-69.46563,-22.75725],[-69.46545,-22.75729],[-69.46532,-22.75733],[-69.46518,-22.75737],[-69.46505,-22.75741],[-69.46495,-22.75746],[-69.46484,-22.7575],[-69.46474,-22.75756],[-69.46461,-22.75764],[-69.46447,-22.75772],[-69.46429,-22.75786],[-69.46422,-22.75791],[-69.46416,-22.75797],[-69.4641,-22.75804],[-69.46405,-22.75812],[-69.464,-22.7582],[-69.46396,-22.75828],[-69.46393,-22.75838],[-69.46369,-22.75933],[-69.46313,-22.76142],[-69.46284,-22.76249],[-69.4625,-22.76371],[-69.46221,-22.76467],[-69.46185,-22.76582],[-69.46156,-22.76671],[-69.46131,-22.76752],[-69.46127,-22.76767],[-69.46124,-22.76782],[-69.46123,-22.76794],[-69.46122,-22.76806],[-69.46122,-22.76818],[-69.46121,-22.76925],[-69.46122,-22.76941],[-69.46123,-22.76957],[-69.46126,-22.76973],[-69.46129,-22.7699],[-69.46141,-22.77048],[-69.46143,-22.77057],[-69.46143,-22.77067],[-69.46144,-22.77076],[-69.46143,-22.77086],[-69.46142,-22.77096],[-69.4614,-22.77107],[-69.46138,-22.77117],[-69.46125,-22.77173],[-69.46108,-22.77238],[-69.46081,-22.77338],[-69.46059,-22.7742],[-69.46053,-22.77441],[-69.46048,-22.77462],[-69.46043,-22.77489],[-69.46038,-22.77515],[-69.46023,-22.77611],[-69.45998,-22.77735],[-69.45993,-22.77765],[-69.45988,-22.77795],[-69.45984,-22.77825],[-69.45982,-22.77855],[-69.45977,-22.77911],[-69.45975,-22.77937],[-69.45975,-22.77943],[-69.45974,-22.7795],[-69.45972,-22.77956],[-69.4597,-22.77964],[-69.45966,-22.77971],[-69.45961,-22.7798],[-69.45947,-22.77998],[-69.45923,-22.78028],[-69.45882,-22.78076],[-69.45723,-22.78271],[-69.45606,-22.78417],[-69.45539,-22.78498],[-69.45497,-22.78553],[-69.45336,-22.78729],[-69.45282,-22.78792],[-69.4509,-22.79005],[-69.45053,-22.79048],[-69.45025,-22.79082],[-69.44999,-22.79113],[-69.4498,-22.79137],[-69.44916,-22.79221],[-69.44897,-22.79243],[-69.44874,-22.79269],[-69.44833,-22.79314],[-69.44806,-22.79344],[-69.44779,-22.79373],[-69.4476,-22.79392],[-69.44741,-22.79411],[-69.44717,-22.79433],[-69.44691,-22.79457],[-69.44645,-22.79497],[-69.44608,-22.79533],[-69.44588,-22.79553],[-69.44574,-22.79568],[-69.4456,-22.79583],[-69.44546,-22.79599],[-69.44532,-22.79615],[-69.44519,-22.79632],[-69.44496,-22.79662],[-69.44474,-22.79692],[-69.44454,-22.7972],[-69.44435,-22.79748],[-69.44398,-22.79808],[-69.44368,-22.79853],[-69.44312,-22.79936],[-69.44283,-22.79977],[-69.44255,-22.80017],[-69.44222,-22.8007],[-69.44195,-22.80114],[-69.44176,-22.80143],[-69.44156,-22.80171],[-69.44145,-22.80186],[-69.44133,-22.802],[-69.44121,-22.80214],[-69.4411,-22.80225],[-69.441,-22.80236],[-69.4408,-22.80254],[-69.44059,-22.80272],[-69.44044,-22.80285],[-69.44028,-22.80298],[-69.44013,-22.8031],[-69.43998,-22.80323],[-69.43979,-22.8034],[-69.43962,-22.80357],[-69.43846,-22.80473],[-69.43792,-22.80524],[-69.43716,-22.80584],[-69.43629,-22.80648],[-69.43563,-22.80684],[-69.43482,-22.80713],[-69.43454,-22.80728],[-69.43378,-22.80786],[-69.43268,-22.80859],[-69.432,-22.80898],[-69.43157,-22.80918],[-69.43038,-22.80948],[-69.42984,-22.80955],[-69.42941,-22.80954],[-69.42914,-22.80948],[-69.42806,-22.80903],[-69.42673,-22.80852],[-69.42542,-22.80798],[-69.42483,-22.80785],[-69.4242,-22.80775],[-69.42366,-22.8077],[-69.42243,-22.8077],[-69.42178,-22.80766],[-69.42139,-22.80758],[-69.42103,-22.80746],[-69.42061,-22.80727],[-69.41966,-22.80675],[-69.41916,-22.80654],[-69.41879,-22.80643],[-69.41823,-22.80635],[-69.41492,-22.80609],[-69.41228,-22.80646],[-69.41061,-22.80624],[-69.40891,-22.80622],[-69.40801,-22.80627],[-69.40651,-22.80653],[-69.4056,-22.80644],[-69.40458,-22.8062],[-69.40333,-22.80611],[-69.40262,-22.80608],[-69.40228,-22.80602],[-69.40195,-22.80588],[-69.40172,-22.80566],[-69.40159,-22.80508],[-69.4012,-22.80348],[-69.40047,-22.80188],[-69.39992,-22.8008],[-69.39982,-22.80063],[-69.39971,-22.80046],[-69.39959,-22.8003],[-69.39948,-22.80016],[-69.39937,-22.80002],[-69.39925,-22.79989],[-69.39911,-22.79976],[-69.39897,-22.79963],[-69.39883,-22.79951],[-69.39869,-22.79939],[-69.39854,-22.79928],[-69.39839,-22.79917],[-69.39828,-22.7991],[-69.39816,-22.79903],[-69.39805,-22.79896],[-69.3979,-22.79889],[-69.39775,-22.79882],[-69.3976,-22.79876],[-69.39698,-22.79851],[-69.39539,-22.79791],[-69.3911,-22.7962],[-69.38797,-22.79503],[-69.38767,-22.79494],[-69.38736,-22.79489],[-69.38647,-22.79477],[-69.38552,-22.7948],[-69.38427,-22.79507],[-69.37403,-22.79796],[-69.37308,-22.79814],[-69.37178,-22.79829],[-69.36239,-22.79925],[-69.35735,-22.79969],[-69.35296,-22.80014],[-69.35124,-22.80047],[-69.34875,-22.80102],[-69.34845,-22.80108],[-69.34443,-22.80202],[-69.34317,-22.80236],[-69.34207,-22.80288],[-69.33873,-22.80438],[-69.33796,-22.80489],[-69.33739,-22.8054],[-69.33689,-22.80588],[-69.33476,-22.80842],[-69.3343,-22.80875],[-69.33383,-22.80905],[-69.33209,-22.81012],[-69.33113,-22.81052],[-69.33016,-22.81089],[-69.32927,-22.81118],[-69.32696,-22.81183],[-69.32612,-22.81199],[-69.32523,-22.81198],[-69.32461,-22.81178],[-69.32359,-22.8113],[-69.32273,-22.81077],[-69.32204,-22.81025],[-69.3216,-22.81008],[-69.32103,-22.81011],[-69.32031,-22.81035],[-69.31959,-22.81054],[-69.31891,-22.8106],[-69.31813,-22.81068],[-69.31744,-22.81089],[-69.31696,-22.81124],[-69.31667,-22.81166],[-69.31651,-22.81225],[-69.3165,-22.81298],[-69.31665,-22.81405],[-69.31694,-22.81473],[-69.31741,-22.81573],[-69.31738,-22.81644],[-69.31695,-22.81701],[-69.31587,-22.81773],[-69.31569,-22.81791],[-69.31538,-22.81832],[-69.31529,-22.81879],[-69.31516,-22.82213],[-69.31525,-22.82273],[-69.3156,-22.82357],[-69.31597,-22.82436],[-69.3161,-22.82499],[-69.31625,-22.82578],[-69.31674,-22.82749],[-69.31667,-22.828],[-69.31632,-22.82849],[-69.31568,-22.82886],[-69.31514,-22.82933],[-69.3149,-22.82978],[-69.31478,-22.83032],[-69.31426,-22.83274],[-69.31383,-22.83461],[-69.3137,-22.83518],[-69.31326,-22.83696],[-69.31141,-22.84299],[-69.31013,-22.8472],[-69.30975,-22.84853],[-69.30921,-22.84974],[-69.30877,-22.85092],[-69.30871,-22.85115],[-69.30865,-22.85138],[-69.30861,-22.85162],[-69.30857,-22.85185],[-69.30854,-22.85209],[-69.30852,-22.85233],[-69.30852,-22.85257],[-69.30852,-22.8528],[-69.30853,-22.85304],[-69.30855,-22.85327],[-69.30858,-22.8535],[-69.30861,-22.85373],[-69.30866,-22.85396],[-69.30871,-22.85418],[-69.30878,-22.8544],[-69.30885,-22.85463],[-69.30893,-22.85484],[-69.30902,-22.85506],[-69.31008,-22.8571],[-69.31221,-22.86102],[-69.31228,-22.86117],[-69.31235,-22.86132],[-69.3124,-22.86148],[-69.31244,-22.86161],[-69.31247,-22.86174],[-69.3125,-22.86187],[-69.31252,-22.862],[-69.31262,-22.86252],[-69.31268,-22.86268],[-69.31276,-22.86283],[-69.31284,-22.86298],[-69.31293,-22.86312],[-69.31303,-22.86327],[-69.31313,-22.8634],[-69.31325,-22.86355],[-69.31338,-22.8637],[-69.31352,-22.86383],[-69.31366,-22.864],[-69.31379,-22.86416],[-69.31391,-22.86434],[-69.31403,-22.86451],[-69.31413,-22.86469],[-69.31423,-22.86488],[-69.31433,-22.86506],[-69.31441,-22.86525],[-69.31448,-22.86544],[-69.31455,-22.86562],[-69.31461,-22.8658],[-69.31466,-22.86599],[-69.3147,-22.86618],[-69.31473,-22.86637],[-69.31476,-22.86656],[-69.31478,-22.86675],[-69.315,-22.8698],[-69.3151,-22.8707],[-69.3162,-22.87515],[-69.31624,-22.87528],[-69.31629,-22.87541],[-69.31634,-22.87554],[-69.31641,-22.87566],[-69.31648,-22.87579],[-69.31656,-22.8759],[-69.31664,-22.87602],[-69.31674,-22.87613],[-69.31684,-22.87624],[-69.31695,-22.87634],[-69.31707,-22.87643],[-69.31719,-22.87652],[-69.31732,-22.8766],[-69.31746,-22.87667],[-69.31759,-22.87674],[-69.31849,-22.87739],[-69.3186,-22.8775],[-69.31871,-22.87762],[-69.3188,-22.87774],[-69.3189,-22.87786],[-69.31899,-22.87799],[-69.31907,-22.87812],[-69.31916,-22.87827],[-69.31924,-22.87843],[-69.31931,-22.87858],[-69.31938,-22.87874],[-69.31943,-22.8789],[-69.31948,-22.87907],[-69.31952,-22.87923],[-69.31956,-22.8794],[-69.31965,-22.87974],[-69.32021,-22.88181],[-69.32078,-22.88392],[-69.32082,-22.88411],[-69.32085,-22.88429],[-69.32087,-22.88447],[-69.32089,-22.88466],[-69.32089,-22.88484],[-69.32088,-22.88503],[-69.32086,-22.88521],[-69.32083,-22.8854],[-69.3208,-22.88556],[-69.32076,-22.88572],[-69.32071,-22.88588],[-69.32066,-22.88604],[-69.3206,-22.88619],[-69.32053,-22.88634],[-69.32045,-22.88649],[-69.32037,-22.88664],[-69.32027,-22.88678],[-69.32018,-22.88692],[-69.32007,-22.88705]]}},{"type":"Feature","properties":{"c":"principal","n":"Camino a Oficina Lina"},"geometry":{"type":"LineString","coordinates":[[-69.31913,-22.88796],[-69.31928,-22.88781],[-69.31942,-22.88768],[-69.32007,-22.88705]]}},{"type":"Feature","properties":{"c":"camino"},"geometry":{"type":"LineString","coordinates":[[-69.32288,-22.88317],[-69.32438,-22.88101],[-69.32697,-22.87599],[-69.32816,-22.8743]]}},{"type":"Feature","properties":{"c":"camino"},"geometry":{"type":"LineString","coordinates":[[-69.32007,-22.88705],[-69.32168,-22.88539],[-69.32213,-22.88474],[-69.3224,-22.88417],[-69.32288,-22.88317]]}},{"type":"Feature","properties":{"c":"camino"},"geometry":{"type":"LineString","coordinates":[[-69.31219,-22.8821],[-69.3123,-22.88239],[-69.3124,-22.88248],[-69.31282,-22.88287],[-69.31377,-22.88357],[-69.31612,-22.88536],[-69.31676,-22.8859],[-69.3168,-22.88595],[-69.31685,-22.88602],[-69.31688,-22.88605],[-69.31692,-22.88606]]}},{"type":"Feature","properties":{"c":"calle","n":"O'Higgins"},"geometry":{"type":"LineString","coordinates":[[-69.31845,-22.89201],[-69.31827,-22.89184],[-69.31816,-22.89179],[-69.31801,-22.89183],[-69.31715,-22.89233],[-69.31701,-22.89258]]}},{"type":"Feature","properties":{"c":"calle","n":"Caracoles"},"geometry":{"type":"LineString","coordinates":[[-69.31827,-22.89127],[-69.31906,-22.89052],[-69.31909,-22.89049],[-69.31912,-22.89045],[-69.3195,-22.89009],[-69.31954,-22.89006],[-69.31957,-22.89002]]}},{"type":"Feature","properties":{"c":"edificio"},"geometry":{"type":"Polygon","coordinates":[[[-69.31984,-22.89243],[-69.31979,-22.89239],[-69.31967,-22.89251],[-69.31972,-22.89255],[-69.31984,-22.89243]]]}},{"type":"Feature","properties":{"c":"edificio"},"geometry":{"type":"Polygon","coordinates":[[[-69.32057,-22.88846],[-69.32054,-22.88845],[-69.32052,-22.88856],[-69.32059,-22.88857],[-69.32061,-22.88846],[-69.32063,-22.88847],[-69.32064,-22.88839],[-69.32067,-22.8884],[-69.32069,-22.88829],[-69.32063,-22.88828],[-69.32061,-22.88839],[-69.32059,-22.88838],[-69.32057,-22.88846]]]}},{"type":"Feature","properties":{"c":"edificio"},"geometry":{"type":"Polygon","coordinates":[[[-69.32065,-22.88853],[-69.32062,-22.88853],[-69.3206,-22.88864],[-69.32067,-22.88865],[-69.32069,-22.88854],[-69.32071,-22.88854],[-69.32072,-22.88847],[-69.32075,-22.88848],[-69.32077,-22.88837],[-69.32071,-22.88836],[-69.32068,-22.88846],[-69.32067,-22.88846],[-69.32065,-22.88853]]]}},{"type":"Feature","properties":{"c":"edificio"},"geometry":{"type":"Polygon","coordinates":[[[-69.32073,-22.88861],[-69.3207,-22.8886],[-69.32068,-22.88871],[-69.32075,-22.88872],[-69.32077,-22.88862],[-69.32079,-22.88862],[-69.3208,-22.88855],[-69.32083,-22.88855],[-69.32085,-22.88844],[-69.32079,-22.88843],[-69.32076,-22.88854],[-69.32075,-22.88853],[-69.32073,-22.88861]]]}},{"type":"Feature","properties":{"c":"edificio"},"geometry":{"type":"Polygon","coordinates":[[[-69.3208,-22.88868],[-69.32077,-22.88868],[-69.32075,-22.88878],[-69.32082,-22.8888],[-69.32084,-22.88869],[-69.32086,-22.88869],[-69.32088,-22.88862],[-69.3209,-22.88862],[-69.32092,-22.88852],[-69.32086,-22.88851],[-69.32084,-22.88861],[-69.32082,-22.88861],[-69.3208,-22.88868]]]}},{"type":"Feature","properties":{"c":"edificio"},"geometry":{"type":"Polygon","coordinates":[[[-69.32088,-22.88876],[-69.32085,-22.88875],[-69.32083,-22.88886],[-69.3209,-22.88887],[-69.32092,-22.88876],[-69.32094,-22.88877],[-69.32096,-22.88869],[-69.32098,-22.8887],[-69.321,-22.88859],[-69.32094,-22.88858],[-69.32092,-22.88869],[-69.3209,-22.88868],[-69.32088,-22.88876]]]}},{"type":"Feature","properties":{"c":"edificio"},"geometry":{"type":"Polygon","coordinates":[[[-69.32096,-22.88883],[-69.32093,-22.88882],[-69.32091,-22.88893],[-69.32098,-22.88894],[-69.321,-22.88884],[-69.32102,-22.88884],[-69.32104,-22.88877],[-69.32106,-22.88877],[-69.32108,-22.88866],[-69.32102,-22.88865],[-69.321,-22.88876],[-69.32098,-22.88876],[-69.32096,-22.88883]]]}},{"type":"Feature","properties":{"c":"edificio"},"geometry":{"type":"Polygon","coordinates":[[[-69.32104,-22.88891],[-69.32101,-22.8889],[-69.32098,-22.88901],[-69.32105,-22.88902],[-69.32108,-22.88892],[-69.3211,-22.88892],[-69.32111,-22.88885],[-69.32113,-22.88885],[-69.32116,-22.88874],[-69.3211,-22.88873],[-69.32107,-22.88884],[-69.32105,-22.88883],[-69.32104,-22.88891]]]}},{"type":"Feature","properties":{"c":"edificio"},"geometry":{"type":"Polygon","coordinates":[[[-69.32069,-22.88886],[-69.32044,-22.88863],[-69.32041,-22.88865],[-69.3203,-22.88855],[-69.3202,-22.88865],[-69.32056,-22.88898],[-69.32069,-22.88886]]]}},{"type":"Feature","properties":{"c":"edificio"},"geometry":{"type":"Polygon","coordinates":[[[-69.32085,-22.8892],[-69.32066,-22.88901],[-69.3206,-22.88907],[-69.32079,-22.88925],[-69.32085,-22.8892]]]}},{"type":"Feature","properties":{"c":"edificio"},"geometry":{"type":"Polygon","coordinates":[[[-69.32094,-22.88928],[-69.32088,-22.88922],[-69.32082,-22.88928],[-69.32088,-22.88933],[-69.32094,-22.88928]]]}},{"type":"Feature","properties":{"c":"edificio"},"geometry":{"type":"Polygon","coordinates":[[[-69.32116,-22.88908],[-69.3211,-22.88902],[-69.3209,-22.8892],[-69.32096,-22.88926],[-69.32116,-22.88908]]]}},{"type":"Feature","properties":{"c":"edificio"},"geometry":{"type":"Polygon","coordinates":[[[-69.31694,-22.88998],[-69.31683,-22.88989],[-69.31674,-22.88999],[-69.31684,-22.89008],[-69.31694,-22.88998]]]}},{"type":"Feature","properties":{"c":"edificio"},"geometry":{"type":"Polygon","coordinates":[[[-69.31931,-22.89013],[-69.31944,-22.89001],[-69.31934,-22.88991],[-69.31931,-22.88994],[-69.31933,-22.88996],[-69.31922,-22.89005],[-69.31931,-22.89013]]]}},{"type":"Feature","properties":{"c":"edificio"},"geometry":{"type":"Polygon","coordinates":[[[-69.31923,-22.89072],[-69.31917,-22.89066],[-69.31906,-22.89076],[-69.31912,-22.89082],[-69.31923,-22.89072]]]}},{"type":"Feature","properties":{"c":"edificio"},"geometry":{"type":"Polygon","coordinates":[[[-69.31895,-22.89097],[-69.31899,-22.89094],[-69.31886,-22.89082],[-69.31882,-22.89085],[-69.31895,-22.89097]]]}},{"type":"Feature","properties":{"c":"edificio"},"geometry":{"type":"Polygon","coordinates":[[[-69.31892,-22.89186],[-69.31887,-22.89182],[-69.31879,-22.89189],[-69.31884,-22.89194],[-69.31892,-22.89186]]]}},{"type":"Feature","properties":{"c":"edificio"},"geometry":{"type":"Polygon","coordinates":[[[-69.31912,-22.89187],[-69.31907,-22.89183],[-69.31898,-22.89191],[-69.31904,-22.89196],[-69.31912,-22.89187]]]}},{"type":"Feature","properties":{"c":"edificio"},"geometry":{"type":"Polygon","coordinates":[[[-69.32026,-22.89275],[-69.3202,-22.8927],[-69.32012,-22.89278],[-69.32017,-22.89283],[-69.32026,-22.89275]]]}},{"type":"Feature","properties":{"c":"edificio"},"geometry":{"type":"Polygon","coordinates":[[[-69.32036,-22.89277],[-69.32043,-22.89271],[-69.32038,-22.89266],[-69.32031,-22.89272],[-69.32036,-22.89277]]]}},{"type":"Feature","properties":{"c":"edificio"},"geometry":{"type":"Polygon","coordinates":[[[-69.32042,-22.89281],[-69.32048,-22.89287],[-69.32055,-22.89281],[-69.32049,-22.89275],[-69.32042,-22.89281]]]}},{"type":"Feature","properties":{"c":"edificio"},"geometry":{"type":"Polygon","coordinates":[[[-69.3205,-22.89274],[-69.32045,-22.89269],[-69.32043,-22.89271],[-69.32036,-22.89277],[-69.32042,-22.89281],[-69.32049,-22.89275],[-69.3205,-22.89274]]]}},{"type":"Feature","properties":{"c":"edificio"},"geometry":{"type":"Polygon","coordinates":[[[-69.3207,-22.89203],[-69.32057,-22.89191],[-69.32048,-22.892],[-69.32052,-22.89204],[-69.32057,-22.89199],[-69.32066,-22.89207],[-69.3207,-22.89203]]]}},{"type":"Feature","properties":{"c":"edificio"},"geometry":{"type":"Polygon","coordinates":[[[-69.32098,-22.89186],[-69.32093,-22.89181],[-69.32085,-22.89189],[-69.32091,-22.89193],[-69.32098,-22.89186]]]}},{"type":"Feature","properties":{"c":"edificio"},"geometry":{"type":"Polygon","coordinates":[[[-69.32121,-22.89176],[-69.32114,-22.89169],[-69.32106,-22.89178],[-69.32113,-22.89184],[-69.32121,-22.89176]]]}},{"type":"Feature","properties":{"c":"edificio"},"geometry":{"type":"Polygon","coordinates":[[[-69.32124,-22.892],[-69.32118,-22.89195],[-69.32108,-22.89205],[-69.32114,-22.8921],[-69.32124,-22.892]]]}},{"type":"Feature","properties":{"c":"edificio"},"geometry":{"type":"Polygon","coordinates":[[[-69.32111,-22.89186],[-69.32104,-22.8918],[-69.32098,-22.89186],[-69.32091,-22.89193],[-69.32088,-22.89196],[-69.32095,-22.89202],[-69.32111,-22.89186]]]}},{"type":"Feature","properties":{"c":"camino"},"geometry":{"type":"LineString","coordinates":[[-69.32021,-22.88181],[-69.32005,-22.88178],[-69.31989,-22.88176],[-69.31974,-22.88175],[-69.31959,-22.88174],[-69.31952,-22.88174],[-69.31944,-22.88174],[-69.31936,-22.88175],[-69.31928,-22.88176],[-69.3192,-22.88178],[-69.31912,-22.88181],[-69.31904,-22.88185],[-69.31897,-22.88189],[-69.3189,-22.88194],[-69.31884,-22.88199],[-69.3186,-22.88216],[-69.31854,-22.88219],[-69.31847,-22.8822],[-69.31841,-22.88221],[-69.31835,-22.88221],[-69.31829,-22.8822],[-69.31813,-22.88216],[-69.31797,-22.88212],[-69.31789,-22.88209],[-69.3178,-22.88207],[-69.31773,-22.88205],[-69.31766,-22.88205],[-69.31759,-22.88205],[-69.31751,-22.88204],[-69.31743,-22.88203],[-69.31732,-22.88201],[-69.31722,-22.88199],[-69.31712,-22.88197],[-69.31702,-22.88195],[-69.31696,-22.88195],[-69.3169,-22.88195],[-69.31679,-22.88194],[-69.31669,-22.88193],[-69.3166,-22.88192],[-69.3165,-22.88189],[-69.31641,-22.88186],[-69.31632,-22.88182],[-69.31628,-22.8818],[-69.31624,-22.88178],[-69.3162,-22.88177],[-69.31616,-22.88176],[-69.3161,-22.88175],[-69.31604,-22.88176],[-69.31598,-22.88176],[-69.31593,-22.88177],[-69.31587,-22.88176],[-69.3158,-22.88175],[-69.31573,-22.88174],[-69.31567,-22.88172],[-69.31561,-22.8817],[-69.31555,-22.88169],[-69.31548,-22.88168],[-69.31523,-22.88166],[-69.3143,-22.88164],[-69.31421,-22.88163],[-69.31412,-22.88163],[-69.31398,-22.88161]]}},{"type":"Feature","properties":{"c":"camino"},"geometry":{"type":"LineString","coordinates":[[-69.31965,-22.87974],[-69.31951,-22.87984],[-69.31938,-22.87994],[-69.31925,-22.88006],[-69.31913,-22.88017],[-69.31899,-22.88029],[-69.31884,-22.88041],[-69.31878,-22.88047],[-69.31871,-22.88053],[-69.31864,-22.88058],[-69.31856,-22.88063],[-69.31849,-22.88066],[-69.31842,-22.88069],[-69.31834,-22.88072],[-69.31827,-22.88073],[-69.3182,-22.88074],[-69.31811,-22.88077],[-69.31803,-22.8808],[-69.31792,-22.88085],[-69.31779,-22.88089],[-69.31769,-22.88091],[-69.31758,-22.88095],[-69.31746,-22.88099],[-69.31734,-22.88104],[-69.3172,-22.88111],[-69.31706,-22.88118],[-69.31693,-22.88123],[-69.31682,-22.88128],[-69.3167,-22.88131],[-69.31657,-22.88134],[-69.31652,-22.88136],[-69.31646,-22.88138],[-69.31641,-22.88141],[-69.31635,-22.88144],[-69.31633,-22.88146],[-69.31631,-22.88148],[-69.31628,-22.88152],[-69.31625,-22.88155],[-69.31624,-22.88159],[-69.31616,-22.88176],[-69.31613,-22.88182],[-69.31595,-22.88215],[-69.31591,-22.8822],[-69.31587,-22.88224],[-69.31583,-22.88227],[-69.31578,-22.8823],[-69.31572,-22.88232],[-69.31567,-22.88234],[-69.31561,-22.88235],[-69.31554,-22.88236],[-69.31547,-22.88235],[-69.3154,-22.88234],[-69.31512,-22.88228],[-69.31505,-22.88226],[-69.31497,-22.88224],[-69.3149,-22.88224],[-69.31483,-22.88224],[-69.31476,-22.88225],[-69.31466,-22.88225],[-69.31456,-22.88224],[-69.31448,-22.88223],[-69.3144,-22.88223],[-69.31432,-22.88223],[-69.31424,-22.88223],[-69.31417,-22.88224],[-69.31403,-22.88227],[-69.31389,-22.88229],[-69.31372,-22.88232],[-69.31364,-22.88233],[-69.31355,-22.88234],[-69.31345,-22.88234],[-69.31334,-22.88234],[-69.31325,-22.88234],[-69.31315,-22.88235],[-69.31306,-22.88236],[-69.31299,-22.88236],[-69.31292,-22.88236],[-69.31285,-22.88238],[-69.3128,-22.88239],[-69.31275,-22.88239],[-69.3127,-22.8824],[-69.31265,-22.88239],[-69.31262,-22.88239],[-69.31259,-22.88239],[-69.31256,-22.88239],[-69.31254,-22.8824],[-69.31251,-22.88242],[-69.3124,-22.88248]]}},{"type":"Feature","properties":{"c":"camino"},"geometry":{"type":"LineString","coordinates":[[-69.31888,-22.8882],[-69.3188,-22.88814],[-69.31846,-22.88782],[-69.31827,-22.88761],[-69.31821,-22.88756],[-69.31808,-22.88737],[-69.31794,-22.88719],[-69.31778,-22.88702],[-69.31767,-22.8869],[-69.31756,-22.88679],[-69.31745,-22.8867],[-69.31734,-22.88661],[-69.31726,-22.88653],[-69.31718,-22.88644],[-69.31711,-22.88634],[-69.31704,-22.88626],[-69.31698,-22.88617],[-69.31692,-22.88607],[-69.31692,-22.88606],[-69.31688,-22.88598],[-69.31685,-22.88589],[-69.31683,-22.8858],[-69.31681,-22.88561],[-69.3168,-22.88543],[-69.31679,-22.88524],[-69.31679,-22.88503],[-69.31679,-22.88481],[-69.3168,-22.8846],[-69.31688,-22.8825],[-69.3169,-22.88195],[-69.31691,-22.88153],[-69.31693,-22.88123]]}},{"type":"Feature","properties":{"c":"zona","n":"Vertedero Municipal de Sierra Gorda"},"geometry":{"type":"Polygon","coordinates":[[[-69.30968,-22.89844],[-69.31002,-22.89881],[-69.31032,-22.89913],[-69.31179,-22.9004],[-69.31065,-22.90128],[-69.30983,-22.90033],[-69.30931,-22.90072],[-69.30825,-22.89956],[-69.30968,-22.89844]]]}},{"type":"Feature","properties":{"c":"camino"},"geometry":{"type":"LineString","coordinates":[[-69.31109,-22.89797],[-69.31139,-22.89789],[-69.31183,-22.89782],[-69.31231,-22.89781],[-69.31277,-22.89777],[-69.31323,-22.89764],[-69.31368,-22.8976],[-69.31412,-22.89753],[-69.31453,-22.89755],[-69.31497,-22.89764],[-69.31523,-22.8976],[-69.31535,-22.89764]]}},{"type":"Feature","properties":{"c":"calle"},"geometry":{"type":"LineString","coordinates":[[-69.31535,-22.89764],[-69.31558,-22.89726],[-69.31581,-22.89687],[-69.31607,-22.8964],[-69.31628,-22.89587],[-69.31631,-22.89561],[-69.31636,-22.89523],[-69.31641,-22.89491],[-69.31648,-22.89469],[-69.31652,-22.89457],[-69.31663,-22.89421],[-69.31669,-22.89394],[-69.31678,-22.89369],[-69.317,-22.89338],[-69.3173,-22.89313]]}},{"type":"Feature","properties":{"c":"camino","n":"Ruta B-229"},"geometry":{"type":"LineString","coordinates":[[-69.31423,-22.88998],[-69.31103,-22.89045],[-69.31079,-22.89045],[-69.30949,-22.8902],[-69.30867,-22.88999],[-69.30817,-22.88995]]}},{"type":"Feature","properties":{"c":"camino"},"geometry":{"type":"LineString","coordinates":[[-69.31046,-22.88571],[-69.30963,-22.88668],[-69.30948,-22.88684],[-69.30933,-22.88699],[-69.30918,-22.88715],[-69.30902,-22.8873],[-69.30886,-22.88744],[-69.30877,-22.88751],[-69.30869,-22.88758]]}},{"type":"Feature","properties":{"c":"principal"},"geometry":{"type":"LineString","coordinates":[[-69.31257,-22.88331],[-69.31229,-22.88363]]}},{"type":"Feature","properties":{"c":"calle"},"geometry":{"type":"LineString","coordinates":[[-69.31255,-22.88301],[-69.31235,-22.88286],[-69.31211,-22.88267]]}},{"type":"Feature","properties":{"c":"principal","n":"Ruta 25"},"geometry":{"type":"LineString","coordinates":[[-69.31499,-22.88478],[-69.31485,-22.88471],[-69.31435,-22.88438],[-69.31413,-22.88422]]}},{"type":"Feature","properties":{"c":"principal"},"geometry":{"type":"LineString","coordinates":[[-69.31278,-22.88307],[-69.31366,-22.88374]]}},{"type":"Feature","properties":{"c":"calle"},"geometry":{"type":"LineString","coordinates":[[-69.31177,-22.88229],[-69.31278,-22.88307]]}},{"type":"Feature","properties":{"c":"calle","n":"Ruta 25"},"geometry":{"type":"LineString","coordinates":[[-69.3106,-22.88144],[-69.3109,-22.88165],[-69.31123,-22.88188],[-69.31177,-22.88229]]}},{"type":"Feature","properties":{"c":"calle"},"geometry":{"type":"LineString","coordinates":[[-69.31272,-22.88314],[-69.31255,-22.88301]]}},{"type":"Feature","properties":{"c":"principal"},"geometry":{"type":"LineString","coordinates":[[-69.31293,-22.88331],[-69.31272,-22.88314]]}},{"type":"Feature","properties":{"c":"calle","n":"Ruta 25"},"geometry":{"type":"LineString","coordinates":[[-69.31211,-22.88267],[-69.31195,-22.88254],[-69.31115,-22.88191],[-69.31074,-22.88156],[-69.3106,-22.88144]]}},{"type":"Feature","properties":{"c":"principal"},"geometry":{"type":"LineString","coordinates":[[-69.31278,-22.88307],[-69.31276,-22.8831],[-69.31272,-22.88314]]}},{"type":"Feature","properties":{"c":"principal"},"geometry":{"type":"LineString","coordinates":[[-69.31272,-22.88314],[-69.31269,-22.88317],[-69.31257,-22.88331]]}},{"type":"Feature","properties":{"c":"principal","n":"Ruta 25"},"geometry":{"type":"LineString","coordinates":[[-69.33568,-22.91009],[-69.33549,-22.90991],[-69.33529,-22.90974],[-69.33512,-22.90959],[-69.33497,-22.90947],[-69.3348,-22.90936],[-69.33459,-22.90921],[-69.33437,-22.90907],[-69.33412,-22.90893],[-69.33388,-22.9088],[-69.3336,-22.90865],[-69.33339,-22.90854],[-69.33317,-22.90845],[-69.33296,-22.90836],[-69.33274,-22.90827],[-69.33248,-22.90818],[-69.33222,-22.90809],[-69.33196,-22.90802],[-69.33168,-22.90794],[-69.33142,-22.90788],[-69.33116,-22.90782],[-69.33089,-22.90776],[-69.33062,-22.90772],[-69.33038,-22.90768],[-69.33014,-22.90765],[-69.32991,-22.90763],[-69.32925,-22.9076],[-69.32523,-22.90742],[-69.32366,-22.90734],[-69.32334,-22.90732],[-69.32303,-22.90729],[-69.32271,-22.90724],[-69.3224,-22.90719],[-69.3221,-22.90713],[-69.32179,-22.90706],[-69.3215,-22.90699],[-69.32122,-22.90691],[-69.32094,-22.90682],[-69.32066,-22.90672],[-69.32039,-22.90662],[-69.32012,-22.9065],[-69.31985,-22.90639],[-69.31959,-22.90626],[-69.31933,-22.90613],[-69.31908,-22.90598],[-69.31883,-22.90584],[-69.318,-22.90526],[-69.31672,-22.90415],[-69.31542,-22.90293],[-69.31049,-22.89843],[-69.30713,-22.89534],[-69.30352,-22.892],[-69.30329,-22.89177],[-69.30308,-22.89153],[-69.30287,-22.89129],[-69.3027,-22.89109],[-69.30254,-22.89089],[-69.30239,-22.89068],[-69.30226,-22.89049],[-69.30214,-22.8903],[-69.30203,-22.8901],[-69.30194,-22.88994],[-69.30186,-22.88977],[-69.30179,-22.8896],[-69.30154,-22.88901],[-69.30145,-22.8888],[-69.30136,-22.8885],[-69.30128,-22.8882],[-69.30114,-22.88765],[-69.30103,-22.88707],[-69.30092,-22.88654],[-69.30063,-22.8848],[-69.30021,-22.88239],[-69.29958,-22.87907],[-69.29943,-22.87828],[-69.29939,-22.87807],[-69.29933,-22.87787],[-69.29927,-22.87766],[-69.2992,-22.87745],[-69.29912,-22.87724],[-69.29904,-22.87703],[-69.29894,-22.87683],[-69.29881,-22.87657],[-69.29868,-22.87632],[-69.29854,-22.87607],[-69.2984,-22.87584],[-69.29825,-22.87562],[-69.2981,-22.87541],[-69.29793,-22.8752],[-69.2978,-22.87504],[-69.29766,-22.87488],[-69.29752,-22.87472],[-69.29737,-22.87456],[-69.29722,-22.87439],[-69.29706,-22.87423],[-69.29686,-22.87404],[-69.29665,-22.87386],[-69.29644,-22.87369],[-69.29616,-22.87347],[-69.29581,-22.87322],[-69.29323,-22.87158],[-69.29204,-22.87083],[-69.28263,-22.86478],[-69.27601,-22.86063],[-69.27464,-22.85976],[-69.27338,-22.85889],[-69.27138,-22.85751],[-69.26396,-22.85229],[-69.26305,-22.85163],[-69.26178,-22.85075],[-69.26055,-22.84988],[-69.25936,-22.84905],[-69.25853,-22.84849],[-69.25746,-22.84771],[-69.25667,-22.84712],[-69.256,-22.84664],[-69.25538,-22.84618],[-69.25498,-22.84588],[-69.25462,-22.84559],[-69.25426,-22.84529],[-69.25386,-22.84496],[-69.25346,-22.84462],[-69.25307,-22.84426],[-69.25261,-22.84385],[-69.25217,-22.84343],[-69.25172,-22.84301],[-69.25129,-22.84258],[-69.25086,-22.84214],[-69.25044,-22.8417],[-69.24446,-22.83496],[-69.23967,-22.82953],[-69.23648,-22.82581],[-69.2349,-22.82387],[-69.23337,-22.82198],[-69.23252,-22.82096],[-69.23146,-22.81968],[-69.23113,-22.81929],[-69.23081,-22.81889],[-69.2305,-22.81849],[-69.2302,-22.81809],[-69.2299,-22.81768],[-69.22961,-22.81727],[-69.22933,-22.81686],[-69.22906,-22.81644],[-69.22879,-22.81602],[-69.22853,-22.8156],[-69.22119,-22.80308],[-69.22091,-22.80261],[-69.22067,-22.80217],[-69.22044,-22.80175],[-69.22022,-22.80132],[-69.22,-22.80089],[-69.2198,-22.80045],[-69.2196,-22.80002],[-69.2194,-22.79957],[-69.2192,-22.79908],[-69.21901,-22.79859],[-69.21882,-22.79809],[-69.21865,-22.79759],[-69.21848,-22.79708],[-69.21833,-22.79658],[-69.21617,-22.78955],[-69.2145,-22.78417],[-69.21437,-22.78371],[-69.21425,-22.78325],[-69.21414,-22.78278],[-69.21404,-22.78231],[-69.21395,-22.78185],[-69.21387,-22.78139],[-69.21381,-22.78092],[-69.21375,-22.78046],[-69.2137,-22.77999],[-69.21366,-22.77952],[-69.21363,-22.77908],[-69.21361,-22.77864],[-69.2136,-22.77819],[-69.21359,-22.77774],[-69.21368,-22.76819],[-69.21374,-22.76479],[-69.21375,-22.76384],[-69.21376,-22.76351],[-69.21378,-22.76317],[-69.2138,-22.7628],[-69.21384,-22.76246],[-69.21388,-22.76211],[-69.21394,-22.76177],[-69.21401,-22.76143],[-69.21408,-22.76109],[-69.21416,-22.76081],[-69.21424,-22.76055],[-69.21434,-22.76025],[-69.21447,-22.75992],[-69.21459,-22.75961],[-69.21477,-22.75921],[-69.21502,-22.75865],[-69.21556,-22.75743]]}},{"type":"Feature","properties":{"c":"calle","n":"Santa María"},"geometry":{"type":"LineString","coordinates":[[-69.32012,-22.89216],[-69.32016,-22.89212],[-69.3205,-22.89179],[-69.32053,-22.89176],[-69.32056,-22.89173],[-69.32097,-22.89134],[-69.32102,-22.89129]]}},{"type":"Feature","properties":{"c":"principal","n":"Avenida Salvador Allende"},"geometry":{"type":"LineString","coordinates":[[-69.32006,-22.89044],[-69.32002,-22.89041],[-69.31961,-22.89005],[-69.31957,-22.89002]]}},{"type":"Feature","properties":{"c":"principal"},"geometry":{"type":"LineString","coordinates":[[-69.31828,-22.8888],[-69.31749,-22.88756],[-69.31739,-22.88741],[-69.31729,-22.88725]]}},{"type":"Feature","properties":{"c":"calle","n":"Caracoles"},"geometry":{"type":"LineString","coordinates":[[-69.31974,-22.88986],[-69.31993,-22.88968]]}},{"type":"Feature","properties":{"c":"calle","n":"Caracoles"},"geometry":{"type":"LineString","coordinates":[[-69.31957,-22.89002],[-69.31961,-22.88998],[-69.31964,-22.88995],[-69.31974,-22.88986]]}},{"type":"Feature","properties":{"c":"principal","n":"Avenida Salvador Allende"},"geometry":{"type":"LineString","coordinates":[[-69.32057,-22.89089],[-69.32051,-22.89084],[-69.32009,-22.89047],[-69.32006,-22.89044]]}},{"type":"Feature","properties":{"c":"principal","n":"Avenida Salvador Allende"},"geometry":{"type":"LineString","coordinates":[[-69.31957,-22.89002],[-69.31953,-22.88998],[-69.31908,-22.88958],[-69.31845,-22.88901],[-69.31835,-22.8889],[-69.31828,-22.8888]]}},{"type":"Feature","properties":{"c":"principal"},"geometry":{"type":"LineString","coordinates":[[-69.32263,-22.89263],[-69.32173,-22.89189]]}},{"type":"Feature","properties":{"c":"principal"},"geometry":{"type":"LineString","coordinates":[[-69.32409,-22.89384],[-69.32263,-22.89263]]}},{"type":"Feature","properties":{"c":"calle","n":"Jaime Guzmán"},"geometry":{"type":"LineString","coordinates":[[-69.32173,-22.89189],[-69.32167,-22.89195],[-69.32123,-22.89237],[-69.32081,-22.89278],[-69.32046,-22.89312]]}},{"type":"Feature","properties":{"c":"principal"},"geometry":{"type":"LineString","coordinates":[[-69.30134,-22.88657],[-69.30183,-22.88635],[-69.30202,-22.88627],[-69.30206,-22.88625],[-69.30331,-22.88571],[-69.30344,-22.88567],[-69.30356,-22.88563],[-69.30369,-22.8856],[-69.30383,-22.88557],[-69.30396,-22.88556],[-69.3041,-22.88556],[-69.30423,-22.88557],[-69.30436,-22.88558],[-69.30734,-22.88623],[-69.30821,-22.8864],[-69.30835,-22.88642],[-69.3085,-22.88643],[-69.30864,-22.88644],[-69.30878,-22.88644],[-69.30892,-22.88643],[-69.30907,-22.88641],[-69.30921,-22.88638],[-69.30935,-22.88635],[-69.30949,-22.88631],[-69.30962,-22.88626],[-69.30976,-22.8862],[-69.30989,-22.88614],[-69.31001,-22.88606],[-69.31013,-22.88598],[-69.31025,-22.8859],[-69.31035,-22.88581],[-69.31046,-22.88571]]}},{"type":"Feature","properties":{"c":"principal"},"geometry":{"type":"LineString","coordinates":[[-69.31893,-22.88868],[-69.31885,-22.88865],[-69.31876,-22.88863],[-69.31872,-22.88861],[-69.31868,-22.88861],[-69.31856,-22.88863],[-69.31845,-22.88865],[-69.31838,-22.88864],[-69.31833,-22.88863],[-69.31827,-22.88859],[-69.31825,-22.88855],[-69.31823,-22.8885],[-69.31823,-22.88845],[-69.31825,-22.88841],[-69.31828,-22.88838],[-69.31832,-22.88836],[-69.31838,-22.88835],[-69.31845,-22.88835],[-69.31853,-22.88838],[-69.31862,-22.88843],[-69.31866,-22.88845],[-69.31873,-22.88849],[-69.31889,-22.88864],[-69.31893,-22.88868]]}},{"type":"Feature","properties":{"c":"camino"},"geometry":{"type":"LineString","coordinates":[[-69.3209,-22.88775],[-69.32072,-22.88771],[-69.32059,-22.88773],[-69.32025,-22.88783],[-69.32005,-22.88782],[-69.31954,-22.88771]]}},{"type":"Feature","properties":{"c":"tren"},"geometry":{"type":"LineString","coordinates":[[-69.32555,-22.89462],[-69.32512,-22.8941],[-69.32299,-22.89194],[-69.32193,-22.89097],[-69.32132,-22.89041],[-69.31932,-22.88874],[-69.31898,-22.88854]]}},{"type":"Feature","properties":{"c":"tren"},"geometry":{"type":"LineString","coordinates":[[-69.32193,-22.89097],[-69.32133,-22.89034],[-69.31965,-22.88894],[-69.31932,-22.88874]]}},{"type":"Feature","properties":{"c":"principal"},"geometry":{"type":"LineString","coordinates":[[-69.31229,-22.88363],[-69.31199,-22.88396],[-69.31046,-22.88571]]}},{"type":"Feature","properties":{"c":"principal"},"geometry":{"type":"LineString","coordinates":[[-69.3326,-22.90466],[-69.33153,-22.90319],[-69.32644,-22.89621],[-69.32622,-22.89591],[-69.32609,-22.89573],[-69.32596,-22.89556],[-69.32582,-22.89539],[-69.32567,-22.89523],[-69.32551,-22.89506],[-69.32535,-22.8949],[-69.32518,-22.89474],[-69.32501,-22.89459],[-69.32409,-22.89384]]}},{"type":"Feature","properties":{"c":"camino"},"geometry":{"type":"LineString","coordinates":[[-69.31371,-22.90028],[-69.31447,-22.89905],[-69.31508,-22.89809],[-69.31535,-22.89764]]}},{"type":"Feature","properties":{"c":"camino"},"geometry":{"type":"LineString","coordinates":[[-69.31049,-22.89843],[-69.31037,-22.89853],[-69.31002,-22.89881],[-69.30969,-22.89904]]}}]}